; ============================================
; Zigzag Mesh Cylinder
; Printer:   Elegoo Neptune 4 Max
; Cylinder:  φ30.0mm × H30.0mm
; Nozzle:    1.8mm    Filament: 1.75mm
; Layers:    6 × 4.80mm  +  ring 1.2mm
; N_OSC:     12  OVERLAP: 1.0mm  Z_AMP: ±2.90mm
; Material:  PLA   Nozzle 200°C  Bed 60°C
; Speed:     1.6666666666666667mm/s (100mm/min)
; Center:    X210.0 Y210.0
; E/mm ring: 0.8980  E/mm mesh: 1.0580
; ============================================

; --- Start sequence ---
M104 S200          ; Nozzle preheat
M140 S60             ; Bed preheat
G28                    ; Home all
M109 S200          ; Wait nozzle temp
M190 S60             ; Wait bed temp
G21                    ; Units mm
G90                    ; Absolute XYZ
M83                    ; Relative extrusion
G92 E0                 ; Reset extruder
M106 S255              ; Fan 100%

; --- Bottom ring ---
M221 S100
G1 Z6.200 F6000   ; Lift
G1 X225.000 Y210.000 F6000  ; Move to start
G1 Z1.200 F3000  ; Lower
G1 F600
G1 X224.993 Y210.474 Z1.200 E0.42529
G1 X224.970 Y210.947 Z1.200 E0.42529
G1 X224.933 Y211.419 Z1.200 E0.42529
G1 X224.881 Y211.889 Z1.200 E0.42529
G1 X224.813 Y212.358 Z1.200 E0.42529
G1 X224.732 Y212.825 Z1.200 E0.42529
G1 X224.635 Y213.288 Z1.200 E0.42529
G1 X224.524 Y213.749 Z1.200 E0.42529
G1 X224.398 Y214.205 Z1.200 E0.42529
G1 X224.259 Y214.658 Z1.200 E0.42529
G1 X224.104 Y215.106 Z1.200 E0.42529
G1 X223.936 Y215.548 Z1.200 E0.42529
G1 X223.754 Y215.985 Z1.200 E0.42529
G1 X223.558 Y216.417 Z1.200 E0.42529
G1 X223.349 Y216.841 Z1.200 E0.42529
G1 X223.126 Y217.259 Z1.200 E0.42529
G1 X222.891 Y217.670 Z1.200 E0.42529
G1 X222.642 Y218.073 Z1.200 E0.42529
G1 X222.381 Y218.468 Z1.200 E0.42529
G1 X222.107 Y218.855 Z1.200 E0.42529
G1 X221.822 Y219.233 Z1.200 E0.42529
G1 X221.524 Y219.601 Z1.200 E0.42529
G1 X221.216 Y219.960 Z1.200 E0.42529
G1 X220.896 Y220.310 Z1.200 E0.42529
G1 X220.565 Y220.648 Z1.200 E0.42529
G1 X220.223 Y220.977 Z1.200 E0.42529
G1 X219.872 Y221.294 Z1.200 E0.42529
G1 X219.510 Y221.600 Z1.200 E0.42529
G1 X219.139 Y221.894 Z1.200 E0.42529
G1 X218.759 Y222.177 Z1.200 E0.42529
G1 X218.370 Y222.447 Z1.200 E0.42529
G1 X217.973 Y222.705 Z1.200 E0.42529
G1 X217.568 Y222.951 Z1.200 E0.42529
G1 X217.156 Y223.183 Z1.200 E0.42529
G1 X216.736 Y223.403 Z1.200 E0.42529
G1 X216.309 Y223.608 Z1.200 E0.42529
G1 X215.877 Y223.801 Z1.200 E0.42529
G1 X215.438 Y223.980 Z1.200 E0.42529
G1 X214.994 Y224.144 Z1.200 E0.42529
G1 X214.545 Y224.295 Z1.200 E0.42529
G1 X214.092 Y224.431 Z1.200 E0.42529
G1 X213.634 Y224.553 Z1.200 E0.42529
G1 X213.173 Y224.661 Z1.200 E0.42529
G1 X212.708 Y224.753 Z1.200 E0.42529
G1 X212.241 Y224.832 Z1.200 E0.42529
G1 X211.772 Y224.895 Z1.200 E0.42529
G1 X211.301 Y224.943 Z1.200 E0.42529
G1 X210.828 Y224.977 Z1.200 E0.42529
G1 X210.355 Y224.996 Z1.200 E0.42529
G1 X209.882 Y225.000 Z1.200 E0.42529
G1 X209.408 Y224.988 Z1.200 E0.42529
G1 X208.935 Y224.962 Z1.200 E0.42529
G1 X208.463 Y224.921 Z1.200 E0.42529
G1 X207.993 Y224.865 Z1.200 E0.42529
G1 X207.525 Y224.794 Z1.200 E0.42529
G1 X207.059 Y224.709 Z1.200 E0.42529
G1 X206.596 Y224.609 Z1.200 E0.42529
G1 X206.137 Y224.494 Z1.200 E0.42529
G1 X205.681 Y224.365 Z1.200 E0.42529
G1 X205.230 Y224.221 Z1.200 E0.42529
G1 X204.783 Y224.064 Z1.200 E0.42529
G1 X204.342 Y223.892 Z1.200 E0.42529
G1 X203.906 Y223.706 Z1.200 E0.42529
G1 X203.477 Y223.507 Z1.200 E0.42529
G1 X203.053 Y223.295 Z1.200 E0.42529
G1 X202.637 Y223.069 Z1.200 E0.42529
G1 X202.228 Y222.830 Z1.200 E0.42529
G1 X201.827 Y222.578 Z1.200 E0.42529
G1 X201.434 Y222.314 Z1.200 E0.42529
G1 X201.050 Y222.037 Z1.200 E0.42529
G1 X200.674 Y221.749 Z1.200 E0.42529
G1 X200.308 Y221.448 Z1.200 E0.42529
G1 X199.951 Y221.137 Z1.200 E0.42529
G1 X199.605 Y220.814 Z1.200 E0.42529
G1 X199.269 Y220.480 Z1.200 E0.42529
G1 X198.943 Y220.136 Z1.200 E0.42529
G1 X198.629 Y219.782 Z1.200 E0.42529
G1 X198.325 Y219.418 Z1.200 E0.42529
G1 X198.034 Y219.045 Z1.200 E0.42529
G1 X197.754 Y218.663 Z1.200 E0.42529
G1 X197.487 Y218.272 Z1.200 E0.42529
G1 X197.232 Y217.873 Z1.200 E0.42529
G1 X196.990 Y217.466 Z1.200 E0.42529
G1 X196.761 Y217.051 Z1.200 E0.42529
G1 X196.545 Y216.630 Z1.200 E0.42529
G1 X196.342 Y216.202 Z1.200 E0.42529
G1 X196.153 Y215.768 Z1.200 E0.42529
G1 X195.978 Y215.328 Z1.200 E0.42529
G1 X195.817 Y214.882 Z1.200 E0.42529
G1 X195.670 Y214.432 Z1.200 E0.42529
G1 X195.537 Y213.978 Z1.200 E0.42529
G1 X195.419 Y213.519 Z1.200 E0.42529
G1 X195.315 Y213.057 Z1.200 E0.42529
G1 X195.226 Y212.592 Z1.200 E0.42529
G1 X195.151 Y212.124 Z1.200 E0.42529
G1 X195.091 Y211.654 Z1.200 E0.42529
G1 X195.047 Y211.183 Z1.200 E0.42529
G1 X195.017 Y210.710 Z1.200 E0.42529
G1 X195.002 Y210.237 Z1.200 E0.42529
G1 X195.002 Y209.763 Z1.200 E0.42529
G1 X195.017 Y209.290 Z1.200 E0.42529
G1 X195.047 Y208.817 Z1.200 E0.42529
G1 X195.091 Y208.346 Z1.200 E0.42529
G1 X195.151 Y207.876 Z1.200 E0.42529
G1 X195.226 Y207.408 Z1.200 E0.42529
G1 X195.315 Y206.943 Z1.200 E0.42529
G1 X195.419 Y206.481 Z1.200 E0.42529
G1 X195.537 Y206.022 Z1.200 E0.42529
G1 X195.670 Y205.568 Z1.200 E0.42529
G1 X195.817 Y205.118 Z1.200 E0.42529
G1 X195.978 Y204.672 Z1.200 E0.42529
G1 X196.153 Y204.232 Z1.200 E0.42529
G1 X196.342 Y203.798 Z1.200 E0.42529
G1 X196.545 Y203.370 Z1.200 E0.42529
G1 X196.761 Y202.949 Z1.200 E0.42529
G1 X196.990 Y202.534 Z1.200 E0.42529
G1 X197.232 Y202.127 Z1.200 E0.42529
G1 X197.487 Y201.728 Z1.200 E0.42529
G1 X197.754 Y201.337 Z1.200 E0.42529
G1 X198.034 Y200.955 Z1.200 E0.42529
G1 X198.325 Y200.582 Z1.200 E0.42529
G1 X198.629 Y200.218 Z1.200 E0.42529
G1 X198.943 Y199.864 Z1.200 E0.42529
G1 X199.269 Y199.520 Z1.200 E0.42529
G1 X199.605 Y199.186 Z1.200 E0.42529
G1 X199.951 Y198.863 Z1.200 E0.42529
G1 X200.308 Y198.552 Z1.200 E0.42529
G1 X200.674 Y198.251 Z1.200 E0.42529
G1 X201.050 Y197.963 Z1.200 E0.42529
G1 X201.434 Y197.686 Z1.200 E0.42529
G1 X201.827 Y197.422 Z1.200 E0.42529
G1 X202.228 Y197.170 Z1.200 E0.42529
G1 X202.637 Y196.931 Z1.200 E0.42529
G1 X203.053 Y196.705 Z1.200 E0.42529
G1 X203.477 Y196.493 Z1.200 E0.42529
G1 X203.906 Y196.294 Z1.200 E0.42529
G1 X204.342 Y196.108 Z1.200 E0.42529
G1 X204.783 Y195.936 Z1.200 E0.42529
G1 X205.230 Y195.779 Z1.200 E0.42529
G1 X205.681 Y195.635 Z1.200 E0.42529
G1 X206.137 Y195.506 Z1.200 E0.42529
G1 X206.596 Y195.391 Z1.200 E0.42529
G1 X207.059 Y195.291 Z1.200 E0.42529
G1 X207.525 Y195.206 Z1.200 E0.42529
G1 X207.993 Y195.135 Z1.200 E0.42529
G1 X208.463 Y195.079 Z1.200 E0.42529
G1 X208.935 Y195.038 Z1.200 E0.42529
G1 X209.408 Y195.012 Z1.200 E0.42529
G1 X209.882 Y195.000 Z1.200 E0.42529
G1 X210.355 Y195.004 Z1.200 E0.42529
G1 X210.828 Y195.023 Z1.200 E0.42529
G1 X211.301 Y195.057 Z1.200 E0.42529
G1 X211.772 Y195.105 Z1.200 E0.42529
G1 X212.241 Y195.168 Z1.200 E0.42529
G1 X212.708 Y195.247 Z1.200 E0.42529
G1 X213.173 Y195.339 Z1.200 E0.42529
G1 X213.634 Y195.447 Z1.200 E0.42529
G1 X214.092 Y195.569 Z1.200 E0.42529
G1 X214.545 Y195.705 Z1.200 E0.42529
G1 X214.994 Y195.856 Z1.200 E0.42529
G1 X215.438 Y196.020 Z1.200 E0.42529
G1 X215.877 Y196.199 Z1.200 E0.42529
G1 X216.309 Y196.392 Z1.200 E0.42529
G1 X216.736 Y196.597 Z1.200 E0.42529
G1 X217.156 Y196.817 Z1.200 E0.42529
G1 X217.568 Y197.049 Z1.200 E0.42529
G1 X217.973 Y197.295 Z1.200 E0.42529
G1 X218.370 Y197.553 Z1.200 E0.42529
G1 X218.759 Y197.823 Z1.200 E0.42529
G1 X219.139 Y198.106 Z1.200 E0.42529
G1 X219.510 Y198.400 Z1.200 E0.42529
G1 X219.872 Y198.706 Z1.200 E0.42529
G1 X220.223 Y199.023 Z1.200 E0.42529
G1 X220.565 Y199.352 Z1.200 E0.42529
G1 X220.896 Y199.690 Z1.200 E0.42529
G1 X221.216 Y200.040 Z1.200 E0.42529
G1 X221.524 Y200.399 Z1.200 E0.42529
G1 X221.822 Y200.767 Z1.200 E0.42529
G1 X222.107 Y201.145 Z1.200 E0.42529
G1 X222.381 Y201.532 Z1.200 E0.42529
G1 X222.642 Y201.927 Z1.200 E0.42529
G1 X222.891 Y202.330 Z1.200 E0.42529
G1 X223.126 Y202.741 Z1.200 E0.42529
G1 X223.349 Y203.159 Z1.200 E0.42529
G1 X223.558 Y203.583 Z1.200 E0.42529
G1 X223.754 Y204.015 Z1.200 E0.42529
G1 X223.936 Y204.452 Z1.200 E0.42529
G1 X224.104 Y204.894 Z1.200 E0.42529
G1 X224.259 Y205.342 Z1.200 E0.42529
G1 X224.398 Y205.795 Z1.200 E0.42529
G1 X224.524 Y206.251 Z1.200 E0.42529
G1 X224.635 Y206.712 Z1.200 E0.42529
G1 X224.732 Y207.175 Z1.200 E0.42529
G1 X224.813 Y207.642 Z1.200 E0.42529
G1 X224.881 Y208.111 Z1.200 E0.42529
G1 X224.933 Y208.581 Z1.200 E0.42529
G1 X224.970 Y209.053 Z1.200 E0.42529
G1 X224.993 Y209.526 Z1.200 E0.42529
G1 X225.000 Y210.000 Z1.200 E0.42529
; --- Mesh layer 1/6 ---
M221 S70
G1 Z5.700 F6000   ; Lift
G1 X225.000 Y210.000 F6000  ; Move to start
G1 Z0.700 F3000  ; Lower
G1 F100
G1 X224.993 Y210.474 Z1.399 E0.89370
G1 X224.970 Y210.947 Z2.099 E0.89370
G1 X224.933 Y211.419 Z2.798 E0.89370
G1 X224.881 Y211.889 Z3.498 E0.89370
G1 X224.813 Y212.358 Z4.197 E0.89370
G1 X224.732 Y212.825 Z4.897 E0.89370
G1 X224.635 Y213.288 Z5.596 E0.89370
G1 X224.524 Y213.749 Z6.296 E0.89370
G4 P200               ; Dwell at apex
G1 X224.398 Y214.205 Z6.005 E0.58832
G1 X224.259 Y214.658 Z5.305 E0.89370
G1 X224.104 Y215.106 Z4.606 E0.89370
G1 X223.936 Y215.548 Z3.906 E0.89370
G1 X223.754 Y215.985 Z3.207 E0.89370
G1 X223.558 Y216.417 Z2.507 E0.89370
G1 X223.349 Y216.841 Z1.808 E0.89370
G1 X223.126 Y217.259 Z1.108 E0.89370
G1 X222.891 Y217.670 Z0.991 E0.51599
G4 P200               ; Dwell at apex
G1 X222.642 Y218.073 Z1.691 E0.89370
G1 X222.381 Y218.468 Z2.390 E0.89370
G1 X222.107 Y218.855 Z3.090 E0.89370
G1 X221.822 Y219.233 Z3.789 E0.89370
G1 X221.524 Y219.601 Z4.489 E0.89370
G1 X221.216 Y219.960 Z5.188 E0.89370
G1 X220.896 Y220.310 Z5.888 E0.89370
G1 X220.565 Y220.648 Z6.413 E0.74773
G4 P200               ; Dwell at apex
G1 X220.223 Y220.977 Z5.713 E0.89370
G1 X219.872 Y221.294 Z5.014 E0.89370
G1 X219.510 Y221.600 Z4.314 E0.89370
G1 X219.139 Y221.894 Z3.615 E0.89370
G1 X218.759 Y222.177 Z2.915 E0.89370
G1 X218.370 Y222.447 Z2.216 E0.89370
G1 X217.973 Y222.705 Z1.516 E0.89370
G1 X217.568 Y222.951 Z0.817 E0.89370
G4 P200               ; Dwell at apex
G1 X217.156 Y223.183 Z1.283 E0.70316
G1 X216.736 Y223.403 Z1.982 E0.89370
G1 X216.309 Y223.608 Z2.682 E0.89370
G1 X215.877 Y223.801 Z3.381 E0.89370
G1 X215.438 Y223.980 Z4.081 E0.89370
G1 X214.994 Y224.144 Z4.780 E0.89370
G1 X214.545 Y224.295 Z5.480 E0.89370
G1 X214.092 Y224.431 Z6.179 E0.89370
G4 P200               ; Dwell at apex
G1 X213.634 Y224.553 Z6.121 E0.50482
G1 X213.173 Y224.661 Z5.422 E0.89370
G1 X212.708 Y224.753 Z4.722 E0.89370
G1 X212.241 Y224.832 Z4.023 E0.89370
G1 X211.772 Y224.895 Z3.323 E0.89370
G1 X211.301 Y224.943 Z2.624 E0.89370
G1 X210.828 Y224.977 Z1.924 E0.89370
G1 X210.355 Y224.996 Z1.225 E0.89370
G1 X209.882 Y225.000 Z0.875 E0.62286
G4 P200               ; Dwell at apex
G1 X209.408 Y224.988 Z1.574 E0.89370
G1 X208.935 Y224.962 Z2.274 E0.89370
G1 X208.463 Y224.921 Z2.973 E0.89370
G1 X207.993 Y224.865 Z3.673 E0.89370
G1 X207.525 Y224.794 Z4.372 E0.89370
G1 X207.059 Y224.709 Z5.072 E0.89370
G1 X206.596 Y224.609 Z5.771 E0.89370
G1 X206.137 Y224.494 Z6.471 E0.89370
G4 P200               ; Dwell at apex
G1 X205.681 Y224.365 Z5.830 E0.84334
G1 X205.230 Y224.221 Z5.130 E0.89370
G1 X204.783 Y224.064 Z4.431 E0.89370
G1 X204.342 Y223.892 Z3.731 E0.89370
G1 X203.906 Y223.706 Z3.032 E0.89370
G1 X203.477 Y223.507 Z2.332 E0.89370
G1 X203.053 Y223.295 Z1.633 E0.89370
G1 X202.637 Y223.069 Z0.933 E0.89370
G4 P200               ; Dwell at apex
G1 X202.228 Y222.830 Z1.166 E0.55847
G1 X201.827 Y222.578 Z1.866 E0.89370
G1 X201.434 Y222.314 Z2.565 E0.89370
G1 X201.050 Y222.037 Z3.265 E0.89370
G1 X200.674 Y221.749 Z3.964 E0.89370
G1 X200.308 Y221.448 Z4.664 E0.89370
G1 X199.951 Y221.137 Z5.363 E0.89370
G1 X199.605 Y220.814 Z6.063 E0.89370
G1 X199.269 Y220.480 Z6.238 E0.53410
G4 P200               ; Dwell at apex
G1 X198.943 Y220.136 Z5.538 E0.89370
G1 X198.629 Y219.782 Z4.839 E0.89370
G1 X198.325 Y219.418 Z4.139 E0.89370
G1 X198.034 Y219.045 Z3.440 E0.89370
G1 X197.754 Y218.663 Z2.740 E0.89370
G1 X197.487 Y218.272 Z2.041 E0.89370
G1 X197.232 Y217.873 Z1.341 E0.89370
G1 X196.990 Y217.466 Z0.758 E0.79458
G4 P200               ; Dwell at apex
G1 X196.761 Y217.051 Z1.458 E0.89370
G1 X196.545 Y216.630 Z2.157 E0.89370
G1 X196.342 Y216.202 Z2.857 E0.89370
G1 X196.153 Y215.768 Z3.556 E0.89370
G1 X195.978 Y215.328 Z4.256 E0.89370
G1 X195.817 Y214.882 Z4.955 E0.89370
G1 X195.670 Y214.432 Z5.655 E0.89370
G1 X195.537 Y213.978 Z6.354 E0.89370
G4 P200               ; Dwell at apex
G1 X195.419 Y213.519 Z5.946 E0.66136
G1 X195.315 Y213.057 Z5.247 E0.89370
G1 X195.226 Y212.592 Z4.547 E0.89370
G1 X195.151 Y212.124 Z3.848 E0.89370
G1 X195.091 Y211.654 Z3.148 E0.89370
G1 X195.047 Y211.183 Z2.449 E0.89370
G1 X195.017 Y210.710 Z1.749 E0.89370
G1 X195.002 Y210.237 Z1.050 E0.89370
G4 P200               ; Dwell at apex
G1 X195.002 Y209.763 Z1.050 E0.50104
G1 X195.017 Y209.290 Z1.749 E0.89370
G1 X195.047 Y208.817 Z2.449 E0.89370
G1 X195.091 Y208.346 Z3.148 E0.89370
G1 X195.151 Y207.876 Z3.848 E0.89370
G1 X195.226 Y207.408 Z4.547 E0.89370
G1 X195.315 Y206.943 Z5.247 E0.89370
G1 X195.419 Y206.481 Z5.946 E0.89370
G1 X195.537 Y206.022 Z6.354 E0.66136
G4 P200               ; Dwell at apex
G1 X195.670 Y205.568 Z5.655 E0.89370
G1 X195.817 Y205.118 Z4.955 E0.89370
G1 X195.978 Y204.672 Z4.256 E0.89370
G1 X196.153 Y204.232 Z3.556 E0.89370
G1 X196.342 Y203.798 Z2.857 E0.89370
G1 X196.545 Y203.370 Z2.157 E0.89370
G1 X196.761 Y202.949 Z1.458 E0.89370
G1 X196.990 Y202.534 Z0.758 E0.89370
G4 P200               ; Dwell at apex
G1 X197.232 Y202.127 Z1.341 E0.79458
G1 X197.487 Y201.728 Z2.041 E0.89370
G1 X197.754 Y201.337 Z2.740 E0.89370
G1 X198.034 Y200.955 Z3.440 E0.89370
G1 X198.325 Y200.582 Z4.139 E0.89370
G1 X198.629 Y200.218 Z4.839 E0.89370
G1 X198.943 Y199.864 Z5.538 E0.89370
G1 X199.269 Y199.520 Z6.238 E0.89370
G4 P200               ; Dwell at apex
G1 X199.605 Y199.186 Z6.063 E0.53410
G1 X199.951 Y198.863 Z5.363 E0.89370
G1 X200.308 Y198.552 Z4.664 E0.89370
G1 X200.674 Y198.251 Z3.964 E0.89370
G1 X201.050 Y197.963 Z3.265 E0.89370
G1 X201.434 Y197.686 Z2.565 E0.89370
G1 X201.827 Y197.422 Z1.866 E0.89370
G1 X202.228 Y197.170 Z1.166 E0.89370
G1 X202.637 Y196.931 Z0.933 E0.55847
G4 P200               ; Dwell at apex
G1 X203.053 Y196.705 Z1.633 E0.89370
G1 X203.477 Y196.493 Z2.332 E0.89370
G1 X203.906 Y196.294 Z3.032 E0.89370
G1 X204.342 Y196.108 Z3.731 E0.89370
G1 X204.783 Y195.936 Z4.431 E0.89370
G1 X205.230 Y195.779 Z5.130 E0.89370
G1 X205.681 Y195.635 Z5.830 E0.89370
G1 X206.137 Y195.506 Z6.471 E0.84334
G4 P200               ; Dwell at apex
G1 X206.596 Y195.391 Z5.771 E0.89370
G1 X207.059 Y195.291 Z5.072 E0.89370
G1 X207.525 Y195.206 Z4.372 E0.89370
G1 X207.993 Y195.135 Z3.673 E0.89370
G1 X208.463 Y195.079 Z2.973 E0.89370
G1 X208.935 Y195.038 Z2.274 E0.89370
G1 X209.408 Y195.012 Z1.574 E0.89370
G1 X209.882 Y195.000 Z0.875 E0.89370
G4 P200               ; Dwell at apex
G1 X210.355 Y195.004 Z1.225 E0.62286
G1 X210.828 Y195.023 Z1.924 E0.89370
G1 X211.301 Y195.057 Z2.624 E0.89370
G1 X211.772 Y195.105 Z3.323 E0.89370
G1 X212.241 Y195.168 Z4.023 E0.89370
G1 X212.708 Y195.247 Z4.722 E0.89370
G1 X213.173 Y195.339 Z5.422 E0.89370
G1 X213.634 Y195.447 Z6.121 E0.89370
G1 X214.092 Y195.569 Z6.179 E0.50482
G4 P200               ; Dwell at apex
G1 X214.545 Y195.705 Z5.480 E0.89370
G1 X214.994 Y195.856 Z4.780 E0.89370
G1 X215.438 Y196.020 Z4.081 E0.89370
G1 X215.877 Y196.199 Z3.381 E0.89370
G1 X216.309 Y196.392 Z2.682 E0.89370
G1 X216.736 Y196.597 Z1.982 E0.89370
G1 X217.156 Y196.817 Z1.283 E0.89370
G1 X217.568 Y197.049 Z0.817 E0.70316
G4 P200               ; Dwell at apex
G1 X217.973 Y197.295 Z1.516 E0.89370
G1 X218.370 Y197.553 Z2.216 E0.89370
G1 X218.759 Y197.823 Z2.915 E0.89370
G1 X219.139 Y198.106 Z3.615 E0.89370
G1 X219.510 Y198.400 Z4.314 E0.89370
G1 X219.872 Y198.706 Z5.014 E0.89370
G1 X220.223 Y199.023 Z5.713 E0.89370
G1 X220.565 Y199.352 Z6.413 E0.89370
G4 P200               ; Dwell at apex
G1 X220.896 Y199.690 Z5.888 E0.74773
G1 X221.216 Y200.040 Z5.188 E0.89370
G1 X221.524 Y200.399 Z4.489 E0.89370
G1 X221.822 Y200.767 Z3.789 E0.89370
G1 X222.107 Y201.145 Z3.090 E0.89370
G1 X222.381 Y201.532 Z2.390 E0.89370
G1 X222.642 Y201.927 Z1.691 E0.89370
G1 X222.891 Y202.330 Z0.991 E0.89370
G4 P200               ; Dwell at apex
G1 X223.126 Y202.741 Z1.108 E0.51599
G1 X223.349 Y203.159 Z1.808 E0.89370
G1 X223.558 Y203.583 Z2.507 E0.89370
G1 X223.754 Y204.015 Z3.207 E0.89370
G1 X223.936 Y204.452 Z3.906 E0.89370
G1 X224.104 Y204.894 Z4.606 E0.89370
G1 X224.259 Y205.342 Z5.305 E0.89370
G1 X224.398 Y205.795 Z6.005 E0.89370
G1 X224.524 Y206.251 Z6.296 E0.58832
G4 P200               ; Dwell at apex
G1 X224.635 Y206.712 Z5.596 E0.89370
G1 X224.732 Y207.175 Z4.897 E0.89370
G1 X224.813 Y207.642 Z4.197 E0.89370
G1 X224.881 Y208.111 Z3.498 E0.89370
G1 X224.933 Y208.581 Z2.798 E0.89370
G1 X224.970 Y209.053 Z2.099 E0.89370
G1 X224.993 Y209.526 Z1.399 E0.89370
G1 X225.000 Y210.000 Z0.700 E0.89370
; --- Mesh layer 2/6 ---
M221 S70
G1 Z13.400 F6000   ; Lift
G1 X224.872 Y211.958 F6000  ; Move to start
G1 Z8.400 F3000  ; Lower
G1 F100
G1 X224.802 Y212.426 Z7.701 E0.89370
G1 X224.718 Y212.892 Z7.001 E0.89370
G1 X224.620 Y213.356 Z6.302 E0.89370
G1 X224.507 Y213.816 Z5.602 E0.89370
G4 P200               ; Dwell at apex
G1 X224.379 Y214.272 Z6.097 E0.72513
G1 X224.237 Y214.723 Z6.797 E0.89370
G1 X224.081 Y215.170 Z7.496 E0.89370
G1 X223.910 Y215.612 Z8.196 E0.89370
G1 X223.726 Y216.049 Z8.895 E0.89370
G1 X223.529 Y216.479 Z9.595 E0.89370
G1 X223.317 Y216.903 Z10.294 E0.89370
G1 X223.093 Y217.320 Z10.994 E0.89370
G4 P200               ; Dwell at apex
G1 X222.855 Y217.730 Z10.907 E0.50950
G1 X222.605 Y218.131 Z10.207 E0.89370
G1 X222.342 Y218.525 Z9.508 E0.89370
G1 X222.066 Y218.911 Z8.808 E0.89370
G1 X221.779 Y219.287 Z8.109 E0.89370
G1 X221.480 Y219.654 Z7.409 E0.89370
G1 X221.170 Y220.012 Z6.710 E0.89370
G1 X220.848 Y220.360 Z6.010 E0.89370
G1 X220.516 Y220.697 Z5.689 E0.60505
G4 P200               ; Dwell at apex
G1 X220.173 Y221.024 Z6.389 E0.89370
G1 X219.820 Y221.339 Z7.088 E0.89370
G1 X219.457 Y221.644 Z7.788 E0.89370
G1 X219.084 Y221.936 Z8.487 E0.89370
G1 X218.703 Y222.217 Z9.187 E0.89370
G1 X218.313 Y222.486 Z9.886 E0.89370
G1 X217.915 Y222.742 Z10.586 E0.89370
G1 X217.509 Y222.985 Z11.285 E0.89370
G4 P200               ; Dwell at apex
G1 X217.095 Y223.216 Z10.615 E0.86834
G1 X216.674 Y223.433 Z9.916 E0.89370
G1 X216.247 Y223.637 Z9.216 E0.89370
G1 X215.813 Y223.828 Z8.517 E0.89370
G1 X215.374 Y224.004 Z7.817 E0.89370
G1 X214.929 Y224.167 Z7.118 E0.89370
G1 X214.479 Y224.316 Z6.418 E0.89370
G1 X214.025 Y224.450 Z5.719 E0.89370
G4 P200               ; Dwell at apex
G1 X213.567 Y224.570 Z5.981 E0.57276
G1 X213.105 Y224.675 Z6.680 E0.89370
G1 X212.640 Y224.766 Z7.380 E0.89370
G1 X212.173 Y224.842 Z8.079 E0.89370
G1 X211.703 Y224.903 Z8.779 E0.89370
G1 X211.232 Y224.949 Z9.478 E0.89370
G1 X210.759 Y224.981 Z10.178 E0.89370
G1 X210.286 Y224.997 Z10.877 E0.89370
G1 X209.813 Y224.999 Z11.023 E0.52422
G4 P200               ; Dwell at apex
G1 X209.339 Y224.985 Z10.324 E0.89370
G1 X208.866 Y224.957 Z9.624 E0.89370
G1 X208.395 Y224.914 Z8.925 E0.89370
G1 X207.925 Y224.856 Z8.225 E0.89370
G1 X207.457 Y224.783 Z7.526 E0.89370
G1 X206.991 Y224.695 Z6.826 E0.89370
G1 X206.529 Y224.593 Z6.127 E0.89370
G1 X206.070 Y224.476 Z5.573 E0.77089
G4 P200               ; Dwell at apex
G1 X205.615 Y224.345 Z6.272 E0.89370
G1 X205.164 Y224.199 Z6.972 E0.89370
G1 X204.719 Y224.039 Z7.671 E0.89370
G1 X204.278 Y223.866 Z8.371 E0.89370
G1 X203.843 Y223.678 Z9.070 E0.89370
G1 X203.414 Y223.477 Z9.770 E0.89370
G1 X202.992 Y223.262 Z10.469 E0.89370
G1 X202.577 Y223.035 Z11.169 E0.89370
G4 P200               ; Dwell at apex
G1 X202.169 Y222.794 Z10.732 E0.68188
G1 X201.769 Y222.540 Z10.032 E0.89370
G1 X201.378 Y222.274 Z9.333 E0.89370
G1 X200.994 Y221.996 Z8.633 E0.89370
G1 X200.620 Y221.705 Z7.934 E0.89370
G1 X200.255 Y221.404 Z7.234 E0.89370
G1 X199.900 Y221.090 Z6.535 E0.89370
G1 X199.555 Y220.766 Z5.835 E0.89370
G4 P200               ; Dwell at apex
G1 X199.220 Y220.431 Z5.864 E0.50198
G1 X198.897 Y220.085 Z6.564 E0.89370
G1 X198.584 Y219.730 Z7.263 E0.89370
G1 X198.282 Y219.364 Z7.963 E0.89370
G1 X197.992 Y218.990 Z8.662 E0.89370
G1 X197.715 Y218.606 Z9.362 E0.89370
G1 X197.449 Y218.214 Z10.061 E0.89370
G1 X197.196 Y217.814 Z10.761 E0.89370
G1 X196.956 Y217.406 Z11.140 E0.64166
G4 P200               ; Dwell at apex
G1 X196.728 Y216.990 Z10.440 E0.89370
G1 X196.514 Y216.568 Z9.741 E0.89370
G1 X196.314 Y216.139 Z9.041 E0.89370
G1 X196.127 Y215.704 Z8.342 E0.89370
G1 X195.954 Y215.263 Z7.642 E0.89370
G1 X195.794 Y214.817 Z6.943 E0.89370
G1 X195.649 Y214.366 Z6.243 E0.89370
G1 X195.519 Y213.911 Z5.544 E0.89370
G4 P200               ; Dwell at apex
G1 X195.403 Y213.452 Z6.156 E0.81874
G1 X195.301 Y212.989 Z6.855 E0.89370
G1 X195.214 Y212.524 Z7.555 E0.89370
G1 X195.142 Y212.056 Z8.254 E0.89370
G1 X195.084 Y211.586 Z8.954 E0.89370
G1 X195.041 Y211.114 Z9.653 E0.89370
G1 X195.014 Y210.641 Z10.353 E0.89370
G1 X195.001 Y210.168 Z11.052 E0.89370
G4 P200               ; Dwell at apex
G1 X195.003 Y209.694 Z10.848 E0.54555
G1 X195.020 Y209.221 Z10.149 E0.89370
G1 X195.052 Y208.748 Z9.449 E0.89370
G1 X195.099 Y208.277 Z8.750 E0.89370
G1 X195.161 Y207.808 Z8.050 E0.89370
G1 X195.238 Y207.340 Z7.351 E0.89370
G1 X195.329 Y206.876 Z6.651 E0.89370
G1 X195.435 Y206.414 Z5.952 E0.89370
G1 X195.555 Y205.956 Z5.748 E0.54555
G4 P200               ; Dwell at apex
G1 X195.690 Y205.502 Z6.447 E0.89370
G1 X195.839 Y205.052 Z7.147 E0.89370
G1 X196.003 Y204.608 Z7.846 E0.89370
G1 X196.180 Y204.169 Z8.546 E0.89370
G1 X196.371 Y203.735 Z9.245 E0.89370
G1 X196.575 Y203.308 Z9.945 E0.89370
G1 X196.793 Y202.888 Z10.644 E0.89370
G1 X197.024 Y202.474 Z11.256 E0.81874
G4 P200               ; Dwell at apex
G1 X197.268 Y202.069 Z10.557 E0.89370
G1 X197.525 Y201.671 Z9.857 E0.89370
G1 X197.794 Y201.281 Z9.158 E0.89370
G1 X198.076 Y200.900 Z8.458 E0.89370
G1 X198.369 Y200.528 Z7.759 E0.89370
G1 X198.674 Y200.166 Z7.059 E0.89370
G1 X198.990 Y199.813 Z6.360 E0.89370
G1 X199.317 Y199.470 Z5.660 E0.89370
G4 P200               ; Dwell at apex
G1 X199.655 Y199.138 Z6.039 E0.64166
G1 X200.003 Y198.817 Z6.739 E0.89370
G1 X200.361 Y198.507 Z7.438 E0.89370
G1 X200.728 Y198.209 Z8.138 E0.89370
G1 X201.105 Y197.922 Z8.837 E0.89370
G1 X201.491 Y197.647 Z9.537 E0.89370
G1 X201.885 Y197.385 Z10.236 E0.89370
G1 X202.287 Y197.135 Z10.936 E0.89370
G1 X202.697 Y196.898 Z10.965 E0.50198
G4 P200               ; Dwell at apex
G1 X203.115 Y196.674 Z10.265 E0.89370
G1 X203.539 Y196.463 Z9.566 E0.89370
G1 X203.969 Y196.266 Z8.866 E0.89370
G1 X204.406 Y196.082 Z8.167 E0.89370
G1 X204.848 Y195.913 Z7.467 E0.89370
G1 X205.295 Y195.757 Z6.768 E0.89370
G1 X205.747 Y195.615 Z6.068 E0.89370
G1 X206.204 Y195.488 Z5.631 E0.68188
G4 P200               ; Dwell at apex
G1 X206.664 Y195.376 Z6.331 E0.89370
G1 X207.127 Y195.278 Z7.030 E0.89370
G1 X207.593 Y195.194 Z7.730 E0.89370
G1 X208.062 Y195.126 Z8.429 E0.89370
G1 X208.532 Y195.072 Z9.129 E0.89370
G1 X209.004 Y195.033 Z9.828 E0.89370
G1 X209.477 Y195.009 Z10.528 E0.89370
G1 X209.951 Y195.000 Z11.227 E0.89370
G4 P200               ; Dwell at apex
G1 X210.424 Y195.006 Z10.673 E0.77089
G1 X210.897 Y195.027 Z9.974 E0.89370
G1 X211.370 Y195.063 Z9.274 E0.89370
G1 X211.840 Y195.113 Z8.575 E0.89370
G1 X212.309 Y195.179 Z7.875 E0.89370
G1 X212.776 Y195.259 Z7.176 E0.89370
G1 X213.240 Y195.354 Z6.476 E0.89370
G1 X213.701 Y195.464 Z5.777 E0.89370
G4 P200               ; Dwell at apex
G1 X214.158 Y195.588 Z5.923 E0.52422
G1 X214.611 Y195.726 Z6.622 E0.89370
G1 X215.059 Y195.879 Z7.322 E0.89370
G1 X215.502 Y196.046 Z8.021 E0.89370
G1 X215.940 Y196.226 Z8.721 E0.89370
G1 X216.372 Y196.421 Z9.420 E0.89370
G1 X216.798 Y196.629 Z10.120 E0.89370
G1 X217.216 Y196.850 Z10.819 E0.89370
G1 X217.628 Y197.084 Z11.081 E0.57276
G4 P200               ; Dwell at apex
G1 X218.032 Y197.331 Z10.382 E0.89370
G1 X218.428 Y197.591 Z9.682 E0.89370
G1 X218.815 Y197.864 Z8.983 E0.89370
G1 X219.194 Y198.148 Z8.283 E0.89370
G1 X219.563 Y198.444 Z7.584 E0.89370
G1 X219.924 Y198.752 Z6.884 E0.89370
G1 X220.274 Y199.071 Z6.185 E0.89370
G1 X220.614 Y199.400 Z5.515 E0.86834
G4 P200               ; Dwell at apex
G1 X220.943 Y199.741 Z6.214 E0.89370
G1 X221.261 Y200.091 Z6.914 E0.89370
G1 X221.569 Y200.452 Z7.613 E0.89370
G1 X221.864 Y200.822 Z8.313 E0.89370
G1 X222.148 Y201.201 Z9.012 E0.89370
G1 X222.420 Y201.589 Z9.712 E0.89370
G1 X222.679 Y201.985 Z10.411 E0.89370
G1 X222.926 Y202.389 Z11.111 E0.89370
G4 P200               ; Dwell at apex
G1 X223.160 Y202.801 Z10.790 E0.60505
G1 X223.380 Y203.220 Z10.090 E0.89370
G1 X223.588 Y203.646 Z9.391 E0.89370
G1 X223.781 Y204.078 Z8.691 E0.89370
G1 X223.962 Y204.516 Z7.992 E0.89370
G1 X224.128 Y204.959 Z7.292 E0.89370
G1 X224.280 Y205.408 Z6.593 E0.89370
G1 X224.418 Y205.861 Z5.893 E0.89370
G1 X224.541 Y206.318 Z5.806 E0.50950
G4 P200               ; Dwell at apex
G1 X224.650 Y206.779 Z6.506 E0.89370
G1 X224.744 Y207.243 Z7.205 E0.89370
G1 X224.824 Y207.710 Z7.905 E0.89370
G1 X224.889 Y208.179 Z8.604 E0.89370
G1 X224.939 Y208.650 Z9.304 E0.89370
G1 X224.974 Y209.122 Z10.003 E0.89370
G1 X224.995 Y209.596 Z10.703 E0.89370
G1 X225.000 Y210.069 Z11.198 E0.72513
G4 P200               ; Dwell at apex
G1 X224.990 Y210.543 Z10.498 E0.89370
G1 X224.966 Y211.016 Z9.799 E0.89370
G1 X224.926 Y211.487 Z9.099 E0.89370
G1 X224.872 Y211.958 Z8.400 E0.89370
; --- Mesh layer 3/6 ---
M221 S70
G1 Z15.300 F6000   ; Lift
G1 X225.000 Y210.000 F6000  ; Move to start
G1 Z10.300 F3000  ; Lower
G1 F100
G1 X224.993 Y210.474 Z10.999 E0.89370
G1 X224.970 Y210.947 Z11.699 E0.89370
G1 X224.933 Y211.419 Z12.398 E0.89370
G1 X224.881 Y211.889 Z13.098 E0.89370
G1 X224.813 Y212.358 Z13.797 E0.89370
G1 X224.732 Y212.825 Z14.497 E0.89370
G1 X224.635 Y213.288 Z15.196 E0.89370
G1 X224.524 Y213.749 Z15.896 E0.89370
G4 P200               ; Dwell at apex
G1 X224.398 Y214.205 Z15.605 E0.58832
G1 X224.259 Y214.658 Z14.905 E0.89370
G1 X224.104 Y215.106 Z14.206 E0.89370
G1 X223.936 Y215.548 Z13.506 E0.89370
G1 X223.754 Y215.985 Z12.807 E0.89370
G1 X223.558 Y216.417 Z12.107 E0.89370
G1 X223.349 Y216.841 Z11.408 E0.89370
G1 X223.126 Y217.259 Z10.708 E0.89370
G1 X222.891 Y217.670 Z10.591 E0.51599
G4 P200               ; Dwell at apex
G1 X222.642 Y218.073 Z11.291 E0.89370
G1 X222.381 Y218.468 Z11.990 E0.89370
G1 X222.107 Y218.855 Z12.690 E0.89370
G1 X221.822 Y219.233 Z13.389 E0.89370
G1 X221.524 Y219.601 Z14.089 E0.89370
G1 X221.216 Y219.960 Z14.788 E0.89370
G1 X220.896 Y220.310 Z15.488 E0.89370
G1 X220.565 Y220.648 Z16.013 E0.74773
G4 P200               ; Dwell at apex
G1 X220.223 Y220.977 Z15.313 E0.89370
G1 X219.872 Y221.294 Z14.614 E0.89370
G1 X219.510 Y221.600 Z13.914 E0.89370
G1 X219.139 Y221.894 Z13.215 E0.89370
G1 X218.759 Y222.177 Z12.515 E0.89370
G1 X218.370 Y222.447 Z11.816 E0.89370
G1 X217.973 Y222.705 Z11.116 E0.89370
G1 X217.568 Y222.951 Z10.417 E0.89370
G4 P200               ; Dwell at apex
G1 X217.156 Y223.183 Z10.883 E0.70316
G1 X216.736 Y223.403 Z11.582 E0.89370
G1 X216.309 Y223.608 Z12.282 E0.89370
G1 X215.877 Y223.801 Z12.981 E0.89370
G1 X215.438 Y223.980 Z13.681 E0.89370
G1 X214.994 Y224.144 Z14.380 E0.89370
G1 X214.545 Y224.295 Z15.080 E0.89370
G1 X214.092 Y224.431 Z15.779 E0.89370
G4 P200               ; Dwell at apex
G1 X213.634 Y224.553 Z15.721 E0.50482
G1 X213.173 Y224.661 Z15.022 E0.89370
G1 X212.708 Y224.753 Z14.322 E0.89370
G1 X212.241 Y224.832 Z13.623 E0.89370
G1 X211.772 Y224.895 Z12.923 E0.89370
G1 X211.301 Y224.943 Z12.224 E0.89370
G1 X210.828 Y224.977 Z11.524 E0.89370
G1 X210.355 Y224.996 Z10.825 E0.89370
G1 X209.882 Y225.000 Z10.475 E0.62286
G4 P200               ; Dwell at apex
G1 X209.408 Y224.988 Z11.174 E0.89370
G1 X208.935 Y224.962 Z11.874 E0.89370
G1 X208.463 Y224.921 Z12.573 E0.89370
G1 X207.993 Y224.865 Z13.273 E0.89370
G1 X207.525 Y224.794 Z13.972 E0.89370
G1 X207.059 Y224.709 Z14.672 E0.89370
G1 X206.596 Y224.609 Z15.371 E0.89370
G1 X206.137 Y224.494 Z16.071 E0.89370
G4 P200               ; Dwell at apex
G1 X205.681 Y224.365 Z15.430 E0.84334
G1 X205.230 Y224.221 Z14.730 E0.89370
G1 X204.783 Y224.064 Z14.031 E0.89370
G1 X204.342 Y223.892 Z13.331 E0.89370
G1 X203.906 Y223.706 Z12.632 E0.89370
G1 X203.477 Y223.507 Z11.932 E0.89370
G1 X203.053 Y223.295 Z11.233 E0.89370
G1 X202.637 Y223.069 Z10.533 E0.89370
G4 P200               ; Dwell at apex
G1 X202.228 Y222.830 Z10.766 E0.55847
G1 X201.827 Y222.578 Z11.466 E0.89370
G1 X201.434 Y222.314 Z12.165 E0.89370
G1 X201.050 Y222.037 Z12.865 E0.89370
G1 X200.674 Y221.749 Z13.564 E0.89370
G1 X200.308 Y221.448 Z14.264 E0.89370
G1 X199.951 Y221.137 Z14.963 E0.89370
G1 X199.605 Y220.814 Z15.663 E0.89370
G1 X199.269 Y220.480 Z15.838 E0.53410
G4 P200               ; Dwell at apex
G1 X198.943 Y220.136 Z15.138 E0.89370
G1 X198.629 Y219.782 Z14.439 E0.89370
G1 X198.325 Y219.418 Z13.739 E0.89370
G1 X198.034 Y219.045 Z13.040 E0.89370
G1 X197.754 Y218.663 Z12.340 E0.89370
G1 X197.487 Y218.272 Z11.641 E0.89370
G1 X197.232 Y217.873 Z10.941 E0.89370
G1 X196.990 Y217.466 Z10.358 E0.79458
G4 P200               ; Dwell at apex
G1 X196.761 Y217.051 Z11.058 E0.89370
G1 X196.545 Y216.630 Z11.757 E0.89370
G1 X196.342 Y216.202 Z12.457 E0.89370
G1 X196.153 Y215.768 Z13.156 E0.89370
G1 X195.978 Y215.328 Z13.856 E0.89370
G1 X195.817 Y214.882 Z14.555 E0.89370
G1 X195.670 Y214.432 Z15.255 E0.89370
G1 X195.537 Y213.978 Z15.954 E0.89370
G4 P200               ; Dwell at apex
G1 X195.419 Y213.519 Z15.546 E0.66136
G1 X195.315 Y213.057 Z14.847 E0.89370
G1 X195.226 Y212.592 Z14.147 E0.89370
G1 X195.151 Y212.124 Z13.448 E0.89370
G1 X195.091 Y211.654 Z12.748 E0.89370
G1 X195.047 Y211.183 Z12.049 E0.89370
G1 X195.017 Y210.710 Z11.349 E0.89370
G1 X195.002 Y210.237 Z10.650 E0.89370
G1 X195.002 Y209.763 Z10.650 E0.50104
G1 X195.017 Y209.290 Z11.349 E0.89370
G1 X195.047 Y208.817 Z12.049 E0.89370
G1 X195.091 Y208.346 Z12.748 E0.89370
G1 X195.151 Y207.876 Z13.448 E0.89370
G1 X195.226 Y207.408 Z14.147 E0.89370
G1 X195.315 Y206.943 Z14.847 E0.89370
G1 X195.419 Y206.481 Z15.546 E0.89370
G1 X195.537 Y206.022 Z15.954 E0.66136
G4 P200               ; Dwell at apex
G1 X195.670 Y205.568 Z15.255 E0.89370
G1 X195.817 Y205.118 Z14.555 E0.89370
G1 X195.978 Y204.672 Z13.856 E0.89370
G1 X196.153 Y204.232 Z13.156 E0.89370
G1 X196.342 Y203.798 Z12.457 E0.89370
G1 X196.545 Y203.370 Z11.757 E0.89370
G1 X196.761 Y202.949 Z11.058 E0.89370
G1 X196.990 Y202.534 Z10.358 E0.89370
G4 P200               ; Dwell at apex
G1 X197.232 Y202.127 Z10.941 E0.79458
G1 X197.487 Y201.728 Z11.641 E0.89370
G1 X197.754 Y201.337 Z12.340 E0.89370
G1 X198.034 Y200.955 Z13.040 E0.89370
G1 X198.325 Y200.582 Z13.739 E0.89370
G1 X198.629 Y200.218 Z14.439 E0.89370
G1 X198.943 Y199.864 Z15.138 E0.89370
G1 X199.269 Y199.520 Z15.838 E0.89370
G4 P200               ; Dwell at apex
G1 X199.605 Y199.186 Z15.663 E0.53410
G1 X199.951 Y198.863 Z14.963 E0.89370
G1 X200.308 Y198.552 Z14.264 E0.89370
G1 X200.674 Y198.251 Z13.564 E0.89370
G1 X201.050 Y197.963 Z12.865 E0.89370
G1 X201.434 Y197.686 Z12.165 E0.89370
G1 X201.827 Y197.422 Z11.466 E0.89370
G1 X202.228 Y197.170 Z10.766 E0.89370
G1 X202.637 Y196.931 Z10.533 E0.55847
G4 P200               ; Dwell at apex
G1 X203.053 Y196.705 Z11.233 E0.89370
G1 X203.477 Y196.493 Z11.932 E0.89370
G1 X203.906 Y196.294 Z12.632 E0.89370
G1 X204.342 Y196.108 Z13.331 E0.89370
G1 X204.783 Y195.936 Z14.031 E0.89370
G1 X205.230 Y195.779 Z14.730 E0.89370
G1 X205.681 Y195.635 Z15.430 E0.89370
G1 X206.137 Y195.506 Z16.071 E0.84334
G4 P200               ; Dwell at apex
G1 X206.596 Y195.391 Z15.371 E0.89370
G1 X207.059 Y195.291 Z14.672 E0.89370
G1 X207.525 Y195.206 Z13.972 E0.89370
G1 X207.993 Y195.135 Z13.273 E0.89370
G1 X208.463 Y195.079 Z12.573 E0.89370
G1 X208.935 Y195.038 Z11.874 E0.89370
G1 X209.408 Y195.012 Z11.174 E0.89370
G1 X209.882 Y195.000 Z10.475 E0.89370
G4 P200               ; Dwell at apex
G1 X210.355 Y195.004 Z10.825 E0.62286
G1 X210.828 Y195.023 Z11.524 E0.89370
G1 X211.301 Y195.057 Z12.224 E0.89370
G1 X211.772 Y195.105 Z12.923 E0.89370
G1 X212.241 Y195.168 Z13.623 E0.89370
G1 X212.708 Y195.247 Z14.322 E0.89370
G1 X213.173 Y195.339 Z15.022 E0.89370
G1 X213.634 Y195.447 Z15.721 E0.89370
G1 X214.092 Y195.569 Z15.779 E0.50482
G4 P200               ; Dwell at apex
G1 X214.545 Y195.705 Z15.080 E0.89370
G1 X214.994 Y195.856 Z14.380 E0.89370
G1 X215.438 Y196.020 Z13.681 E0.89370
G1 X215.877 Y196.199 Z12.981 E0.89370
G1 X216.309 Y196.392 Z12.282 E0.89370
G1 X216.736 Y196.597 Z11.582 E0.89370
G1 X217.156 Y196.817 Z10.883 E0.89370
G1 X217.568 Y197.049 Z10.417 E0.70316
G4 P200               ; Dwell at apex
G1 X217.973 Y197.295 Z11.116 E0.89370
G1 X218.370 Y197.553 Z11.816 E0.89370
G1 X218.759 Y197.823 Z12.515 E0.89370
G1 X219.139 Y198.106 Z13.215 E0.89370
G1 X219.510 Y198.400 Z13.914 E0.89370
G1 X219.872 Y198.706 Z14.614 E0.89370
G1 X220.223 Y199.023 Z15.313 E0.89370
G1 X220.565 Y199.352 Z16.013 E0.89370
G4 P200               ; Dwell at apex
G1 X220.896 Y199.690 Z15.488 E0.74773
G1 X221.216 Y200.040 Z14.788 E0.89370
G1 X221.524 Y200.399 Z14.089 E0.89370
G1 X221.822 Y200.767 Z13.389 E0.89370
G1 X222.107 Y201.145 Z12.690 E0.89370
G1 X222.381 Y201.532 Z11.990 E0.89370
G1 X222.642 Y201.927 Z11.291 E0.89370
G1 X222.891 Y202.330 Z10.591 E0.89370
G4 P200               ; Dwell at apex
G1 X223.126 Y202.741 Z10.708 E0.51599
G1 X223.349 Y203.159 Z11.408 E0.89370
G1 X223.558 Y203.583 Z12.107 E0.89370
G1 X223.754 Y204.015 Z12.807 E0.89370
G1 X223.936 Y204.452 Z13.506 E0.89370
G1 X224.104 Y204.894 Z14.206 E0.89370
G1 X224.259 Y205.342 Z14.905 E0.89370
G1 X224.398 Y205.795 Z15.605 E0.89370
G1 X224.524 Y206.251 Z15.896 E0.58832
G4 P200               ; Dwell at apex
G1 X224.635 Y206.712 Z15.196 E0.89370
G1 X224.732 Y207.175 Z14.497 E0.89370
G1 X224.813 Y207.642 Z13.797 E0.89370
G1 X224.881 Y208.111 Z13.098 E0.89370
G1 X224.933 Y208.581 Z12.398 E0.89370
G1 X224.970 Y209.053 Z11.699 E0.89370
G1 X224.993 Y209.526 Z10.999 E0.89370
G1 X225.000 Y210.000 Z10.300 E0.89370
; --- Mesh layer 4/6 ---
M221 S70
G1 Z23.000 F6000   ; Lift
G1 X224.872 Y211.958 F6000  ; Move to start
G1 Z18.000 F3000  ; Lower
G1 F100
G1 X224.802 Y212.426 Z17.301 E0.89370
G1 X224.718 Y212.892 Z16.601 E0.89370
G1 X224.620 Y213.356 Z15.902 E0.89370
G1 X224.507 Y213.816 Z15.202 E0.89370
G4 P200               ; Dwell at apex
G1 X224.379 Y214.272 Z15.697 E0.72513
G1 X224.237 Y214.723 Z16.397 E0.89370
G1 X224.081 Y215.170 Z17.096 E0.89370
G1 X223.910 Y215.612 Z17.796 E0.89370
G1 X223.726 Y216.049 Z18.495 E0.89370
G1 X223.529 Y216.479 Z19.195 E0.89370
G1 X223.317 Y216.903 Z19.894 E0.89370
G1 X223.093 Y217.320 Z20.594 E0.89370
G4 P200               ; Dwell at apex
G1 X222.855 Y217.730 Z20.507 E0.50950
G1 X222.605 Y218.131 Z19.807 E0.89370
G1 X222.342 Y218.525 Z19.108 E0.89370
G1 X222.066 Y218.911 Z18.408 E0.89370
G1 X221.779 Y219.287 Z17.709 E0.89370
G1 X221.480 Y219.654 Z17.009 E0.89370
G1 X221.170 Y220.012 Z16.310 E0.89370
G1 X220.848 Y220.360 Z15.610 E0.89370
G1 X220.516 Y220.697 Z15.289 E0.60505
G4 P200               ; Dwell at apex
G1 X220.173 Y221.024 Z15.989 E0.89370
G1 X219.820 Y221.339 Z16.688 E0.89370
G1 X219.457 Y221.644 Z17.388 E0.89370
G1 X219.084 Y221.936 Z18.087 E0.89370
G1 X218.703 Y222.217 Z18.787 E0.89370
G1 X218.313 Y222.486 Z19.486 E0.89370
G1 X217.915 Y222.742 Z20.186 E0.89370
G1 X217.509 Y222.985 Z20.885 E0.89370
G4 P200               ; Dwell at apex
G1 X217.095 Y223.216 Z20.215 E0.86834
G1 X216.674 Y223.433 Z19.516 E0.89370
G1 X216.247 Y223.637 Z18.816 E0.89370
G1 X215.813 Y223.828 Z18.117 E0.89370
G1 X215.374 Y224.004 Z17.417 E0.89370
G1 X214.929 Y224.167 Z16.718 E0.89370
G1 X214.479 Y224.316 Z16.018 E0.89370
G1 X214.025 Y224.450 Z15.319 E0.89370
G4 P200               ; Dwell at apex
G1 X213.567 Y224.570 Z15.581 E0.57276
G1 X213.105 Y224.675 Z16.280 E0.89370
G1 X212.640 Y224.766 Z16.980 E0.89370
G1 X212.173 Y224.842 Z17.679 E0.89370
G1 X211.703 Y224.903 Z18.379 E0.89370
G1 X211.232 Y224.949 Z19.078 E0.89370
G1 X210.759 Y224.981 Z19.778 E0.89370
G1 X210.286 Y224.997 Z20.477 E0.89370
G1 X209.813 Y224.999 Z20.623 E0.52422
G4 P200               ; Dwell at apex
G1 X209.339 Y224.985 Z19.924 E0.89370
G1 X208.866 Y224.957 Z19.224 E0.89370
G1 X208.395 Y224.914 Z18.525 E0.89370
G1 X207.925 Y224.856 Z17.825 E0.89370
G1 X207.457 Y224.783 Z17.126 E0.89370
G1 X206.991 Y224.695 Z16.426 E0.89370
G1 X206.529 Y224.593 Z15.727 E0.89370
G1 X206.070 Y224.476 Z15.173 E0.77089
G4 P200               ; Dwell at apex
G1 X205.615 Y224.345 Z15.872 E0.89370
G1 X205.164 Y224.199 Z16.572 E0.89370
G1 X204.719 Y224.039 Z17.271 E0.89370
G1 X204.278 Y223.866 Z17.971 E0.89370
G1 X203.843 Y223.678 Z18.670 E0.89370
G1 X203.414 Y223.477 Z19.370 E0.89370
G1 X202.992 Y223.262 Z20.069 E0.89370
G1 X202.577 Y223.035 Z20.769 E0.89370
G4 P200               ; Dwell at apex
G1 X202.169 Y222.794 Z20.332 E0.68188
G1 X201.769 Y222.540 Z19.632 E0.89370
G1 X201.378 Y222.274 Z18.933 E0.89370
G1 X200.994 Y221.996 Z18.233 E0.89370
G1 X200.620 Y221.705 Z17.534 E0.89370
G1 X200.255 Y221.404 Z16.834 E0.89370
G1 X199.900 Y221.090 Z16.135 E0.89370
G1 X199.555 Y220.766 Z15.435 E0.89370
G4 P200               ; Dwell at apex
G1 X199.220 Y220.431 Z15.464 E0.50198
G1 X198.897 Y220.085 Z16.164 E0.89370
G1 X198.584 Y219.730 Z16.863 E0.89370
G1 X198.282 Y219.364 Z17.563 E0.89370
G1 X197.992 Y218.990 Z18.262 E0.89370
G1 X197.715 Y218.606 Z18.962 E0.89370
G1 X197.449 Y218.214 Z19.661 E0.89370
G1 X197.196 Y217.814 Z20.361 E0.89370
G1 X196.956 Y217.406 Z20.740 E0.64166
G4 P200               ; Dwell at apex
G1 X196.728 Y216.990 Z20.040 E0.89370
G1 X196.514 Y216.568 Z19.341 E0.89370
G1 X196.314 Y216.139 Z18.641 E0.89370
G1 X196.127 Y215.704 Z17.942 E0.89370
G1 X195.954 Y215.263 Z17.242 E0.89370
G1 X195.794 Y214.817 Z16.543 E0.89370
G1 X195.649 Y214.366 Z15.843 E0.89370
G1 X195.519 Y213.911 Z15.144 E0.89370
G4 P200               ; Dwell at apex
G1 X195.403 Y213.452 Z15.756 E0.81874
G1 X195.301 Y212.989 Z16.455 E0.89370
G1 X195.214 Y212.524 Z17.155 E0.89370
G1 X195.142 Y212.056 Z17.854 E0.89370
G1 X195.084 Y211.586 Z18.554 E0.89370
G1 X195.041 Y211.114 Z19.253 E0.89370
G1 X195.014 Y210.641 Z19.953 E0.89370
G1 X195.001 Y210.168 Z20.652 E0.89370
G4 P200               ; Dwell at apex
G1 X195.003 Y209.694 Z20.448 E0.54555
G1 X195.020 Y209.221 Z19.749 E0.89370
G1 X195.052 Y208.748 Z19.049 E0.89370
G1 X195.099 Y208.277 Z18.350 E0.89370
G1 X195.161 Y207.808 Z17.650 E0.89370
G1 X195.238 Y207.340 Z16.951 E0.89370
G1 X195.329 Y206.876 Z16.251 E0.89370
G1 X195.435 Y206.414 Z15.552 E0.89370
G1 X195.555 Y205.956 Z15.348 E0.54555
G4 P200               ; Dwell at apex
G1 X195.690 Y205.502 Z16.047 E0.89370
G1 X195.839 Y205.052 Z16.747 E0.89370
G1 X196.003 Y204.608 Z17.446 E0.89370
G1 X196.180 Y204.169 Z18.146 E0.89370
G1 X196.371 Y203.735 Z18.845 E0.89370
G1 X196.575 Y203.308 Z19.545 E0.89370
G1 X196.793 Y202.888 Z20.244 E0.89370
G1 X197.024 Y202.474 Z20.856 E0.81874
G4 P200               ; Dwell at apex
G1 X197.268 Y202.069 Z20.157 E0.89370
G1 X197.525 Y201.671 Z19.457 E0.89370
G1 X197.794 Y201.281 Z18.758 E0.89370
G1 X198.076 Y200.900 Z18.058 E0.89370
G1 X198.369 Y200.528 Z17.359 E0.89370
G1 X198.674 Y200.166 Z16.659 E0.89370
G1 X198.990 Y199.813 Z15.960 E0.89370
G1 X199.317 Y199.470 Z15.260 E0.89370
G4 P200               ; Dwell at apex
G1 X199.655 Y199.138 Z15.639 E0.64166
G1 X200.003 Y198.817 Z16.339 E0.89370
G1 X200.361 Y198.507 Z17.038 E0.89370
G1 X200.728 Y198.209 Z17.738 E0.89370
G1 X201.105 Y197.922 Z18.437 E0.89370
G1 X201.491 Y197.647 Z19.137 E0.89370
G1 X201.885 Y197.385 Z19.836 E0.89370
G1 X202.287 Y197.135 Z20.536 E0.89370
G1 X202.697 Y196.898 Z20.565 E0.50198
G4 P200               ; Dwell at apex
G1 X203.115 Y196.674 Z19.865 E0.89370
G1 X203.539 Y196.463 Z19.166 E0.89370
G1 X203.969 Y196.266 Z18.466 E0.89370
G1 X204.406 Y196.082 Z17.767 E0.89370
G1 X204.848 Y195.913 Z17.067 E0.89370
G1 X205.295 Y195.757 Z16.368 E0.89370
G1 X205.747 Y195.615 Z15.668 E0.89370
G1 X206.204 Y195.488 Z15.231 E0.68188
G4 P200               ; Dwell at apex
G1 X206.664 Y195.376 Z15.931 E0.89370
G1 X207.127 Y195.278 Z16.630 E0.89370
G1 X207.593 Y195.194 Z17.330 E0.89370
G1 X208.062 Y195.126 Z18.029 E0.89370
G1 X208.532 Y195.072 Z18.729 E0.89370
G1 X209.004 Y195.033 Z19.428 E0.89370
G1 X209.477 Y195.009 Z20.128 E0.89370
G1 X209.951 Y195.000 Z20.827 E0.89370
G4 P200               ; Dwell at apex
G1 X210.424 Y195.006 Z20.273 E0.77089
G1 X210.897 Y195.027 Z19.574 E0.89370
G1 X211.370 Y195.063 Z18.874 E0.89370
G1 X211.840 Y195.113 Z18.175 E0.89370
G1 X212.309 Y195.179 Z17.475 E0.89370
G1 X212.776 Y195.259 Z16.776 E0.89370
G1 X213.240 Y195.354 Z16.076 E0.89370
G1 X213.701 Y195.464 Z15.377 E0.89370
G4 P200               ; Dwell at apex
G1 X214.158 Y195.588 Z15.523 E0.52422
G1 X214.611 Y195.726 Z16.222 E0.89370
G1 X215.059 Y195.879 Z16.922 E0.89370
G1 X215.502 Y196.046 Z17.621 E0.89370
G1 X215.940 Y196.226 Z18.321 E0.89370
G1 X216.372 Y196.421 Z19.020 E0.89370
G1 X216.798 Y196.629 Z19.720 E0.89370
G1 X217.216 Y196.850 Z20.419 E0.89370
G1 X217.628 Y197.084 Z20.681 E0.57276
G4 P200               ; Dwell at apex
G1 X218.032 Y197.331 Z19.982 E0.89370
G1 X218.428 Y197.591 Z19.282 E0.89370
G1 X218.815 Y197.864 Z18.583 E0.89370
G1 X219.194 Y198.148 Z17.883 E0.89370
G1 X219.563 Y198.444 Z17.184 E0.89370
G1 X219.924 Y198.752 Z16.484 E0.89370
G1 X220.274 Y199.071 Z15.785 E0.89370
G1 X220.614 Y199.400 Z15.115 E0.86834
G4 P200               ; Dwell at apex
G1 X220.943 Y199.741 Z15.814 E0.89370
G1 X221.261 Y200.091 Z16.514 E0.89370
G1 X221.569 Y200.452 Z17.213 E0.89370
G1 X221.864 Y200.822 Z17.913 E0.89370
G1 X222.148 Y201.201 Z18.612 E0.89370
G1 X222.420 Y201.589 Z19.312 E0.89370
G1 X222.679 Y201.985 Z20.011 E0.89370
G1 X222.926 Y202.389 Z20.711 E0.89370
G4 P200               ; Dwell at apex
G1 X223.160 Y202.801 Z20.390 E0.60505
G1 X223.380 Y203.220 Z19.690 E0.89370
G1 X223.588 Y203.646 Z18.991 E0.89370
G1 X223.781 Y204.078 Z18.291 E0.89370
G1 X223.962 Y204.516 Z17.592 E0.89370
G1 X224.128 Y204.959 Z16.892 E0.89370
G1 X224.280 Y205.408 Z16.193 E0.89370
G1 X224.418 Y205.861 Z15.493 E0.89370
G1 X224.541 Y206.318 Z15.406 E0.50950
G4 P200               ; Dwell at apex
G1 X224.650 Y206.779 Z16.106 E0.89370
G1 X224.744 Y207.243 Z16.805 E0.89370
G1 X224.824 Y207.710 Z17.505 E0.89370
G1 X224.889 Y208.179 Z18.204 E0.89370
G1 X224.939 Y208.650 Z18.904 E0.89370
G1 X224.974 Y209.122 Z19.603 E0.89370
G1 X224.995 Y209.596 Z20.303 E0.89370
G1 X225.000 Y210.069 Z20.798 E0.72513
G4 P200               ; Dwell at apex
G1 X224.990 Y210.543 Z20.098 E0.89370
G1 X224.966 Y211.016 Z19.399 E0.89370
G1 X224.926 Y211.487 Z18.699 E0.89370
G1 X224.872 Y211.958 Z18.000 E0.89370
; --- Mesh layer 5/6 ---
M221 S70
G1 Z24.900 F6000   ; Lift
G1 X225.000 Y210.000 F6000  ; Move to start
G1 Z19.900 F3000  ; Lower
G1 F100
G1 X224.993 Y210.474 Z20.599 E0.89370
G1 X224.970 Y210.947 Z21.299 E0.89370
G1 X224.933 Y211.419 Z21.998 E0.89370
G1 X224.881 Y211.889 Z22.698 E0.89370
G1 X224.813 Y212.358 Z23.397 E0.89370
G1 X224.732 Y212.825 Z24.097 E0.89370
G1 X224.635 Y213.288 Z24.796 E0.89370
G1 X224.524 Y213.749 Z25.496 E0.89370
G4 P200               ; Dwell at apex
G1 X224.398 Y214.205 Z25.205 E0.58832
G1 X224.259 Y214.658 Z24.505 E0.89370
G1 X224.104 Y215.106 Z23.806 E0.89370
G1 X223.936 Y215.548 Z23.106 E0.89370
G1 X223.754 Y215.985 Z22.407 E0.89370
G1 X223.558 Y216.417 Z21.707 E0.89370
G1 X223.349 Y216.841 Z21.008 E0.89370
G1 X223.126 Y217.259 Z20.308 E0.89370
G1 X222.891 Y217.670 Z20.191 E0.51599
G4 P200               ; Dwell at apex
G1 X222.642 Y218.073 Z20.891 E0.89370
G1 X222.381 Y218.468 Z21.590 E0.89370
G1 X222.107 Y218.855 Z22.290 E0.89370
G1 X221.822 Y219.233 Z22.989 E0.89370
G1 X221.524 Y219.601 Z23.689 E0.89370
G1 X221.216 Y219.960 Z24.388 E0.89370
G1 X220.896 Y220.310 Z25.088 E0.89370
G1 X220.565 Y220.648 Z25.613 E0.74773
G4 P200               ; Dwell at apex
G1 X220.223 Y220.977 Z24.913 E0.89370
G1 X219.872 Y221.294 Z24.214 E0.89370
G1 X219.510 Y221.600 Z23.514 E0.89370
G1 X219.139 Y221.894 Z22.815 E0.89370
G1 X218.759 Y222.177 Z22.115 E0.89370
G1 X218.370 Y222.447 Z21.416 E0.89370
G1 X217.973 Y222.705 Z20.716 E0.89370
G1 X217.568 Y222.951 Z20.017 E0.89370
G4 P200               ; Dwell at apex
G1 X217.156 Y223.183 Z20.483 E0.70316
G1 X216.736 Y223.403 Z21.182 E0.89370
G1 X216.309 Y223.608 Z21.882 E0.89370
G1 X215.877 Y223.801 Z22.581 E0.89370
G1 X215.438 Y223.980 Z23.281 E0.89370
G1 X214.994 Y224.144 Z23.980 E0.89370
G1 X214.545 Y224.295 Z24.680 E0.89370
G1 X214.092 Y224.431 Z25.379 E0.89370
G4 P200               ; Dwell at apex
G1 X213.634 Y224.553 Z25.321 E0.50482
G1 X213.173 Y224.661 Z24.622 E0.89370
G1 X212.708 Y224.753 Z23.922 E0.89370
G1 X212.241 Y224.832 Z23.223 E0.89370
G1 X211.772 Y224.895 Z22.523 E0.89370
G1 X211.301 Y224.943 Z21.824 E0.89370
G1 X210.828 Y224.977 Z21.124 E0.89370
G1 X210.355 Y224.996 Z20.425 E0.89370
G1 X209.882 Y225.000 Z20.075 E0.62286
G4 P200               ; Dwell at apex
G1 X209.408 Y224.988 Z20.774 E0.89370
G1 X208.935 Y224.962 Z21.474 E0.89370
G1 X208.463 Y224.921 Z22.173 E0.89370
G1 X207.993 Y224.865 Z22.873 E0.89370
G1 X207.525 Y224.794 Z23.572 E0.89370
G1 X207.059 Y224.709 Z24.272 E0.89370
G1 X206.596 Y224.609 Z24.971 E0.89370
G1 X206.137 Y224.494 Z25.671 E0.89370
G4 P200               ; Dwell at apex
G1 X205.681 Y224.365 Z25.030 E0.84334
G1 X205.230 Y224.221 Z24.330 E0.89370
G1 X204.783 Y224.064 Z23.631 E0.89370
G1 X204.342 Y223.892 Z22.931 E0.89370
G1 X203.906 Y223.706 Z22.232 E0.89370
G1 X203.477 Y223.507 Z21.532 E0.89370
G1 X203.053 Y223.295 Z20.833 E0.89370
G1 X202.637 Y223.069 Z20.133 E0.89370
G4 P200               ; Dwell at apex
G1 X202.228 Y222.830 Z20.366 E0.55847
G1 X201.827 Y222.578 Z21.066 E0.89370
G1 X201.434 Y222.314 Z21.765 E0.89370
G1 X201.050 Y222.037 Z22.465 E0.89370
G1 X200.674 Y221.749 Z23.164 E0.89370
G1 X200.308 Y221.448 Z23.864 E0.89370
G1 X199.951 Y221.137 Z24.563 E0.89370
G1 X199.605 Y220.814 Z25.263 E0.89370
G1 X199.269 Y220.480 Z25.438 E0.53410
G4 P200               ; Dwell at apex
G1 X198.943 Y220.136 Z24.738 E0.89370
G1 X198.629 Y219.782 Z24.039 E0.89370
G1 X198.325 Y219.418 Z23.339 E0.89370
G1 X198.034 Y219.045 Z22.640 E0.89370
G1 X197.754 Y218.663 Z21.940 E0.89370
G1 X197.487 Y218.272 Z21.241 E0.89370
G1 X197.232 Y217.873 Z20.541 E0.89370
G1 X196.990 Y217.466 Z19.958 E0.79458
G4 P200               ; Dwell at apex
G1 X196.761 Y217.051 Z20.658 E0.89370
G1 X196.545 Y216.630 Z21.357 E0.89370
G1 X196.342 Y216.202 Z22.057 E0.89370
G1 X196.153 Y215.768 Z22.756 E0.89370
G1 X195.978 Y215.328 Z23.456 E0.89370
G1 X195.817 Y214.882 Z24.155 E0.89370
G1 X195.670 Y214.432 Z24.855 E0.89370
G1 X195.537 Y213.978 Z25.554 E0.89370
G4 P200               ; Dwell at apex
G1 X195.419 Y213.519 Z25.146 E0.66136
G1 X195.315 Y213.057 Z24.447 E0.89370
G1 X195.226 Y212.592 Z23.747 E0.89370
G1 X195.151 Y212.124 Z23.048 E0.89370
G1 X195.091 Y211.654 Z22.348 E0.89370
G1 X195.047 Y211.183 Z21.649 E0.89370
G1 X195.017 Y210.710 Z20.949 E0.89370
G1 X195.002 Y210.237 Z20.250 E0.89370
G1 X195.002 Y209.763 Z20.250 E0.50104
G1 X195.017 Y209.290 Z20.949 E0.89370
G1 X195.047 Y208.817 Z21.649 E0.89370
G1 X195.091 Y208.346 Z22.348 E0.89370
G1 X195.151 Y207.876 Z23.048 E0.89370
G1 X195.226 Y207.408 Z23.747 E0.89370
G1 X195.315 Y206.943 Z24.447 E0.89370
G1 X195.419 Y206.481 Z25.146 E0.89370
G1 X195.537 Y206.022 Z25.554 E0.66136
G4 P200               ; Dwell at apex
G1 X195.670 Y205.568 Z24.855 E0.89370
G1 X195.817 Y205.118 Z24.155 E0.89370
G1 X195.978 Y204.672 Z23.456 E0.89370
G1 X196.153 Y204.232 Z22.756 E0.89370
G1 X196.342 Y203.798 Z22.057 E0.89370
G1 X196.545 Y203.370 Z21.357 E0.89370
G1 X196.761 Y202.949 Z20.658 E0.89370
G1 X196.990 Y202.534 Z19.958 E0.89370
G4 P200               ; Dwell at apex
G1 X197.232 Y202.127 Z20.541 E0.79458
G1 X197.487 Y201.728 Z21.241 E0.89370
G1 X197.754 Y201.337 Z21.940 E0.89370
G1 X198.034 Y200.955 Z22.640 E0.89370
G1 X198.325 Y200.582 Z23.339 E0.89370
G1 X198.629 Y200.218 Z24.039 E0.89370
G1 X198.943 Y199.864 Z24.738 E0.89370
G1 X199.269 Y199.520 Z25.438 E0.89370
G4 P200               ; Dwell at apex
G1 X199.605 Y199.186 Z25.263 E0.53410
G1 X199.951 Y198.863 Z24.563 E0.89370
G1 X200.308 Y198.552 Z23.864 E0.89370
G1 X200.674 Y198.251 Z23.164 E0.89370
G1 X201.050 Y197.963 Z22.465 E0.89370
G1 X201.434 Y197.686 Z21.765 E0.89370
G1 X201.827 Y197.422 Z21.066 E0.89370
G1 X202.228 Y197.170 Z20.366 E0.89370
G1 X202.637 Y196.931 Z20.133 E0.55847
G4 P200               ; Dwell at apex
G1 X203.053 Y196.705 Z20.833 E0.89370
G1 X203.477 Y196.493 Z21.532 E0.89370
G1 X203.906 Y196.294 Z22.232 E0.89370
G1 X204.342 Y196.108 Z22.931 E0.89370
G1 X204.783 Y195.936 Z23.631 E0.89370
G1 X205.230 Y195.779 Z24.330 E0.89370
G1 X205.681 Y195.635 Z25.030 E0.89370
G1 X206.137 Y195.506 Z25.671 E0.84334
G4 P200               ; Dwell at apex
G1 X206.596 Y195.391 Z24.971 E0.89370
G1 X207.059 Y195.291 Z24.272 E0.89370
G1 X207.525 Y195.206 Z23.572 E0.89370
G1 X207.993 Y195.135 Z22.873 E0.89370
G1 X208.463 Y195.079 Z22.173 E0.89370
G1 X208.935 Y195.038 Z21.474 E0.89370
G1 X209.408 Y195.012 Z20.774 E0.89370
G1 X209.882 Y195.000 Z20.075 E0.89370
G4 P200               ; Dwell at apex
G1 X210.355 Y195.004 Z20.425 E0.62286
G1 X210.828 Y195.023 Z21.124 E0.89370
G1 X211.301 Y195.057 Z21.824 E0.89370
G1 X211.772 Y195.105 Z22.523 E0.89370
G1 X212.241 Y195.168 Z23.223 E0.89370
G1 X212.708 Y195.247 Z23.922 E0.89370
G1 X213.173 Y195.339 Z24.622 E0.89370
G1 X213.634 Y195.447 Z25.321 E0.89370
G1 X214.092 Y195.569 Z25.379 E0.50482
G4 P200               ; Dwell at apex
G1 X214.545 Y195.705 Z24.680 E0.89370
G1 X214.994 Y195.856 Z23.980 E0.89370
G1 X215.438 Y196.020 Z23.281 E0.89370
G1 X215.877 Y196.199 Z22.581 E0.89370
G1 X216.309 Y196.392 Z21.882 E0.89370
G1 X216.736 Y196.597 Z21.182 E0.89370
G1 X217.156 Y196.817 Z20.483 E0.89370
G1 X217.568 Y197.049 Z20.017 E0.70316
G4 P200               ; Dwell at apex
G1 X217.973 Y197.295 Z20.716 E0.89370
G1 X218.370 Y197.553 Z21.416 E0.89370
G1 X218.759 Y197.823 Z22.115 E0.89370
G1 X219.139 Y198.106 Z22.815 E0.89370
G1 X219.510 Y198.400 Z23.514 E0.89370
G1 X219.872 Y198.706 Z24.214 E0.89370
G1 X220.223 Y199.023 Z24.913 E0.89370
G1 X220.565 Y199.352 Z25.613 E0.89370
G4 P200               ; Dwell at apex
G1 X220.896 Y199.690 Z25.088 E0.74773
G1 X221.216 Y200.040 Z24.388 E0.89370
G1 X221.524 Y200.399 Z23.689 E0.89370
G1 X221.822 Y200.767 Z22.989 E0.89370
G1 X222.107 Y201.145 Z22.290 E0.89370
G1 X222.381 Y201.532 Z21.590 E0.89370
G1 X222.642 Y201.927 Z20.891 E0.89370
G1 X222.891 Y202.330 Z20.191 E0.89370
G4 P200               ; Dwell at apex
G1 X223.126 Y202.741 Z20.308 E0.51599
G1 X223.349 Y203.159 Z21.008 E0.89370
G1 X223.558 Y203.583 Z21.707 E0.89370
G1 X223.754 Y204.015 Z22.407 E0.89370
G1 X223.936 Y204.452 Z23.106 E0.89370
G1 X224.104 Y204.894 Z23.806 E0.89370
G1 X224.259 Y205.342 Z24.505 E0.89370
G1 X224.398 Y205.795 Z25.205 E0.89370
G1 X224.524 Y206.251 Z25.496 E0.58832
G4 P200               ; Dwell at apex
G1 X224.635 Y206.712 Z24.796 E0.89370
G1 X224.732 Y207.175 Z24.097 E0.89370
G1 X224.813 Y207.642 Z23.397 E0.89370
G1 X224.881 Y208.111 Z22.698 E0.89370
G1 X224.933 Y208.581 Z21.998 E0.89370
G1 X224.970 Y209.053 Z21.299 E0.89370
G1 X224.993 Y209.526 Z20.599 E0.89370
G1 X225.000 Y210.000 Z19.900 E0.89370
; --- Mesh layer 6/6 ---
M221 S70
G1 Z32.600 F6000   ; Lift
G1 X224.872 Y211.958 F6000  ; Move to start
G1 Z27.600 F3000  ; Lower
G1 F100
G1 X224.802 Y212.426 Z26.901 E0.89370
G1 X224.718 Y212.892 Z26.201 E0.89370
G1 X224.620 Y213.356 Z25.502 E0.89370
G1 X224.507 Y213.816 Z24.802 E0.89370
G4 P200               ; Dwell at apex
G1 X224.379 Y214.272 Z25.297 E0.72513
G1 X224.237 Y214.723 Z25.997 E0.89370
G1 X224.081 Y215.170 Z26.696 E0.89370
G1 X223.910 Y215.612 Z27.396 E0.89370
G1 X223.726 Y216.049 Z28.095 E0.89370
G1 X223.529 Y216.479 Z28.795 E0.89370
G1 X223.317 Y216.903 Z29.494 E0.89370
G1 X223.093 Y217.320 Z30.194 E0.89370
G4 P200               ; Dwell at apex
G1 X222.855 Y217.730 Z30.107 E0.50950
G1 X222.605 Y218.131 Z29.407 E0.89370
G1 X222.342 Y218.525 Z28.708 E0.89370
G1 X222.066 Y218.911 Z28.008 E0.89370
G1 X221.779 Y219.287 Z27.309 E0.89370
G1 X221.480 Y219.654 Z26.609 E0.89370
G1 X221.170 Y220.012 Z25.910 E0.89370
G1 X220.848 Y220.360 Z25.210 E0.89370
G1 X220.516 Y220.697 Z24.889 E0.60505
G4 P200               ; Dwell at apex
G1 X220.173 Y221.024 Z25.589 E0.89370
G1 X219.820 Y221.339 Z26.288 E0.89370
G1 X219.457 Y221.644 Z26.988 E0.89370
G1 X219.084 Y221.936 Z27.687 E0.89370
G1 X218.703 Y222.217 Z28.387 E0.89370
G1 X218.313 Y222.486 Z29.086 E0.89370
G1 X217.915 Y222.742 Z29.786 E0.89370
G1 X217.509 Y222.985 Z30.485 E0.89370
G4 P200               ; Dwell at apex
G1 X217.095 Y223.216 Z29.815 E0.86834
G1 X216.674 Y223.433 Z29.116 E0.89370
G1 X216.247 Y223.637 Z28.416 E0.89370
G1 X215.813 Y223.828 Z27.717 E0.89370
G1 X215.374 Y224.004 Z27.017 E0.89370
G1 X214.929 Y224.167 Z26.318 E0.89370
G1 X214.479 Y224.316 Z25.618 E0.89370
G1 X214.025 Y224.450 Z24.919 E0.89370
G4 P200               ; Dwell at apex
G1 X213.567 Y224.570 Z25.181 E0.57276
G1 X213.105 Y224.675 Z25.880 E0.89370
G1 X212.640 Y224.766 Z26.580 E0.89370
G1 X212.173 Y224.842 Z27.279 E0.89370
G1 X211.703 Y224.903 Z27.979 E0.89370
G1 X211.232 Y224.949 Z28.678 E0.89370
G1 X210.759 Y224.981 Z29.378 E0.89370
G1 X210.286 Y224.997 Z30.077 E0.89370
G1 X209.813 Y224.999 Z30.223 E0.52422
G4 P200               ; Dwell at apex
G1 X209.339 Y224.985 Z29.524 E0.89370
G1 X208.866 Y224.957 Z28.824 E0.89370
G1 X208.395 Y224.914 Z28.125 E0.89370
G1 X207.925 Y224.856 Z27.425 E0.89370
G1 X207.457 Y224.783 Z26.726 E0.89370
G1 X206.991 Y224.695 Z26.026 E0.89370
G1 X206.529 Y224.593 Z25.327 E0.89370
G1 X206.070 Y224.476 Z24.773 E0.77089
G4 P200               ; Dwell at apex
G1 X205.615 Y224.345 Z25.472 E0.89370
G1 X205.164 Y224.199 Z26.172 E0.89370
G1 X204.719 Y224.039 Z26.871 E0.89370
G1 X204.278 Y223.866 Z27.571 E0.89370
G1 X203.843 Y223.678 Z28.270 E0.89370
G1 X203.414 Y223.477 Z28.970 E0.89370
G1 X202.992 Y223.262 Z29.669 E0.89370
G1 X202.577 Y223.035 Z30.369 E0.89370
G4 P200               ; Dwell at apex
G1 X202.169 Y222.794 Z29.932 E0.68188
G1 X201.769 Y222.540 Z29.232 E0.89370
G1 X201.378 Y222.274 Z28.533 E0.89370
G1 X200.994 Y221.996 Z27.833 E0.89370
G1 X200.620 Y221.705 Z27.134 E0.89370
G1 X200.255 Y221.404 Z26.434 E0.89370
G1 X199.900 Y221.090 Z25.735 E0.89370
G1 X199.555 Y220.766 Z25.035 E0.89370
G4 P200               ; Dwell at apex
G1 X199.220 Y220.431 Z25.064 E0.50198
G1 X198.897 Y220.085 Z25.764 E0.89370
G1 X198.584 Y219.730 Z26.463 E0.89370
G1 X198.282 Y219.364 Z27.163 E0.89370
G1 X197.992 Y218.990 Z27.862 E0.89370
G1 X197.715 Y218.606 Z28.562 E0.89370
G1 X197.449 Y218.214 Z29.261 E0.89370
G1 X197.196 Y217.814 Z29.961 E0.89370
G1 X196.956 Y217.406 Z30.340 E0.64166
G4 P200               ; Dwell at apex
G1 X196.728 Y216.990 Z29.640 E0.89370
G1 X196.514 Y216.568 Z28.941 E0.89370
G1 X196.314 Y216.139 Z28.241 E0.89370
G1 X196.127 Y215.704 Z27.542 E0.89370
G1 X195.954 Y215.263 Z26.842 E0.89370
G1 X195.794 Y214.817 Z26.143 E0.89370
G1 X195.649 Y214.366 Z25.443 E0.89370
G1 X195.519 Y213.911 Z24.744 E0.89370
G4 P200               ; Dwell at apex
G1 X195.403 Y213.452 Z25.356 E0.81874
G1 X195.301 Y212.989 Z26.055 E0.89370
G1 X195.214 Y212.524 Z26.755 E0.89370
G1 X195.142 Y212.056 Z27.454 E0.89370
G1 X195.084 Y211.586 Z28.154 E0.89370
G1 X195.041 Y211.114 Z28.853 E0.89370
G1 X195.014 Y210.641 Z29.553 E0.89370
G1 X195.001 Y210.168 Z30.252 E0.89370
G4 P200               ; Dwell at apex
G1 X195.003 Y209.694 Z30.048 E0.54555
G1 X195.020 Y209.221 Z29.349 E0.89370
G1 X195.052 Y208.748 Z28.649 E0.89370
G1 X195.099 Y208.277 Z27.950 E0.89370
G1 X195.161 Y207.808 Z27.250 E0.89370
G1 X195.238 Y207.340 Z26.551 E0.89370
G1 X195.329 Y206.876 Z25.851 E0.89370
G1 X195.435 Y206.414 Z25.152 E0.89370
G1 X195.555 Y205.956 Z24.948 E0.54555
G4 P200               ; Dwell at apex
G1 X195.690 Y205.502 Z25.647 E0.89370
G1 X195.839 Y205.052 Z26.347 E0.89370
G1 X196.003 Y204.608 Z27.046 E0.89370
G1 X196.180 Y204.169 Z27.746 E0.89370
G1 X196.371 Y203.735 Z28.445 E0.89370
G1 X196.575 Y203.308 Z29.145 E0.89370
G1 X196.793 Y202.888 Z29.844 E0.89370
G1 X197.024 Y202.474 Z30.456 E0.81874
G4 P200               ; Dwell at apex
G1 X197.268 Y202.069 Z29.757 E0.89370
G1 X197.525 Y201.671 Z29.057 E0.89370
G1 X197.794 Y201.281 Z28.358 E0.89370
G1 X198.076 Y200.900 Z27.658 E0.89370
G1 X198.369 Y200.528 Z26.959 E0.89370
G1 X198.674 Y200.166 Z26.259 E0.89370
G1 X198.990 Y199.813 Z25.560 E0.89370
G1 X199.317 Y199.470 Z24.860 E0.89370
G4 P200               ; Dwell at apex
G1 X199.655 Y199.138 Z25.239 E0.64166
G1 X200.003 Y198.817 Z25.939 E0.89370
G1 X200.361 Y198.507 Z26.638 E0.89370
G1 X200.728 Y198.209 Z27.338 E0.89370
G1 X201.105 Y197.922 Z28.037 E0.89370
G1 X201.491 Y197.647 Z28.737 E0.89370
G1 X201.885 Y197.385 Z29.436 E0.89370
G1 X202.287 Y197.135 Z30.136 E0.89370
G1 X202.697 Y196.898 Z30.165 E0.50198
G4 P200               ; Dwell at apex
G1 X203.115 Y196.674 Z29.465 E0.89370
G1 X203.539 Y196.463 Z28.766 E0.89370
G1 X203.969 Y196.266 Z28.066 E0.89370
G1 X204.406 Y196.082 Z27.367 E0.89370
G1 X204.848 Y195.913 Z26.667 E0.89370
G1 X205.295 Y195.757 Z25.968 E0.89370
G1 X205.747 Y195.615 Z25.268 E0.89370
G1 X206.204 Y195.488 Z24.831 E0.68188
G4 P200               ; Dwell at apex
G1 X206.664 Y195.376 Z25.531 E0.89370
G1 X207.127 Y195.278 Z26.230 E0.89370
G1 X207.593 Y195.194 Z26.930 E0.89370
G1 X208.062 Y195.126 Z27.629 E0.89370
G1 X208.532 Y195.072 Z28.329 E0.89370
G1 X209.004 Y195.033 Z29.028 E0.89370
G1 X209.477 Y195.009 Z29.728 E0.89370
G1 X209.951 Y195.000 Z30.427 E0.89370
G4 P200               ; Dwell at apex
G1 X210.424 Y195.006 Z29.873 E0.77089
G1 X210.897 Y195.027 Z29.174 E0.89370
G1 X211.370 Y195.063 Z28.474 E0.89370
G1 X211.840 Y195.113 Z27.775 E0.89370
G1 X212.309 Y195.179 Z27.075 E0.89370
G1 X212.776 Y195.259 Z26.376 E0.89370
G1 X213.240 Y195.354 Z25.676 E0.89370
G1 X213.701 Y195.464 Z24.977 E0.89370
G4 P200               ; Dwell at apex
G1 X214.158 Y195.588 Z25.123 E0.52422
G1 X214.611 Y195.726 Z25.822 E0.89370
G1 X215.059 Y195.879 Z26.522 E0.89370
G1 X215.502 Y196.046 Z27.221 E0.89370
G1 X215.940 Y196.226 Z27.921 E0.89370
G1 X216.372 Y196.421 Z28.620 E0.89370
G1 X216.798 Y196.629 Z29.320 E0.89370
G1 X217.216 Y196.850 Z30.019 E0.89370
G1 X217.628 Y197.084 Z30.281 E0.57276
G4 P200               ; Dwell at apex
G1 X218.032 Y197.331 Z29.582 E0.89370
G1 X218.428 Y197.591 Z28.882 E0.89370
G1 X218.815 Y197.864 Z28.183 E0.89370
G1 X219.194 Y198.148 Z27.483 E0.89370
G1 X219.563 Y198.444 Z26.784 E0.89370
G1 X219.924 Y198.752 Z26.084 E0.89370
G1 X220.274 Y199.071 Z25.385 E0.89370
G1 X220.614 Y199.400 Z24.715 E0.86834
G4 P200               ; Dwell at apex
G1 X220.943 Y199.741 Z25.414 E0.89370
G1 X221.261 Y200.091 Z26.114 E0.89370
G1 X221.569 Y200.452 Z26.813 E0.89370
G1 X221.864 Y200.822 Z27.513 E0.89370
G1 X222.148 Y201.201 Z28.212 E0.89370
G1 X222.420 Y201.589 Z28.912 E0.89370
G1 X222.679 Y201.985 Z29.611 E0.89370
G1 X222.926 Y202.389 Z30.311 E0.89370
G4 P200               ; Dwell at apex
G1 X223.160 Y202.801 Z29.990 E0.60505
G1 X223.380 Y203.220 Z29.290 E0.89370
G1 X223.588 Y203.646 Z28.591 E0.89370
G1 X223.781 Y204.078 Z27.891 E0.89370
G1 X223.962 Y204.516 Z27.192 E0.89370
G1 X224.128 Y204.959 Z26.492 E0.89370
G1 X224.280 Y205.408 Z25.793 E0.89370
G1 X224.418 Y205.861 Z25.093 E0.89370
G1 X224.541 Y206.318 Z25.006 E0.50950
G4 P200               ; Dwell at apex
G1 X224.650 Y206.779 Z25.706 E0.89370
G1 X224.744 Y207.243 Z26.405 E0.89370
G1 X224.824 Y207.710 Z27.105 E0.89370
G1 X224.889 Y208.179 Z27.804 E0.89370
G1 X224.939 Y208.650 Z28.504 E0.89370
G1 X224.974 Y209.122 Z29.203 E0.89370
G1 X224.995 Y209.596 Z29.903 E0.89370
G1 X225.000 Y210.069 Z30.398 E0.72513
G4 P200               ; Dwell at apex
G1 X224.990 Y210.543 Z29.698 E0.89370
G1 X224.966 Y211.016 Z28.999 E0.89370
G1 X224.926 Y211.487 Z28.299 E0.89370
G1 X224.872 Y211.958 Z27.600 E0.89370
; --- Top ring ---
M221 S100
G1 Z35.000 F6000   ; Lift
G1 X225.000 Y210.000 F6000  ; Move to start
G1 Z30.000 F3000  ; Lower
G1 F600
G1 X224.993 Y210.474 Z30.000 E0.42529
G1 X224.970 Y210.947 Z30.000 E0.42529
G1 X224.933 Y211.419 Z30.000 E0.42529
G1 X224.881 Y211.889 Z30.000 E0.42529
G1 X224.813 Y212.358 Z30.000 E0.42529
G1 X224.732 Y212.825 Z30.000 E0.42529
G1 X224.635 Y213.288 Z30.000 E0.42529
G1 X224.524 Y213.749 Z30.000 E0.42529
G1 X224.398 Y214.205 Z30.000 E0.42529
G1 X224.259 Y214.658 Z30.000 E0.42529
G1 X224.104 Y215.106 Z30.000 E0.42529
G1 X223.936 Y215.548 Z30.000 E0.42529
G1 X223.754 Y215.985 Z30.000 E0.42529
G1 X223.558 Y216.417 Z30.000 E0.42529
G1 X223.349 Y216.841 Z30.000 E0.42529
G1 X223.126 Y217.259 Z30.000 E0.42529
G1 X222.891 Y217.670 Z30.000 E0.42529
G1 X222.642 Y218.073 Z30.000 E0.42529
G1 X222.381 Y218.468 Z30.000 E0.42529
G1 X222.107 Y218.855 Z30.000 E0.42529
G1 X221.822 Y219.233 Z30.000 E0.42529
G1 X221.524 Y219.601 Z30.000 E0.42529
G1 X221.216 Y219.960 Z30.000 E0.42529
G1 X220.896 Y220.310 Z30.000 E0.42529
G1 X220.565 Y220.648 Z30.000 E0.42529
G1 X220.223 Y220.977 Z30.000 E0.42529
G1 X219.872 Y221.294 Z30.000 E0.42529
G1 X219.510 Y221.600 Z30.000 E0.42529
G1 X219.139 Y221.894 Z30.000 E0.42529
G1 X218.759 Y222.177 Z30.000 E0.42529
G1 X218.370 Y222.447 Z30.000 E0.42529
G1 X217.973 Y222.705 Z30.000 E0.42529
G1 X217.568 Y222.951 Z30.000 E0.42529
G1 X217.156 Y223.183 Z30.000 E0.42529
G1 X216.736 Y223.403 Z30.000 E0.42529
G1 X216.309 Y223.608 Z30.000 E0.42529
G1 X215.877 Y223.801 Z30.000 E0.42529
G1 X215.438 Y223.980 Z30.000 E0.42529
G1 X214.994 Y224.144 Z30.000 E0.42529
G1 X214.545 Y224.295 Z30.000 E0.42529
G1 X214.092 Y224.431 Z30.000 E0.42529
G1 X213.634 Y224.553 Z30.000 E0.42529
G1 X213.173 Y224.661 Z30.000 E0.42529
G1 X212.708 Y224.753 Z30.000 E0.42529
G1 X212.241 Y224.832 Z30.000 E0.42529
G1 X211.772 Y224.895 Z30.000 E0.42529
G1 X211.301 Y224.943 Z30.000 E0.42529
G1 X210.828 Y224.977 Z30.000 E0.42529
G1 X210.355 Y224.996 Z30.000 E0.42529
G1 X209.882 Y225.000 Z30.000 E0.42529
G1 X209.408 Y224.988 Z30.000 E0.42529
G1 X208.935 Y224.962 Z30.000 E0.42529
G1 X208.463 Y224.921 Z30.000 E0.42529
G1 X207.993 Y224.865 Z30.000 E0.42529
G1 X207.525 Y224.794 Z30.000 E0.42529
G1 X207.059 Y224.709 Z30.000 E0.42529
G1 X206.596 Y224.609 Z30.000 E0.42529
G1 X206.137 Y224.494 Z30.000 E0.42529
G1 X205.681 Y224.365 Z30.000 E0.42529
G1 X205.230 Y224.221 Z30.000 E0.42529
G1 X204.783 Y224.064 Z30.000 E0.42529
G1 X204.342 Y223.892 Z30.000 E0.42529
G1 X203.906 Y223.706 Z30.000 E0.42529
G1 X203.477 Y223.507 Z30.000 E0.42529
G1 X203.053 Y223.295 Z30.000 E0.42529
G1 X202.637 Y223.069 Z30.000 E0.42529
G1 X202.228 Y222.830 Z30.000 E0.42529
G1 X201.827 Y222.578 Z30.000 E0.42529
G1 X201.434 Y222.314 Z30.000 E0.42529
G1 X201.050 Y222.037 Z30.000 E0.42529
G1 X200.674 Y221.749 Z30.000 E0.42529
G1 X200.308 Y221.448 Z30.000 E0.42529
G1 X199.951 Y221.137 Z30.000 E0.42529
G1 X199.605 Y220.814 Z30.000 E0.42529
G1 X199.269 Y220.480 Z30.000 E0.42529
G1 X198.943 Y220.136 Z30.000 E0.42529
G1 X198.629 Y219.782 Z30.000 E0.42529
G1 X198.325 Y219.418 Z30.000 E0.42529
G1 X198.034 Y219.045 Z30.000 E0.42529
G1 X197.754 Y218.663 Z30.000 E0.42529
G1 X197.487 Y218.272 Z30.000 E0.42529
G1 X197.232 Y217.873 Z30.000 E0.42529
G1 X196.990 Y217.466 Z30.000 E0.42529
G1 X196.761 Y217.051 Z30.000 E0.42529
G1 X196.545 Y216.630 Z30.000 E0.42529
G1 X196.342 Y216.202 Z30.000 E0.42529
G1 X196.153 Y215.768 Z30.000 E0.42529
G1 X195.978 Y215.328 Z30.000 E0.42529
G1 X195.817 Y214.882 Z30.000 E0.42529
G1 X195.670 Y214.432 Z30.000 E0.42529
G1 X195.537 Y213.978 Z30.000 E0.42529
G1 X195.419 Y213.519 Z30.000 E0.42529
G1 X195.315 Y213.057 Z30.000 E0.42529
G1 X195.226 Y212.592 Z30.000 E0.42529
G1 X195.151 Y212.124 Z30.000 E0.42529
G1 X195.091 Y211.654 Z30.000 E0.42529
G1 X195.047 Y211.183 Z30.000 E0.42529
G1 X195.017 Y210.710 Z30.000 E0.42529
G1 X195.002 Y210.237 Z30.000 E0.42529
G1 X195.002 Y209.763 Z30.000 E0.42529
G1 X195.017 Y209.290 Z30.000 E0.42529
G1 X195.047 Y208.817 Z30.000 E0.42529
G1 X195.091 Y208.346 Z30.000 E0.42529
G1 X195.151 Y207.876 Z30.000 E0.42529
G1 X195.226 Y207.408 Z30.000 E0.42529
G1 X195.315 Y206.943 Z30.000 E0.42529
G1 X195.419 Y206.481 Z30.000 E0.42529
G1 X195.537 Y206.022 Z30.000 E0.42529
G1 X195.670 Y205.568 Z30.000 E0.42529
G1 X195.817 Y205.118 Z30.000 E0.42529
G1 X195.978 Y204.672 Z30.000 E0.42529
G1 X196.153 Y204.232 Z30.000 E0.42529
G1 X196.342 Y203.798 Z30.000 E0.42529
G1 X196.545 Y203.370 Z30.000 E0.42529
G1 X196.761 Y202.949 Z30.000 E0.42529
G1 X196.990 Y202.534 Z30.000 E0.42529
G1 X197.232 Y202.127 Z30.000 E0.42529
G1 X197.487 Y201.728 Z30.000 E0.42529
G1 X197.754 Y201.337 Z30.000 E0.42529
G1 X198.034 Y200.955 Z30.000 E0.42529
G1 X198.325 Y200.582 Z30.000 E0.42529
G1 X198.629 Y200.218 Z30.000 E0.42529
G1 X198.943 Y199.864 Z30.000 E0.42529
G1 X199.269 Y199.520 Z30.000 E0.42529
G1 X199.605 Y199.186 Z30.000 E0.42529
G1 X199.951 Y198.863 Z30.000 E0.42529
G1 X200.308 Y198.552 Z30.000 E0.42529
G1 X200.674 Y198.251 Z30.000 E0.42529
G1 X201.050 Y197.963 Z30.000 E0.42529
G1 X201.434 Y197.686 Z30.000 E0.42529
G1 X201.827 Y197.422 Z30.000 E0.42529
G1 X202.228 Y197.170 Z30.000 E0.42529
G1 X202.637 Y196.931 Z30.000 E0.42529
G1 X203.053 Y196.705 Z30.000 E0.42529
G1 X203.477 Y196.493 Z30.000 E0.42529
G1 X203.906 Y196.294 Z30.000 E0.42529
G1 X204.342 Y196.108 Z30.000 E0.42529
G1 X204.783 Y195.936 Z30.000 E0.42529
G1 X205.230 Y195.779 Z30.000 E0.42529
G1 X205.681 Y195.635 Z30.000 E0.42529
G1 X206.137 Y195.506 Z30.000 E0.42529
G1 X206.596 Y195.391 Z30.000 E0.42529
G1 X207.059 Y195.291 Z30.000 E0.42529
G1 X207.525 Y195.206 Z30.000 E0.42529
G1 X207.993 Y195.135 Z30.000 E0.42529
G1 X208.463 Y195.079 Z30.000 E0.42529
G1 X208.935 Y195.038 Z30.000 E0.42529
G1 X209.408 Y195.012 Z30.000 E0.42529
G1 X209.882 Y195.000 Z30.000 E0.42529
G1 X210.355 Y195.004 Z30.000 E0.42529
G1 X210.828 Y195.023 Z30.000 E0.42529
G1 X211.301 Y195.057 Z30.000 E0.42529
G1 X211.772 Y195.105 Z30.000 E0.42529
G1 X212.241 Y195.168 Z30.000 E0.42529
G1 X212.708 Y195.247 Z30.000 E0.42529
G1 X213.173 Y195.339 Z30.000 E0.42529
G1 X213.634 Y195.447 Z30.000 E0.42529
G1 X214.092 Y195.569 Z30.000 E0.42529
G1 X214.545 Y195.705 Z30.000 E0.42529
G1 X214.994 Y195.856 Z30.000 E0.42529
G1 X215.438 Y196.020 Z30.000 E0.42529
G1 X215.877 Y196.199 Z30.000 E0.42529
G1 X216.309 Y196.392 Z30.000 E0.42529
G1 X216.736 Y196.597 Z30.000 E0.42529
G1 X217.156 Y196.817 Z30.000 E0.42529
G1 X217.568 Y197.049 Z30.000 E0.42529
G1 X217.973 Y197.295 Z30.000 E0.42529
G1 X218.370 Y197.553 Z30.000 E0.42529
G1 X218.759 Y197.823 Z30.000 E0.42529
G1 X219.139 Y198.106 Z30.000 E0.42529
G1 X219.510 Y198.400 Z30.000 E0.42529
G1 X219.872 Y198.706 Z30.000 E0.42529
G1 X220.223 Y199.023 Z30.000 E0.42529
G1 X220.565 Y199.352 Z30.000 E0.42529
G1 X220.896 Y199.690 Z30.000 E0.42529
G1 X221.216 Y200.040 Z30.000 E0.42529
G1 X221.524 Y200.399 Z30.000 E0.42529
G1 X221.822 Y200.767 Z30.000 E0.42529
G1 X222.107 Y201.145 Z30.000 E0.42529
G1 X222.381 Y201.532 Z30.000 E0.42529
G1 X222.642 Y201.927 Z30.000 E0.42529
G1 X222.891 Y202.330 Z30.000 E0.42529
G1 X223.126 Y202.741 Z30.000 E0.42529
G1 X223.349 Y203.159 Z30.000 E0.42529
G1 X223.558 Y203.583 Z30.000 E0.42529
G1 X223.754 Y204.015 Z30.000 E0.42529
G1 X223.936 Y204.452 Z30.000 E0.42529
G1 X224.104 Y204.894 Z30.000 E0.42529
G1 X224.259 Y205.342 Z30.000 E0.42529
G1 X224.398 Y205.795 Z30.000 E0.42529
G1 X224.524 Y206.251 Z30.000 E0.42529
G1 X224.635 Y206.712 Z30.000 E0.42529
G1 X224.732 Y207.175 Z30.000 E0.42529
G1 X224.813 Y207.642 Z30.000 E0.42529
G1 X224.881 Y208.111 Z30.000 E0.42529
G1 X224.933 Y208.581 Z30.000 E0.42529
G1 X224.970 Y209.053 Z30.000 E0.42529
G1 X224.993 Y209.526 Z30.000 E0.42529
G1 X225.000 Y210.000 Z30.000 E0.42529

; --- End sequence ---
M106 S0                ; Fan off
M104 S0                ; Nozzle off
M140 S0                ; Bed off
G1 Z40 F6000  ; Lift
G28 X0                 ; Home X
M84                    ; Disable motors