; ==================================================
; Ring Seam Experiment — Phase 1d: negative overlap
; ==================================================
; Fixed: Z=0.8mm  Speed=15mm/s  Approach=8.0mm  Unretract=8.0mm
; Factor: OVERLAP_DEG = [-6, -4, -2, 0]
;
; [1] Ov=-6°  X70 Y80
; [2] Ov=-4°  X150 Y80
; [3] Ov=-2°  X240 Y80
; [4] Ov=+0°  X320 Y80
; ==================================================

M104 S200
M140 S60
G28
M106 S0
M109 S200
M190 S60
G21
G90
M83
G92 E0

; --- Initial purge ---
G1 Z10 F3000
G1 X20 Y20 F6000
G1 Z0.80 F2000
G92 E0
G1 E10 F100
G1 X150 E50 F400
G1 X170 F5000
G1 E-3.0 F600
G92 E0

; ============================================================
; [1]  Overlap=-6°
; Center: X70 Y80
; ============================================================
; Mini purge
G1 Z3.80 F6000
G1 X55.0 Y53.0 F6000
G1 Z0.80 F2000
G92 E0
G1 E3 F150
G1 X85.0 E17.9605 F900
G1 E-3.0 F600
G92 E0
; Ring
G1 Z3.80 F6000
G1 X93.000 Y80.000 F6000
G1 Z0.800 F3000
G1 X85.000 Y80.000 E7.78946 F900
G1 F900
G1 X84.993 Y80.466 Z0.800 E0.27880
G1 X84.971 Y80.931 Z0.800 E0.27880
G1 X84.935 Y81.395 Z0.800 E0.27880
G1 X84.884 Y81.858 Z0.800 E0.27880
G1 X84.820 Y82.319 Z0.800 E0.27880
G1 X84.740 Y82.778 Z0.800 E0.27880
G1 X84.647 Y83.234 Z0.800 E0.27880
G1 X84.540 Y83.688 Z0.800 E0.27880
G1 X84.418 Y84.137 Z0.800 E0.27880
G1 X84.283 Y84.583 Z0.800 E0.27880
G1 X84.134 Y85.024 Z0.800 E0.27880
G1 X83.971 Y85.460 Z0.800 E0.27880
G1 X83.795 Y85.891 Z0.800 E0.27880
G1 X83.605 Y86.317 Z0.800 E0.27880
G1 X83.403 Y86.736 Z0.800 E0.27880
G1 X83.187 Y87.149 Z0.800 E0.27880
G1 X82.959 Y87.555 Z0.800 E0.27880
G1 X82.718 Y87.953 Z0.800 E0.27880
G1 X82.465 Y88.344 Z0.800 E0.27880
G1 X82.200 Y88.727 Z0.800 E0.27880
G1 X81.923 Y89.102 Z0.800 E0.27880
G1 X81.635 Y89.467 Z0.800 E0.27880
G1 X81.335 Y89.824 Z0.800 E0.27880
G1 X81.025 Y90.171 Z0.800 E0.27880
G1 X80.704 Y90.508 Z0.800 E0.27880
G1 X80.372 Y90.836 Z0.800 E0.27880
G1 X80.031 Y91.152 Z0.800 E0.27880
G1 X79.680 Y91.458 Z0.800 E0.27880
G1 X79.320 Y91.753 Z0.800 E0.27880
G1 X78.950 Y92.037 Z0.800 E0.27880
G1 X78.572 Y92.309 Z0.800 E0.27880
G1 X78.186 Y92.569 Z0.800 E0.27880
G1 X77.792 Y92.817 Z0.800 E0.27880
G1 X77.390 Y93.053 Z0.800 E0.27880
G1 X76.982 Y93.276 Z0.800 E0.27880
G1 X76.566 Y93.487 Z0.800 E0.27880
G1 X76.144 Y93.684 Z0.800 E0.27880
G1 X75.717 Y93.868 Z0.800 E0.27880
G1 X75.283 Y94.039 Z0.800 E0.27880
G1 X74.845 Y94.196 Z0.800 E0.27880
G1 X74.402 Y94.340 Z0.800 E0.27880
G1 X73.955 Y94.469 Z0.800 E0.27880
G1 X73.504 Y94.585 Z0.800 E0.27880
G1 X73.049 Y94.687 Z0.800 E0.27880
G1 X72.592 Y94.774 Z0.800 E0.27880
G1 X72.132 Y94.848 Z0.800 E0.27880
G1 X71.670 Y94.907 Z0.800 E0.27880
G1 X71.206 Y94.951 Z0.800 E0.27880
G1 X70.742 Y94.982 Z0.800 E0.27880
G1 X70.276 Y94.997 Z0.800 E0.27880
G1 X69.811 Y94.999 Z0.800 E0.27880
G1 X69.345 Y94.986 Z0.800 E0.27880
G1 X68.880 Y94.958 Z0.800 E0.27880
G1 X68.416 Y94.916 Z0.800 E0.27880
G1 X67.954 Y94.860 Z0.800 E0.27880
G1 X67.494 Y94.789 Z0.800 E0.27880
G1 X67.036 Y94.704 Z0.800 E0.27880
G1 X66.581 Y94.605 Z0.800 E0.27880
G1 X66.129 Y94.492 Z0.800 E0.27880
G1 X65.681 Y94.365 Z0.800 E0.27880
G1 X65.237 Y94.224 Z0.800 E0.27880
G1 X64.798 Y94.069 Z0.800 E0.27880
G1 X64.364 Y93.901 Z0.800 E0.27880
G1 X63.935 Y93.719 Z0.800 E0.27880
G1 X63.512 Y93.524 Z0.800 E0.27880
G1 X63.095 Y93.316 Z0.800 E0.27880
G1 X62.685 Y93.096 Z0.800 E0.27880
G1 X62.282 Y92.862 Z0.800 E0.27880
G1 X61.887 Y92.616 Z0.800 E0.27880
G1 X61.499 Y92.359 Z0.800 E0.27880
G1 X61.119 Y92.089 Z0.800 E0.27880
G1 X60.748 Y91.807 Z0.800 E0.27880
G1 X60.386 Y91.514 Z0.800 E0.27880
G1 X60.034 Y91.210 Z0.800 E0.27880
G1 X59.690 Y90.896 Z0.800 E0.27880
G1 X59.357 Y90.570 Z0.800 E0.27880
G1 X59.034 Y90.235 Z0.800 E0.27880
G1 X58.722 Y89.889 Z0.800 E0.27880
G1 X58.420 Y89.535 Z0.800 E0.27880
G1 X58.130 Y89.171 Z0.800 E0.27880
G1 X57.851 Y88.798 Z0.800 E0.27880
G1 X57.584 Y88.416 Z0.800 E0.27880
G1 X57.328 Y88.027 Z0.800 E0.27880
G1 X57.085 Y87.630 Z0.800 E0.27880
G1 X56.855 Y87.225 Z0.800 E0.27880
G1 X56.637 Y86.813 Z0.800 E0.27880
G1 X56.432 Y86.395 Z0.800 E0.27880
G1 X56.240 Y85.971 Z0.800 E0.27880
G1 X56.061 Y85.541 Z0.800 E0.27880
G1 X55.896 Y85.106 Z0.800 E0.27880
G1 X55.744 Y84.665 Z0.800 E0.27880
G1 X55.606 Y84.220 Z0.800 E0.27880
G1 X55.482 Y83.772 Z0.800 E0.27880
G1 X55.372 Y83.319 Z0.800 E0.27880
G1 X55.276 Y82.863 Z0.800 E0.27880
G1 X55.194 Y82.405 Z0.800 E0.27880
G1 X55.127 Y81.944 Z0.800 E0.27880
G1 X55.073 Y81.482 Z0.800 E0.27880
G1 X55.035 Y81.017 Z0.800 E0.27880
G1 X55.010 Y80.552 Z0.800 E0.27880
G1 X55.000 Y80.087 Z0.800 E0.27880
G1 X55.005 Y79.621 Z0.800 E0.27880
G1 X55.024 Y79.156 Z0.800 E0.27880
G1 X55.057 Y78.691 Z0.800 E0.27880
G1 X55.105 Y78.228 Z0.800 E0.27880
G1 X55.167 Y77.767 Z0.800 E0.27880
G1 X55.244 Y77.307 Z0.800 E0.27880
G1 X55.334 Y76.850 Z0.800 E0.27880
G1 X55.439 Y76.397 Z0.800 E0.27880
G1 X55.558 Y75.946 Z0.800 E0.27880
G1 X55.691 Y75.500 Z0.800 E0.27880
G1 X55.837 Y75.058 Z0.800 E0.27880
G1 X55.998 Y74.621 Z0.800 E0.27880
G1 X56.171 Y74.189 Z0.800 E0.27880
G1 X56.359 Y73.762 Z0.800 E0.27880
G1 X56.559 Y73.342 Z0.800 E0.27880
G1 X56.772 Y72.928 Z0.800 E0.27880
G1 X56.998 Y72.521 Z0.800 E0.27880
G1 X57.236 Y72.120 Z0.800 E0.27880
G1 X57.487 Y71.728 Z0.800 E0.27880
G1 X57.750 Y71.344 Z0.800 E0.27880
G1 X58.024 Y70.968 Z0.800 E0.27880
G1 X58.311 Y70.600 Z0.800 E0.27880
G1 X58.608 Y70.242 Z0.800 E0.27880
G1 X58.916 Y69.893 Z0.800 E0.27880
G1 X59.236 Y69.554 Z0.800 E0.27880
G1 X59.565 Y69.225 Z0.800 E0.27880
G1 X59.905 Y68.906 Z0.800 E0.27880
G1 X60.254 Y68.598 Z0.800 E0.27880
G1 X60.612 Y68.301 Z0.800 E0.27880
G1 X60.980 Y68.015 Z0.800 E0.27880
G1 X61.357 Y67.741 Z0.800 E0.27880
G1 X61.741 Y67.478 Z0.800 E0.27880
G1 X62.134 Y67.228 Z0.800 E0.27880
G1 X62.534 Y66.990 Z0.800 E0.27880
G1 X62.942 Y66.764 Z0.800 E0.27880
G1 X63.356 Y66.552 Z0.800 E0.27880
G1 X63.777 Y66.352 Z0.800 E0.27880
G1 X64.203 Y66.165 Z0.800 E0.27880
G1 X64.636 Y65.992 Z0.800 E0.27880
G1 X65.073 Y65.832 Z0.800 E0.27880
G1 X65.515 Y65.686 Z0.800 E0.27880
G1 X65.962 Y65.554 Z0.800 E0.27880
G1 X66.412 Y65.435 Z0.800 E0.27880
G1 X66.866 Y65.331 Z0.800 E0.27880
G1 X67.323 Y65.241 Z0.800 E0.27880
G1 X67.782 Y65.165 Z0.800 E0.27880
G1 X68.244 Y65.103 Z0.800 E0.27880
G1 X68.707 Y65.056 Z0.800 E0.27880
G1 X69.172 Y65.023 Z0.800 E0.27880
G1 X69.637 Y65.004 Z0.800 E0.27880
G1 X70.103 Y65.000 Z0.800 E0.27880
G1 X70.568 Y65.011 Z0.800 E0.27880
G1 X71.033 Y65.036 Z0.800 E0.27880
G1 X71.497 Y65.075 Z0.800 E0.27880
G1 X71.960 Y65.129 Z0.800 E0.27880
G1 X72.421 Y65.197 Z0.800 E0.27880
G1 X72.879 Y65.279 Z0.800 E0.27880
G1 X73.335 Y65.375 Z0.800 E0.27880
G1 X73.787 Y65.486 Z0.800 E0.27880
G1 X74.236 Y65.610 Z0.800 E0.27880
G1 X74.680 Y65.749 Z0.800 E0.27880
G1 X75.120 Y65.901 Z0.800 E0.27880
G1 X75.556 Y66.067 Z0.800 E0.27880
G1 X75.985 Y66.246 Z0.800 E0.27880
G1 X76.410 Y66.438 Z0.800 E0.27880
G1 X76.827 Y66.644 Z0.800 E0.27880
G1 X77.239 Y66.862 Z0.800 E0.27880
G1 X77.643 Y67.093 Z0.800 E0.27880
G1 X78.040 Y67.337 Z0.800 E0.27880
G1 X78.429 Y67.592 Z0.800 E0.27880
G1 X78.810 Y67.860 Z0.800 E0.27880
G1 X79.183 Y68.139 Z0.800 E0.27880
G1 X79.547 Y68.430 Z0.800 E0.27880
G1 X79.901 Y68.732 Z0.800 E0.27880
G1 X80.246 Y69.045 Z0.800 E0.27880
G1 X80.581 Y69.368 Z0.800 E0.27880
G1 X80.906 Y69.702 Z0.800 E0.27880
G1 X81.221 Y70.045 Z0.800 E0.27880
G1 X81.524 Y70.399 Z0.800 E0.27880
G1 X81.817 Y70.761 Z0.800 E0.27880
G1 X82.098 Y71.132 Z0.800 E0.27880
G1 X82.367 Y71.512 Z0.800 E0.27880
G1 X82.625 Y71.900 Z0.800 E0.27880
G1 X82.870 Y72.296 Z0.800 E0.27880
G1 X83.103 Y72.699 Z0.800 E0.27880
G1 X83.324 Y73.109 Z0.800 E0.27880
G1 X83.531 Y73.526 Z0.800 E0.27880
G1 X83.726 Y73.949 Z0.800 E0.27880
G1 X83.907 Y74.378 Z0.800 E0.27880
G1 X84.075 Y74.813 Z0.800 E0.27880
G1 X84.229 Y75.252 Z0.800 E0.27880
G1 X84.369 Y75.696 Z0.800 E0.27880
G1 X84.496 Y76.144 Z0.800 E0.27880
G1 X84.609 Y76.596 Z0.800 E0.27880
G1 X84.707 Y77.051 Z0.800 E0.27880
G1 X84.792 Y77.509 Z0.800 E0.27880
G1 X84.862 Y77.970 Z0.800 E0.27880
G1 X84.918 Y78.432 Z0.800 E0.27880
G1 E-3.0 F600
G92 E0

; ============================================================
; [2]  Overlap=-4°
; Center: X150 Y80
; ============================================================
; Mini purge
G1 Z3.80 F6000
G1 X135.0 Y53.0 F6000
G1 Z0.80 F2000
G92 E0
G1 E3 F150
G1 X165.0 E17.9605 F900
G1 E-3.0 F600
G92 E0
; Ring
G1 Z3.80 F6000
G1 X173.000 Y80.000 F6000
G1 Z0.800 F3000
G1 X165.000 Y80.000 E7.78946 F900
G1 F900
G1 X164.993 Y80.468 Z0.800 E0.28038
G1 X164.971 Y80.936 Z0.800 E0.28038
G1 X164.934 Y81.403 Z0.800 E0.28038
G1 X164.883 Y81.869 Z0.800 E0.28038
G1 X164.818 Y82.332 Z0.800 E0.28038
G1 X164.738 Y82.794 Z0.800 E0.28038
G1 X164.643 Y83.252 Z0.800 E0.28038
G1 X164.534 Y83.708 Z0.800 E0.28038
G1 X164.412 Y84.160 Z0.800 E0.28038
G1 X164.275 Y84.608 Z0.800 E0.28038
G1 X164.124 Y85.051 Z0.800 E0.28038
G1 X163.959 Y85.490 Z0.800 E0.28038
G1 X163.781 Y85.923 Z0.800 E0.28038
G1 X163.590 Y86.350 Z0.800 E0.28038
G1 X163.385 Y86.771 Z0.800 E0.28038
G1 X163.167 Y87.186 Z0.800 E0.28038
G1 X162.936 Y87.593 Z0.800 E0.28038
G1 X162.693 Y87.993 Z0.800 E0.28038
G1 X162.437 Y88.386 Z0.800 E0.28038
G1 X162.169 Y88.770 Z0.800 E0.28038
G1 X161.889 Y89.146 Z0.800 E0.28038
G1 X161.598 Y89.512 Z0.800 E0.28038
G1 X161.296 Y89.870 Z0.800 E0.28038
G1 X160.982 Y90.217 Z0.800 E0.28038
G1 X160.658 Y90.555 Z0.800 E0.28038
G1 X160.323 Y90.883 Z0.800 E0.28038
G1 X159.978 Y91.200 Z0.800 E0.28038
G1 X159.624 Y91.506 Z0.800 E0.28038
G1 X159.260 Y91.801 Z0.800 E0.28038
G1 X158.887 Y92.084 Z0.800 E0.28038
G1 X158.505 Y92.356 Z0.800 E0.28038
G1 X158.115 Y92.615 Z0.800 E0.28038
G1 X157.718 Y92.862 Z0.800 E0.28038
G1 X157.312 Y93.097 Z0.800 E0.28038
G1 X156.900 Y93.319 Z0.800 E0.28038
G1 X156.481 Y93.528 Z0.800 E0.28038
G1 X156.055 Y93.723 Z0.800 E0.28038
G1 X155.624 Y93.906 Z0.800 E0.28038
G1 X155.187 Y94.075 Z0.800 E0.28038
G1 X154.745 Y94.230 Z0.800 E0.28038
G1 X154.299 Y94.371 Z0.800 E0.28038
G1 X153.848 Y94.498 Z0.800 E0.28038
G1 X153.393 Y94.611 Z0.800 E0.28038
G1 X152.936 Y94.710 Z0.800 E0.28038
G1 X152.475 Y94.794 Z0.800 E0.28038
G1 X152.012 Y94.864 Z0.800 E0.28038
G1 X151.547 Y94.920 Z0.800 E0.28038
G1 X151.080 Y94.961 Z0.800 E0.28038
G1 X150.613 Y94.987 Z0.800 E0.28038
G1 X150.145 Y94.999 Z0.800 E0.28038
G1 X149.676 Y94.997 Z0.800 E0.28038
G1 X149.208 Y94.979 Z0.800 E0.28038
G1 X148.741 Y94.947 Z0.800 E0.28038
G1 X148.275 Y94.901 Z0.800 E0.28038
G1 X147.811 Y94.839 Z0.800 E0.28038
G1 X147.349 Y94.764 Z0.800 E0.28038
G1 X146.889 Y94.674 Z0.800 E0.28038
G1 X146.432 Y94.570 Z0.800 E0.28038
G1 X145.979 Y94.451 Z0.800 E0.28038
G1 X145.530 Y94.319 Z0.800 E0.28038
G1 X145.085 Y94.172 Z0.800 E0.28038
G1 X144.645 Y94.012 Z0.800 E0.28038
G1 X144.211 Y93.838 Z0.800 E0.28038
G1 X143.781 Y93.650 Z0.800 E0.28038
G1 X143.358 Y93.449 Z0.800 E0.28038
G1 X142.942 Y93.236 Z0.800 E0.28038
G1 X142.532 Y93.009 Z0.800 E0.28038
G1 X142.129 Y92.769 Z0.800 E0.28038
G1 X141.735 Y92.517 Z0.800 E0.28038
G1 X141.348 Y92.253 Z0.800 E0.28038
G1 X140.970 Y91.977 Z0.800 E0.28038
G1 X140.600 Y91.689 Z0.800 E0.28038
G1 X140.240 Y91.390 Z0.800 E0.28038
G1 X139.889 Y91.080 Z0.800 E0.28038
G1 X139.548 Y90.759 Z0.800 E0.28038
G1 X139.217 Y90.427 Z0.800 E0.28038
G1 X138.897 Y90.086 Z0.800 E0.28038
G1 X138.588 Y89.734 Z0.800 E0.28038
G1 X138.289 Y89.373 Z0.800 E0.28038
G1 X138.002 Y89.003 Z0.800 E0.28038
G1 X137.727 Y88.624 Z0.800 E0.28038
G1 X137.464 Y88.237 Z0.800 E0.28038
G1 X137.213 Y87.841 Z0.800 E0.28038
G1 X136.974 Y87.438 Z0.800 E0.28038
G1 X136.748 Y87.028 Z0.800 E0.28038
G1 X136.535 Y86.611 Z0.800 E0.28038
G1 X136.336 Y86.187 Z0.800 E0.28038
G1 X136.149 Y85.758 Z0.800 E0.28038
G1 X135.976 Y85.323 Z0.800 E0.28038
G1 X135.817 Y84.882 Z0.800 E0.28038
G1 X135.671 Y84.437 Z0.800 E0.28038
G1 X135.540 Y83.988 Z0.800 E0.28038
G1 X135.422 Y83.534 Z0.800 E0.28038
G1 X135.319 Y83.077 Z0.800 E0.28038
G1 X135.230 Y82.618 Z0.800 E0.28038
G1 X135.156 Y82.155 Z0.800 E0.28038
G1 X135.096 Y81.691 Z0.800 E0.28038
G1 X135.050 Y81.225 Z0.800 E0.28038
G1 X135.019 Y80.757 Z0.800 E0.28038
G1 X135.003 Y80.289 Z0.800 E0.28038
G1 X135.001 Y79.821 Z0.800 E0.28038
G1 X135.014 Y79.353 Z0.800 E0.28038
G1 X135.041 Y78.885 Z0.800 E0.28038
G1 X135.084 Y78.419 Z0.800 E0.28038
G1 X135.140 Y77.954 Z0.800 E0.28038
G1 X135.211 Y77.491 Z0.800 E0.28038
G1 X135.297 Y77.031 Z0.800 E0.28038
G1 X135.397 Y76.573 Z0.800 E0.28038
G1 X135.511 Y76.119 Z0.800 E0.28038
G1 X135.639 Y75.669 Z0.800 E0.28038
G1 X135.781 Y75.222 Z0.800 E0.28038
G1 X135.937 Y74.781 Z0.800 E0.28038
G1 X136.107 Y74.344 Z0.800 E0.28038
G1 X136.290 Y73.913 Z0.800 E0.28038
G1 X136.487 Y73.488 Z0.800 E0.28038
G1 X136.697 Y73.070 Z0.800 E0.28038
G1 X136.920 Y72.658 Z0.800 E0.28038
G1 X137.155 Y72.253 Z0.800 E0.28038
G1 X137.403 Y71.856 Z0.800 E0.28038
G1 X137.664 Y71.467 Z0.800 E0.28038
G1 X137.936 Y71.086 Z0.800 E0.28038
G1 X138.220 Y70.713 Z0.800 E0.28038
G1 X138.516 Y70.350 Z0.800 E0.28038
G1 X138.823 Y69.996 Z0.800 E0.28038
G1 X139.141 Y69.652 Z0.800 E0.28038
G1 X139.469 Y69.318 Z0.800 E0.28038
G1 X139.808 Y68.995 Z0.800 E0.28038
G1 X140.156 Y68.682 Z0.800 E0.28038
G1 X140.514 Y68.380 Z0.800 E0.28038
G1 X140.882 Y68.090 Z0.800 E0.28038
G1 X141.258 Y67.811 Z0.800 E0.28038
G1 X141.643 Y67.544 Z0.800 E0.28038
G1 X142.036 Y67.289 Z0.800 E0.28038
G1 X142.436 Y67.047 Z0.800 E0.28038
G1 X142.844 Y66.817 Z0.800 E0.28038
G1 X143.259 Y66.600 Z0.800 E0.28038
G1 X143.681 Y66.396 Z0.800 E0.28038
G1 X144.109 Y66.205 Z0.800 E0.28038
G1 X144.542 Y66.028 Z0.800 E0.28038
G1 X144.981 Y65.865 Z0.800 E0.28038
G1 X145.425 Y65.715 Z0.800 E0.28038
G1 X145.873 Y65.579 Z0.800 E0.28038
G1 X146.325 Y65.457 Z0.800 E0.28038
G1 X146.781 Y65.349 Z0.800 E0.28038
G1 X147.240 Y65.256 Z0.800 E0.28038
G1 X147.702 Y65.177 Z0.800 E0.28038
G1 X148.165 Y65.113 Z0.800 E0.28038
G1 X148.631 Y65.063 Z0.800 E0.28038
G1 X149.098 Y65.027 Z0.800 E0.28038
G1 X149.566 Y65.006 Z0.800 E0.28038
G1 X150.034 Y65.000 Z0.800 E0.28038
G1 X150.502 Y65.008 Z0.800 E0.28038
G1 X150.970 Y65.031 Z0.800 E0.28038
G1 X151.437 Y65.069 Z0.800 E0.28038
G1 X151.902 Y65.121 Z0.800 E0.28038
G1 X152.366 Y65.188 Z0.800 E0.28038
G1 X152.827 Y65.269 Z0.800 E0.28038
G1 X153.286 Y65.364 Z0.800 E0.28038
G1 X153.741 Y65.474 Z0.800 E0.28038
G1 X154.193 Y65.598 Z0.800 E0.28038
G1 X154.640 Y65.736 Z0.800 E0.28038
G1 X155.083 Y65.888 Z0.800 E0.28038
G1 X155.521 Y66.053 Z0.800 E0.28038
G1 X155.954 Y66.232 Z0.800 E0.28038
G1 X156.381 Y66.425 Z0.800 E0.28038
G1 X156.802 Y66.631 Z0.800 E0.28038
G1 X157.216 Y66.850 Z0.800 E0.28038
G1 X157.623 Y67.081 Z0.800 E0.28038
G1 X158.022 Y67.326 Z0.800 E0.28038
G1 X158.414 Y67.582 Z0.800 E0.28038
G1 X158.798 Y67.851 Z0.800 E0.28038
G1 X159.173 Y68.131 Z0.800 E0.28038
G1 X159.539 Y68.424 Z0.800 E0.28038
G1 X159.895 Y68.727 Z0.800 E0.28038
G1 X160.242 Y69.041 Z0.800 E0.28038
G1 X160.580 Y69.366 Z0.800 E0.28038
G1 X160.906 Y69.702 Z0.800 E0.28038
G1 X161.223 Y70.047 Z0.800 E0.28038
G1 X161.528 Y70.403 Z0.800 E0.28038
G1 X161.822 Y70.767 Z0.800 E0.28038
G1 X162.104 Y71.141 Z0.800 E0.28038
G1 X162.375 Y71.523 Z0.800 E0.28038
G1 X162.634 Y71.913 Z0.800 E0.28038
G1 X162.880 Y72.312 Z0.800 E0.28038
G1 X163.114 Y72.718 Z0.800 E0.28038
G1 X163.335 Y73.130 Z0.800 E0.28038
G1 X163.542 Y73.550 Z0.800 E0.28038
G1 X163.737 Y73.976 Z0.800 E0.28038
G1 X163.919 Y74.408 Z0.800 E0.28038
G1 X164.086 Y74.845 Z0.800 E0.28038
G1 X164.240 Y75.287 Z0.800 E0.28038
G1 X164.381 Y75.734 Z0.800 E0.28038
G1 X164.507 Y76.185 Z0.800 E0.28038
G1 X164.619 Y76.640 Z0.800 E0.28038
G1 X164.717 Y77.098 Z0.800 E0.28038
G1 X164.800 Y77.559 Z0.800 E0.28038
G1 X164.869 Y78.022 Z0.800 E0.28038
G1 X164.924 Y78.487 Z0.800 E0.28038
G1 X164.963 Y78.954 Z0.800 E0.28038
G1 E-3.0 F600
G92 E0

; ============================================================
; [3]  Overlap=-2°
; Center: X240 Y80
; ============================================================
; Mini purge
G1 Z3.80 F6000
G1 X225.0 Y53.0 F6000
G1 Z0.80 F2000
G92 E0
G1 E3 F150
G1 X255.0 E17.9605 F900
G1 E-3.0 F600
G92 E0
; Ring
G1 Z3.80 F6000
G1 X263.000 Y80.000 F6000
G1 Z0.800 F3000
G1 X255.000 Y80.000 E7.78946 F900
G1 F900
G1 X254.993 Y80.471 Z0.800 E0.28195
G1 X254.970 Y80.941 Z0.800 E0.28195
G1 X254.934 Y81.411 Z0.800 E0.28195
G1 X254.882 Y81.879 Z0.800 E0.28195
G1 X254.816 Y82.345 Z0.800 E0.28195
G1 X254.735 Y82.809 Z0.800 E0.28195
G1 X254.639 Y83.270 Z0.800 E0.28195
G1 X254.529 Y83.728 Z0.800 E0.28195
G1 X254.405 Y84.183 Z0.800 E0.28195
G1 X254.267 Y84.633 Z0.800 E0.28195
G1 X254.114 Y85.078 Z0.800 E0.28195
G1 X253.948 Y85.519 Z0.800 E0.28195
G1 X253.768 Y85.954 Z0.800 E0.28195
G1 X253.574 Y86.383 Z0.800 E0.28195
G1 X253.367 Y86.806 Z0.800 E0.28195
G1 X253.147 Y87.223 Z0.800 E0.28195
G1 X252.913 Y87.632 Z0.800 E0.28195
G1 X252.667 Y88.033 Z0.800 E0.28195
G1 X252.409 Y88.427 Z0.800 E0.28195
G1 X252.138 Y88.813 Z0.800 E0.28195
G1 X251.856 Y89.189 Z0.800 E0.28195
G1 X251.561 Y89.557 Z0.800 E0.28195
G1 X251.256 Y89.915 Z0.800 E0.28195
G1 X250.939 Y90.264 Z0.800 E0.28195
G1 X250.611 Y90.602 Z0.800 E0.28195
G1 X250.273 Y90.930 Z0.800 E0.28195
G1 X249.925 Y91.247 Z0.800 E0.28195
G1 X249.567 Y91.553 Z0.800 E0.28195
G1 X249.200 Y91.848 Z0.800 E0.28195
G1 X248.823 Y92.131 Z0.800 E0.28195
G1 X248.438 Y92.402 Z0.800 E0.28195
G1 X248.045 Y92.660 Z0.800 E0.28195
G1 X247.643 Y92.907 Z0.800 E0.28195
G1 X247.234 Y93.140 Z0.800 E0.28195
G1 X246.818 Y93.361 Z0.800 E0.28195
G1 X246.395 Y93.568 Z0.800 E0.28195
G1 X245.966 Y93.762 Z0.800 E0.28195
G1 X245.531 Y93.943 Z0.800 E0.28195
G1 X245.091 Y94.110 Z0.800 E0.28195
G1 X244.645 Y94.263 Z0.800 E0.28195
G1 X244.195 Y94.401 Z0.800 E0.28195
G1 X243.741 Y94.526 Z0.800 E0.28195
G1 X243.283 Y94.636 Z0.800 E0.28195
G1 X242.822 Y94.732 Z0.800 E0.28195
G1 X242.358 Y94.813 Z0.800 E0.28195
G1 X241.892 Y94.880 Z0.800 E0.28195
G1 X241.424 Y94.932 Z0.800 E0.28195
G1 X240.954 Y94.970 Z0.800 E0.28195
G1 X240.484 Y94.992 Z0.800 E0.28195
G1 X240.013 Y95.000 Z0.800 E0.28195
G1 X239.542 Y94.993 Z0.800 E0.28195
G1 X239.072 Y94.971 Z0.800 E0.28195
G1 X238.602 Y94.935 Z0.800 E0.28195
G1 X238.134 Y94.883 Z0.800 E0.28195
G1 X237.668 Y94.818 Z0.800 E0.28195
G1 X237.204 Y94.737 Z0.800 E0.28195
G1 X236.742 Y94.642 Z0.800 E0.28195
G1 X236.284 Y94.533 Z0.800 E0.28195
G1 X235.830 Y94.409 Z0.800 E0.28195
G1 X235.380 Y94.271 Z0.800 E0.28195
G1 X234.934 Y94.119 Z0.800 E0.28195
G1 X234.493 Y93.953 Z0.800 E0.28195
G1 X234.058 Y93.773 Z0.800 E0.28195
G1 X233.629 Y93.580 Z0.800 E0.28195
G1 X233.205 Y93.373 Z0.800 E0.28195
G1 X232.789 Y93.153 Z0.800 E0.28195
G1 X232.380 Y92.920 Z0.800 E0.28195
G1 X231.978 Y92.674 Z0.800 E0.28195
G1 X231.584 Y92.416 Z0.800 E0.28195
G1 X231.198 Y92.146 Z0.800 E0.28195
G1 X230.821 Y91.864 Z0.800 E0.28195
G1 X230.453 Y91.570 Z0.800 E0.28195
G1 X230.095 Y91.264 Z0.800 E0.28195
G1 X229.746 Y90.948 Z0.800 E0.28195
G1 X229.407 Y90.621 Z0.800 E0.28195
G1 X229.079 Y90.283 Z0.800 E0.28195
G1 X228.762 Y89.935 Z0.800 E0.28195
G1 X228.455 Y89.577 Z0.800 E0.28195
G1 X228.160 Y89.210 Z0.800 E0.28195
G1 X227.877 Y88.834 Z0.800 E0.28195
G1 X227.606 Y88.449 Z0.800 E0.28195
G1 X227.347 Y88.056 Z0.800 E0.28195
G1 X227.100 Y87.654 Z0.800 E0.28195
G1 X226.866 Y87.246 Z0.800 E0.28195
G1 X226.645 Y86.830 Z0.800 E0.28195
G1 X226.437 Y86.407 Z0.800 E0.28195
G1 X226.243 Y85.978 Z0.800 E0.28195
G1 X226.062 Y85.543 Z0.800 E0.28195
G1 X225.895 Y85.103 Z0.800 E0.28195
G1 X225.741 Y84.658 Z0.800 E0.28195
G1 X225.602 Y84.208 Z0.800 E0.28195
G1 X225.477 Y83.754 Z0.800 E0.28195
G1 X225.367 Y83.296 Z0.800 E0.28195
G1 X225.270 Y82.835 Z0.800 E0.28195
G1 X225.189 Y82.371 Z0.800 E0.28195
G1 X225.121 Y81.905 Z0.800 E0.28195
G1 X225.069 Y81.437 Z0.800 E0.28195
G1 X225.031 Y80.968 Z0.800 E0.28195
G1 X225.008 Y80.497 Z0.800 E0.28195
G1 X225.000 Y80.026 Z0.800 E0.28195
G1 X225.007 Y79.555 Z0.800 E0.28195
G1 X225.028 Y79.085 Z0.800 E0.28195
G1 X225.064 Y78.615 Z0.800 E0.28195
G1 X225.115 Y78.147 Z0.800 E0.28195
G1 X225.180 Y77.681 Z0.800 E0.28195
G1 X225.260 Y77.217 Z0.800 E0.28195
G1 X225.355 Y76.755 Z0.800 E0.28195
G1 X225.464 Y76.297 Z0.800 E0.28195
G1 X225.588 Y75.843 Z0.800 E0.28195
G1 X225.725 Y75.392 Z0.800 E0.28195
G1 X225.877 Y74.946 Z0.800 E0.28195
G1 X226.043 Y74.506 Z0.800 E0.28195
G1 X226.222 Y74.070 Z0.800 E0.28195
G1 X226.415 Y73.640 Z0.800 E0.28195
G1 X226.621 Y73.217 Z0.800 E0.28195
G1 X226.841 Y72.800 Z0.800 E0.28195
G1 X227.073 Y72.391 Z0.800 E0.28195
G1 X227.318 Y71.989 Z0.800 E0.28195
G1 X227.576 Y71.595 Z0.800 E0.28195
G1 X227.846 Y71.209 Z0.800 E0.28195
G1 X228.128 Y70.832 Z0.800 E0.28195
G1 X228.422 Y70.463 Z0.800 E0.28195
G1 X228.727 Y70.105 Z0.800 E0.28195
G1 X229.043 Y69.756 Z0.800 E0.28195
G1 X229.370 Y69.417 Z0.800 E0.28195
G1 X229.708 Y69.088 Z0.800 E0.28195
G1 X230.055 Y68.770 Z0.800 E0.28195
G1 X230.413 Y68.464 Z0.800 E0.28195
G1 X230.780 Y68.169 Z0.800 E0.28195
G1 X231.156 Y67.885 Z0.800 E0.28195
G1 X231.540 Y67.613 Z0.800 E0.28195
G1 X231.933 Y67.354 Z0.800 E0.28195
G1 X232.334 Y67.107 Z0.800 E0.28195
G1 X232.743 Y66.872 Z0.800 E0.28195
G1 X233.159 Y66.651 Z0.800 E0.28195
G1 X233.581 Y66.443 Z0.800 E0.28195
G1 X234.010 Y66.248 Z0.800 E0.28195
G1 X234.444 Y66.067 Z0.800 E0.28195
G1 X234.885 Y65.899 Z0.800 E0.28195
G1 X235.330 Y65.746 Z0.800 E0.28195
G1 X235.780 Y65.606 Z0.800 E0.28195
G1 X236.233 Y65.481 Z0.800 E0.28195
G1 X236.691 Y65.370 Z0.800 E0.28195
G1 X237.152 Y65.273 Z0.800 E0.28195
G1 X237.616 Y65.191 Z0.800 E0.28195
G1 X238.082 Y65.123 Z0.800 E0.28195
G1 X238.550 Y65.070 Z0.800 E0.28195
G1 X239.019 Y65.032 Z0.800 E0.28195
G1 X239.490 Y65.009 Z0.800 E0.28195
G1 X239.961 Y65.000 Z0.800 E0.28195
G1 X240.431 Y65.006 Z0.800 E0.28195
G1 X240.902 Y65.027 Z0.800 E0.28195
G1 X241.372 Y65.063 Z0.800 E0.28195
G1 X241.840 Y65.113 Z0.800 E0.28195
G1 X242.306 Y65.178 Z0.800 E0.28195
G1 X242.770 Y65.258 Z0.800 E0.28195
G1 X243.232 Y65.352 Z0.800 E0.28195
G1 X243.690 Y65.461 Z0.800 E0.28195
G1 X244.145 Y65.584 Z0.800 E0.28195
G1 X244.595 Y65.721 Z0.800 E0.28195
G1 X245.041 Y65.872 Z0.800 E0.28195
G1 X245.482 Y66.038 Z0.800 E0.28195
G1 X245.918 Y66.217 Z0.800 E0.28195
G1 X246.348 Y66.409 Z0.800 E0.28195
G1 X246.771 Y66.615 Z0.800 E0.28195
G1 X247.188 Y66.834 Z0.800 E0.28195
G1 X247.598 Y67.067 Z0.800 E0.28195
G1 X248.000 Y67.311 Z0.800 E0.28195
G1 X248.394 Y67.569 Z0.800 E0.28195
G1 X248.781 Y67.839 Z0.800 E0.28195
G1 X249.158 Y68.120 Z0.800 E0.28195
G1 X249.526 Y68.414 Z0.800 E0.28195
G1 X249.885 Y68.718 Z0.800 E0.28195
G1 X250.235 Y69.034 Z0.800 E0.28195
G1 X250.574 Y69.361 Z0.800 E0.28195
G1 X250.903 Y69.698 Z0.800 E0.28195
G1 X251.221 Y70.045 Z0.800 E0.28195
G1 X251.528 Y70.403 Z0.800 E0.28195
G1 X251.823 Y70.769 Z0.800 E0.28195
G1 X252.107 Y71.145 Z0.800 E0.28195
G1 X252.379 Y71.529 Z0.800 E0.28195
G1 X252.639 Y71.922 Z0.800 E0.28195
G1 X252.887 Y72.323 Z0.800 E0.28195
G1 X253.121 Y72.731 Z0.800 E0.28195
G1 X253.343 Y73.147 Z0.800 E0.28195
G1 X253.551 Y73.569 Z0.800 E0.28195
G1 X253.747 Y73.998 Z0.800 E0.28195
G1 X253.928 Y74.432 Z0.800 E0.28195
G1 X254.096 Y74.872 Z0.800 E0.28195
G1 X254.250 Y75.317 Z0.800 E0.28195
G1 X254.390 Y75.767 Z0.800 E0.28195
G1 X254.516 Y76.221 Z0.800 E0.28195
G1 X254.628 Y76.678 Z0.800 E0.28195
G1 X254.725 Y77.139 Z0.800 E0.28195
G1 X254.807 Y77.603 Z0.800 E0.28195
G1 X254.875 Y78.069 Z0.800 E0.28195
G1 X254.928 Y78.537 Z0.800 E0.28195
G1 X254.967 Y79.006 Z0.800 E0.28195
G1 X254.991 Y79.477 Z0.800 E0.28195
G1 E-3.0 F600
G92 E0

; ============================================================
; [4]  Overlap=+0°
; Center: X320 Y80
; ============================================================
; Mini purge
G1 Z3.80 F6000
G1 X305.0 Y53.0 F6000
G1 Z0.80 F2000
G92 E0
G1 E3 F150
G1 X335.0 E17.9605 F900
G1 E-3.0 F600
G92 E0
; Ring
G1 Z3.80 F6000
G1 X343.000 Y80.000 F6000
G1 Z0.800 F3000
G1 X335.000 Y80.000 E7.78946 F900
G1 F900
G1 X334.993 Y80.474 Z0.800 E0.28353
G1 X334.970 Y80.947 Z0.800 E0.28353
G1 X334.933 Y81.419 Z0.800 E0.28353
G1 X334.881 Y81.889 Z0.800 E0.28353
G1 X334.813 Y82.358 Z0.800 E0.28353
G1 X334.732 Y82.825 Z0.800 E0.28353
G1 X334.635 Y83.288 Z0.800 E0.28353
G1 X334.524 Y83.749 Z0.800 E0.28353
G1 X334.398 Y84.205 Z0.800 E0.28353
G1 X334.259 Y84.658 Z0.800 E0.28353
G1 X334.104 Y85.106 Z0.800 E0.28353
G1 X333.936 Y85.548 Z0.800 E0.28353
G1 X333.754 Y85.985 Z0.800 E0.28353
G1 X333.558 Y86.417 Z0.800 E0.28353
G1 X333.349 Y86.841 Z0.800 E0.28353
G1 X333.126 Y87.259 Z0.800 E0.28353
G1 X332.891 Y87.670 Z0.800 E0.28353
G1 X332.642 Y88.073 Z0.800 E0.28353
G1 X332.381 Y88.468 Z0.800 E0.28353
G1 X332.107 Y88.855 Z0.800 E0.28353
G1 X331.822 Y89.233 Z0.800 E0.28353
G1 X331.524 Y89.601 Z0.800 E0.28353
G1 X331.216 Y89.960 Z0.800 E0.28353
G1 X330.896 Y90.310 Z0.800 E0.28353
G1 X330.565 Y90.648 Z0.800 E0.28353
G1 X330.223 Y90.977 Z0.800 E0.28353
G1 X329.872 Y91.294 Z0.800 E0.28353
G1 X329.510 Y91.600 Z0.800 E0.28353
G1 X329.139 Y91.894 Z0.800 E0.28353
G1 X328.759 Y92.177 Z0.800 E0.28353
G1 X328.370 Y92.447 Z0.800 E0.28353
G1 X327.973 Y92.705 Z0.800 E0.28353
G1 X327.568 Y92.951 Z0.800 E0.28353
G1 X327.156 Y93.183 Z0.800 E0.28353
G1 X326.736 Y93.403 Z0.800 E0.28353
G1 X326.309 Y93.608 Z0.800 E0.28353
G1 X325.877 Y93.801 Z0.800 E0.28353
G1 X325.438 Y93.980 Z0.800 E0.28353
G1 X324.994 Y94.144 Z0.800 E0.28353
G1 X324.545 Y94.295 Z0.800 E0.28353
G1 X324.092 Y94.431 Z0.800 E0.28353
G1 X323.634 Y94.553 Z0.800 E0.28353
G1 X323.173 Y94.661 Z0.800 E0.28353
G1 X322.708 Y94.753 Z0.800 E0.28353
G1 X322.241 Y94.832 Z0.800 E0.28353
G1 X321.772 Y94.895 Z0.800 E0.28353
G1 X321.301 Y94.943 Z0.800 E0.28353
G1 X320.828 Y94.977 Z0.800 E0.28353
G1 X320.355 Y94.996 Z0.800 E0.28353
G1 X319.882 Y95.000 Z0.800 E0.28353
G1 X319.408 Y94.988 Z0.800 E0.28353
G1 X318.935 Y94.962 Z0.800 E0.28353
G1 X318.463 Y94.921 Z0.800 E0.28353
G1 X317.993 Y94.865 Z0.800 E0.28353
G1 X317.525 Y94.794 Z0.800 E0.28353
G1 X317.059 Y94.709 Z0.800 E0.28353
G1 X316.596 Y94.609 Z0.800 E0.28353
G1 X316.137 Y94.494 Z0.800 E0.28353
G1 X315.681 Y94.365 Z0.800 E0.28353
G1 X315.230 Y94.221 Z0.800 E0.28353
G1 X314.783 Y94.064 Z0.800 E0.28353
G1 X314.342 Y93.892 Z0.800 E0.28353
G1 X313.906 Y93.706 Z0.800 E0.28353
G1 X313.477 Y93.507 Z0.800 E0.28353
G1 X313.053 Y93.295 Z0.800 E0.28353
G1 X312.637 Y93.069 Z0.800 E0.28353
G1 X312.228 Y92.830 Z0.800 E0.28353
G1 X311.827 Y92.578 Z0.800 E0.28353
G1 X311.434 Y92.314 Z0.800 E0.28353
G1 X311.050 Y92.037 Z0.800 E0.28353
G1 X310.674 Y91.749 Z0.800 E0.28353
G1 X310.308 Y91.448 Z0.800 E0.28353
G1 X309.951 Y91.137 Z0.800 E0.28353
G1 X309.605 Y90.814 Z0.800 E0.28353
G1 X309.269 Y90.480 Z0.800 E0.28353
G1 X308.943 Y90.136 Z0.800 E0.28353
G1 X308.629 Y89.782 Z0.800 E0.28353
G1 X308.325 Y89.418 Z0.800 E0.28353
G1 X308.034 Y89.045 Z0.800 E0.28353
G1 X307.754 Y88.663 Z0.800 E0.28353
G1 X307.487 Y88.272 Z0.800 E0.28353
G1 X307.232 Y87.873 Z0.800 E0.28353
G1 X306.990 Y87.466 Z0.800 E0.28353
G1 X306.761 Y87.051 Z0.800 E0.28353
G1 X306.545 Y86.630 Z0.800 E0.28353
G1 X306.342 Y86.202 Z0.800 E0.28353
G1 X306.153 Y85.768 Z0.800 E0.28353
G1 X305.978 Y85.328 Z0.800 E0.28353
G1 X305.817 Y84.882 Z0.800 E0.28353
G1 X305.670 Y84.432 Z0.800 E0.28353
G1 X305.537 Y83.978 Z0.800 E0.28353
G1 X305.419 Y83.519 Z0.800 E0.28353
G1 X305.315 Y83.057 Z0.800 E0.28353
G1 X305.226 Y82.592 Z0.800 E0.28353
G1 X305.151 Y82.124 Z0.800 E0.28353
G1 X305.091 Y81.654 Z0.800 E0.28353
G1 X305.047 Y81.183 Z0.800 E0.28353
G1 X305.017 Y80.710 Z0.800 E0.28353
G1 X305.002 Y80.237 Z0.800 E0.28353
G1 X305.002 Y79.763 Z0.800 E0.28353
G1 X305.017 Y79.290 Z0.800 E0.28353
G1 X305.047 Y78.817 Z0.800 E0.28353
G1 X305.091 Y78.346 Z0.800 E0.28353
G1 X305.151 Y77.876 Z0.800 E0.28353
G1 X305.226 Y77.408 Z0.800 E0.28353
G1 X305.315 Y76.943 Z0.800 E0.28353
G1 X305.419 Y76.481 Z0.800 E0.28353
G1 X305.537 Y76.022 Z0.800 E0.28353
G1 X305.670 Y75.568 Z0.800 E0.28353
G1 X305.817 Y75.118 Z0.800 E0.28353
G1 X305.978 Y74.672 Z0.800 E0.28353
G1 X306.153 Y74.232 Z0.800 E0.28353
G1 X306.342 Y73.798 Z0.800 E0.28353
G1 X306.545 Y73.370 Z0.800 E0.28353
G1 X306.761 Y72.949 Z0.800 E0.28353
G1 X306.990 Y72.534 Z0.800 E0.28353
G1 X307.232 Y72.127 Z0.800 E0.28353
G1 X307.487 Y71.728 Z0.800 E0.28353
G1 X307.754 Y71.337 Z0.800 E0.28353
G1 X308.034 Y70.955 Z0.800 E0.28353
G1 X308.325 Y70.582 Z0.800 E0.28353
G1 X308.629 Y70.218 Z0.800 E0.28353
G1 X308.943 Y69.864 Z0.800 E0.28353
G1 X309.269 Y69.520 Z0.800 E0.28353
G1 X309.605 Y69.186 Z0.800 E0.28353
G1 X309.951 Y68.863 Z0.800 E0.28353
G1 X310.308 Y68.552 Z0.800 E0.28353
G1 X310.674 Y68.251 Z0.800 E0.28353
G1 X311.050 Y67.963 Z0.800 E0.28353
G1 X311.434 Y67.686 Z0.800 E0.28353
G1 X311.827 Y67.422 Z0.800 E0.28353
G1 X312.228 Y67.170 Z0.800 E0.28353
G1 X312.637 Y66.931 Z0.800 E0.28353
G1 X313.053 Y66.705 Z0.800 E0.28353
G1 X313.477 Y66.493 Z0.800 E0.28353
G1 X313.906 Y66.294 Z0.800 E0.28353
G1 X314.342 Y66.108 Z0.800 E0.28353
G1 X314.783 Y65.936 Z0.800 E0.28353
G1 X315.230 Y65.779 Z0.800 E0.28353
G1 X315.681 Y65.635 Z0.800 E0.28353
G1 X316.137 Y65.506 Z0.800 E0.28353
G1 X316.596 Y65.391 Z0.800 E0.28353
G1 X317.059 Y65.291 Z0.800 E0.28353
G1 X317.525 Y65.206 Z0.800 E0.28353
G1 X317.993 Y65.135 Z0.800 E0.28353
G1 X318.463 Y65.079 Z0.800 E0.28353
G1 X318.935 Y65.038 Z0.800 E0.28353
G1 X319.408 Y65.012 Z0.800 E0.28353
G1 X319.882 Y65.000 Z0.800 E0.28353
G1 X320.355 Y65.004 Z0.800 E0.28353
G1 X320.828 Y65.023 Z0.800 E0.28353
G1 X321.301 Y65.057 Z0.800 E0.28353
G1 X321.772 Y65.105 Z0.800 E0.28353
G1 X322.241 Y65.168 Z0.800 E0.28353
G1 X322.708 Y65.247 Z0.800 E0.28353
G1 X323.173 Y65.339 Z0.800 E0.28353
G1 X323.634 Y65.447 Z0.800 E0.28353
G1 X324.092 Y65.569 Z0.800 E0.28353
G1 X324.545 Y65.705 Z0.800 E0.28353
G1 X324.994 Y65.856 Z0.800 E0.28353
G1 X325.438 Y66.020 Z0.800 E0.28353
G1 X325.877 Y66.199 Z0.800 E0.28353
G1 X326.309 Y66.392 Z0.800 E0.28353
G1 X326.736 Y66.597 Z0.800 E0.28353
G1 X327.156 Y66.817 Z0.800 E0.28353
G1 X327.568 Y67.049 Z0.800 E0.28353
G1 X327.973 Y67.295 Z0.800 E0.28353
G1 X328.370 Y67.553 Z0.800 E0.28353
G1 X328.759 Y67.823 Z0.800 E0.28353
G1 X329.139 Y68.106 Z0.800 E0.28353
G1 X329.510 Y68.400 Z0.800 E0.28353
G1 X329.872 Y68.706 Z0.800 E0.28353
G1 X330.223 Y69.023 Z0.800 E0.28353
G1 X330.565 Y69.352 Z0.800 E0.28353
G1 X330.896 Y69.690 Z0.800 E0.28353
G1 X331.216 Y70.040 Z0.800 E0.28353
G1 X331.524 Y70.399 Z0.800 E0.28353
G1 X331.822 Y70.767 Z0.800 E0.28353
G1 X332.107 Y71.145 Z0.800 E0.28353
G1 X332.381 Y71.532 Z0.800 E0.28353
G1 X332.642 Y71.927 Z0.800 E0.28353
G1 X332.891 Y72.330 Z0.800 E0.28353
G1 X333.126 Y72.741 Z0.800 E0.28353
G1 X333.349 Y73.159 Z0.800 E0.28353
G1 X333.558 Y73.583 Z0.800 E0.28353
G1 X333.754 Y74.015 Z0.800 E0.28353
G1 X333.936 Y74.452 Z0.800 E0.28353
G1 X334.104 Y74.894 Z0.800 E0.28353
G1 X334.259 Y75.342 Z0.800 E0.28353
G1 X334.398 Y75.795 Z0.800 E0.28353
G1 X334.524 Y76.251 Z0.800 E0.28353
G1 X334.635 Y76.712 Z0.800 E0.28353
G1 X334.732 Y77.175 Z0.800 E0.28353
G1 X334.813 Y77.642 Z0.800 E0.28353
G1 X334.881 Y78.111 Z0.800 E0.28353
G1 X334.933 Y78.581 Z0.800 E0.28353
G1 X334.970 Y79.053 Z0.800 E0.28353
G1 X334.993 Y79.526 Z0.800 E0.28353
G1 X335.000 Y80.000 Z0.800 E0.28353
G1 E-3.0 F600
G92 E0

; --- End ---
M106 S0
M104 S0
M140 S0
G1 Z80 F3000
G28 X0
M84