; ==================================================
; Ring Base Adhesion Experiment — Phase 1
; ==================================================
; Factor A rows (Y): Z height
; Factor B cols (X): print speed
;
; Grid map (ring center positions):
;         Speed=5      Speed=10     Speed=15  mm/s
; Z=1.2mm   [4,1]X70Y340   [4,2]X150Y340   [4,3]X230Y340  
; Z=1.0mm   [3,1]X70Y250   [3,2]X150Y250   [3,3]X230Y250  
; Z=0.8mm   [2,1]X70Y160   [2,2]X150Y160   [2,3]X230Y160  
; Z=0.6mm   [1,1]X70Y70   [1,2]X150Y70   [1,3]X230Y70  
;
; Each unit: mini-purge line (30mm) then ring (φ30mm)
; ==================================================

M104 S200
M140 S60
G28
M106 S0
M109 S200
M190 S60
G21
G90
M83
G92 E0

; --- Initial purge (prime nozzle before grid) ---
G1 Z10 F3000
G1 X20 Y20 F6000
G1 Z0.8 F2000
G92 E0
G1 E10 F100
G1 X150 E50 F400
G1 X170 F5000
G1 E-5 F600
G92 E0

; ============================================================
; [1,1]  Z=0.6mm  speed=5mm/s  E/mm=0.4490
; Ring center: X70 Y70
; ============================================================
; Mini purge
G1 Z3.60 F6000
G1 X55.000 Y43.000 F6000
G1 Z0.600 F3000
G92 E0
G1 E3 F150
G1 X85.0 E13.4704 F300
G1 E-3 F600
G92 E0
; Ring (radial approach + overlap)
G1 Z3.60 F6000
G1 X93.000 Y70.000 F6000
G1 Z0.600 F3000
G1 E3 F300
G1 X85.000 Y70.000 E3.59209 F300
G1 X84.992 Y70.485 Z0.600 E0.21772
G1 X84.969 Y70.969 Z0.600 E0.21772
G1 X84.930 Y71.452 Z0.600 E0.21772
G1 X84.875 Y71.934 Z0.600 E0.21772
G1 X84.804 Y72.414 Z0.600 E0.21772
G1 X84.719 Y72.891 Z0.600 E0.21772
G1 X84.618 Y73.365 Z0.600 E0.21772
G1 X84.501 Y73.836 Z0.600 E0.21772
G1 X84.370 Y74.303 Z0.600 E0.21772
G1 X84.223 Y74.765 Z0.600 E0.21772
G1 X84.062 Y75.222 Z0.600 E0.21772
G1 X83.885 Y75.674 Z0.600 E0.21772
G1 X83.695 Y76.120 Z0.600 E0.21772
G1 X83.490 Y76.559 Z0.600 E0.21772
G1 X83.271 Y76.992 Z0.600 E0.21772
G1 X83.038 Y77.417 Z0.600 E0.21772
G1 X82.791 Y77.835 Z0.600 E0.21772
G1 X82.531 Y78.244 Z0.600 E0.21772
G1 X82.258 Y78.645 Z0.600 E0.21772
G1 X81.972 Y79.037 Z0.600 E0.21772
G1 X81.674 Y79.419 Z0.600 E0.21772
G1 X81.364 Y79.791 Z0.600 E0.21772
G1 X81.041 Y80.153 Z0.600 E0.21772
G1 X80.707 Y80.505 Z0.600 E0.21772
G1 X80.362 Y80.846 Z0.600 E0.21772
G1 X80.006 Y81.175 Z0.600 E0.21772
G1 X79.640 Y81.492 Z0.600 E0.21772
G1 X79.263 Y81.798 Z0.600 E0.21772
G1 X78.877 Y82.091 Z0.600 E0.21772
G1 X78.482 Y82.372 Z0.600 E0.21772
G1 X78.077 Y82.639 Z0.600 E0.21772
G1 X77.665 Y82.894 Z0.600 E0.21772
G1 X77.244 Y83.135 Z0.600 E0.21772
G1 X76.815 Y83.362 Z0.600 E0.21772
G1 X76.380 Y83.576 Z0.600 E0.21772
G1 X75.938 Y83.775 Z0.600 E0.21772
G1 X75.490 Y83.959 Z0.600 E0.21772
G1 X75.036 Y84.130 Z0.600 E0.21772
G1 X74.576 Y84.285 Z0.600 E0.21772
G1 X74.112 Y84.425 Z0.600 E0.21772
G1 X73.644 Y84.551 Z0.600 E0.21772
G1 X73.171 Y84.661 Z0.600 E0.21772
G1 X72.696 Y84.756 Z0.600 E0.21772
G1 X72.218 Y84.835 Z0.600 E0.21772
G1 X71.737 Y84.899 Z0.600 E0.21772
G1 X71.254 Y84.947 Z0.600 E0.21772
G1 X70.771 Y84.980 Z0.600 E0.21772
G1 X70.286 Y84.997 Z0.600 E0.21772
G1 X69.801 Y84.999 Z0.600 E0.21772
G1 X69.317 Y84.984 Z0.600 E0.21772
G1 X68.833 Y84.954 Z0.600 E0.21772
G1 X68.350 Y84.909 Z0.600 E0.21772
G1 X67.869 Y84.848 Z0.600 E0.21772
G1 X67.390 Y84.771 Z0.600 E0.21772
G1 X66.914 Y84.679 Z0.600 E0.21772
G1 X66.441 Y84.572 Z0.600 E0.21772
G1 X65.972 Y84.449 Z0.600 E0.21772
G1 X65.507 Y84.311 Z0.600 E0.21772
G1 X65.047 Y84.159 Z0.600 E0.21772
G1 X64.592 Y83.991 Z0.600 E0.21772
G1 X64.142 Y83.809 Z0.600 E0.21772
G1 X63.699 Y83.612 Z0.600 E0.21772
G1 X63.262 Y83.402 Z0.600 E0.21772
G1 X62.833 Y83.177 Z0.600 E0.21772
G1 X62.411 Y82.938 Z0.600 E0.21772
G1 X61.996 Y82.686 Z0.600 E0.21772
G1 X61.590 Y82.421 Z0.600 E0.21772
G1 X61.193 Y82.143 Z0.600 E0.21772
G1 X60.806 Y81.852 Z0.600 E0.21772
G1 X60.427 Y81.548 Z0.600 E0.21772
G1 X60.059 Y81.233 Z0.600 E0.21772
G1 X59.701 Y80.906 Z0.600 E0.21772
G1 X59.354 Y80.567 Z0.600 E0.21772
G1 X59.018 Y80.217 Z0.600 E0.21772
G1 X58.694 Y79.857 Z0.600 E0.21772
G1 X58.381 Y79.487 Z0.600 E0.21772
G1 X58.080 Y79.106 Z0.600 E0.21772
G1 X57.792 Y78.716 Z0.600 E0.21772
G1 X57.517 Y78.317 Z0.600 E0.21772
G1 X57.255 Y77.909 Z0.600 E0.21772
G1 X57.006 Y77.493 Z0.600 E0.21772
G1 X56.770 Y77.069 Z0.600 E0.21772
G1 X56.549 Y76.638 Z0.600 E0.21772
G1 X56.341 Y76.200 Z0.600 E0.21772
G1 X56.148 Y75.755 Z0.600 E0.21772
G1 X55.969 Y75.304 Z0.600 E0.21772
G1 X55.805 Y74.848 Z0.600 E0.21772
G1 X55.656 Y74.386 Z0.600 E0.21772
G1 X55.521 Y73.921 Z0.600 E0.21772
G1 X55.402 Y73.450 Z0.600 E0.21772
G1 X55.298 Y72.977 Z0.600 E0.21772
G1 X55.210 Y72.500 Z0.600 E0.21772
G1 X55.137 Y72.021 Z0.600 E0.21772
G1 X55.079 Y71.539 Z0.600 E0.21772
G1 X55.037 Y71.056 Z0.600 E0.21772
G1 X55.011 Y70.572 Z0.600 E0.21772
G1 X55.000 Y70.087 Z0.600 E0.21772
G1 X55.005 Y69.602 Z0.600 E0.21772
G1 X55.026 Y69.118 Z0.600 E0.21772
G1 X55.062 Y68.634 Z0.600 E0.21772
G1 X55.114 Y68.152 Z0.600 E0.21772
G1 X55.182 Y67.672 Z0.600 E0.21772
G1 X55.265 Y67.194 Z0.600 E0.21772
G1 X55.363 Y66.720 Z0.600 E0.21772
G1 X55.477 Y66.248 Z0.600 E0.21772
G1 X55.606 Y65.781 Z0.600 E0.21772
G1 X55.750 Y65.318 Z0.600 E0.21772
G1 X55.908 Y64.860 Z0.600 E0.21772
G1 X56.082 Y64.407 Z0.600 E0.21772
G1 X56.270 Y63.960 Z0.600 E0.21772
G1 X56.472 Y63.519 Z0.600 E0.21772
G1 X56.689 Y63.085 Z0.600 E0.21772
G1 X56.919 Y62.659 Z0.600 E0.21772
G1 X57.163 Y62.240 Z0.600 E0.21772
G1 X57.421 Y61.829 Z0.600 E0.21772
G1 X57.692 Y61.427 Z0.600 E0.21772
G1 X57.975 Y61.033 Z0.600 E0.21772
G1 X58.271 Y60.649 Z0.600 E0.21772
G1 X58.580 Y60.275 Z0.600 E0.21772
G1 X58.900 Y59.911 Z0.600 E0.21772
G1 X59.232 Y59.558 Z0.600 E0.21772
G1 X59.575 Y59.215 Z0.600 E0.21772
G1 X59.929 Y58.884 Z0.600 E0.21772
G1 X60.294 Y58.564 Z0.600 E0.21772
G1 X60.668 Y58.256 Z0.600 E0.21772
G1 X61.053 Y57.961 Z0.600 E0.21772
G1 X61.447 Y57.678 Z0.600 E0.21772
G1 X61.849 Y57.408 Z0.600 E0.21772
G1 X62.261 Y57.151 Z0.600 E0.21772
G1 X62.680 Y56.907 Z0.600 E0.21772
G1 X63.107 Y56.678 Z0.600 E0.21772
G1 X63.541 Y56.462 Z0.600 E0.21772
G1 X63.982 Y56.260 Z0.600 E0.21772
G1 X64.429 Y56.073 Z0.600 E0.21772
G1 X64.882 Y55.900 Z0.600 E0.21772
G1 X65.341 Y55.742 Z0.600 E0.21772
G1 X65.804 Y55.599 Z0.600 E0.21772
G1 X66.272 Y55.471 Z0.600 E0.21772
G1 X66.743 Y55.358 Z0.600 E0.21772
G1 X67.218 Y55.260 Z0.600 E0.21772
G1 X67.696 Y55.178 Z0.600 E0.21772
G1 X68.176 Y55.111 Z0.600 E0.21772
G1 X68.659 Y55.060 Z0.600 E0.21772
G1 X69.142 Y55.025 Z0.600 E0.21772
G1 X69.627 Y55.005 Z0.600 E0.21772
G1 X70.112 Y55.000 Z0.600 E0.21772
G1 X70.596 Y55.012 Z0.600 E0.21772
G1 X71.080 Y55.039 Z0.600 E0.21772
G1 X71.563 Y55.082 Z0.600 E0.21772
G1 X72.045 Y55.140 Z0.600 E0.21772
G1 X72.524 Y55.214 Z0.600 E0.21772
G1 X73.001 Y55.303 Z0.600 E0.21772
G1 X73.474 Y55.408 Z0.600 E0.21772
G1 X73.944 Y55.528 Z0.600 E0.21772
G1 X74.410 Y55.663 Z0.600 E0.21772
G1 X74.871 Y55.813 Z0.600 E0.21772
G1 X75.327 Y55.978 Z0.600 E0.21772
G1 X75.777 Y56.157 Z0.600 E0.21772
G1 X76.222 Y56.351 Z0.600 E0.21772
G1 X76.660 Y56.559 Z0.600 E0.21772
G1 X77.090 Y56.782 Z0.600 E0.21772
G1 X77.514 Y57.018 Z0.600 E0.21772
G1 X77.930 Y57.267 Z0.600 E0.21772
G1 X78.337 Y57.530 Z0.600 E0.21772
G1 X78.736 Y57.806 Z0.600 E0.21772
G1 X79.125 Y58.095 Z0.600 E0.21772
G1 X79.505 Y58.396 Z0.600 E0.21772
G1 X79.875 Y58.709 Z0.600 E0.21772
G1 X80.235 Y59.035 Z0.600 E0.21772
G1 X80.584 Y59.371 Z0.600 E0.21772
G1 X80.922 Y59.719 Z0.600 E0.21772
G1 X81.249 Y60.077 Z0.600 E0.21772
G1 X81.564 Y60.446 Z0.600 E0.21772
G1 X81.867 Y60.825 Z0.600 E0.21772
G1 X82.157 Y61.213 Z0.600 E0.21772
G1 X82.435 Y61.611 Z0.600 E0.21772
G1 X82.699 Y62.017 Z0.600 E0.21772
G1 X82.951 Y62.432 Z0.600 E0.21772
G1 X83.188 Y62.854 Z0.600 E0.21772
G1 X83.413 Y63.284 Z0.600 E0.21772
G1 X83.623 Y63.721 Z0.600 E0.21772
G1 X83.818 Y64.165 Z0.600 E0.21772
G1 X84.000 Y64.614 Z0.600 E0.21772
G1 X84.167 Y65.070 Z0.600 E0.21772
G1 X84.319 Y65.530 Z0.600 E0.21772
G1 X84.456 Y65.995 Z0.600 E0.21772
G1 X84.577 Y66.465 Z0.600 E0.21772
G1 X84.684 Y66.938 Z0.600 E0.21772
G1 X84.775 Y67.414 Z0.600 E0.21772
G1 X84.851 Y67.893 Z0.600 E0.21772
G1 X84.912 Y68.374 Z0.600 E0.21772
G1 X84.956 Y68.857 Z0.600 E0.21772
G1 X84.986 Y69.341 Z0.600 E0.21772
G1 X84.999 Y69.825 Z0.600 E0.21772
G1 X84.997 Y70.310 Z0.600 E0.21772
G1 X84.979 Y70.795 Z0.600 E0.21772
G1 X84.945 Y71.279 Z0.600 E0.21772
G1 X84.896 Y71.761 Z0.600 E0.21772
G1 X84.832 Y72.242 Z0.600 E0.21772
G1 E-3 F600
G92 E0

; ============================================================
; [1,2]  Z=0.6mm  speed=10mm/s  E/mm=0.4490
; Ring center: X150 Y70
; ============================================================
; Mini purge
G1 Z3.60 F6000
G1 X135.000 Y43.000 F6000
G1 Z0.600 F3000
G92 E0
G1 E3 F150
G1 X165.0 E13.4704 F600
G1 E-3 F600
G92 E0
; Ring (radial approach + overlap)
G1 Z3.60 F6000
G1 X173.000 Y70.000 F6000
G1 Z0.600 F3000
G1 E3 F300
G1 X165.000 Y70.000 E3.59209 F600
G1 X164.992 Y70.485 Z0.600 E0.21772
G1 X164.969 Y70.969 Z0.600 E0.21772
G1 X164.930 Y71.452 Z0.600 E0.21772
G1 X164.875 Y71.934 Z0.600 E0.21772
G1 X164.804 Y72.414 Z0.600 E0.21772
G1 X164.719 Y72.891 Z0.600 E0.21772
G1 X164.618 Y73.365 Z0.600 E0.21772
G1 X164.501 Y73.836 Z0.600 E0.21772
G1 X164.370 Y74.303 Z0.600 E0.21772
G1 X164.223 Y74.765 Z0.600 E0.21772
G1 X164.062 Y75.222 Z0.600 E0.21772
G1 X163.885 Y75.674 Z0.600 E0.21772
G1 X163.695 Y76.120 Z0.600 E0.21772
G1 X163.490 Y76.559 Z0.600 E0.21772
G1 X163.271 Y76.992 Z0.600 E0.21772
G1 X163.038 Y77.417 Z0.600 E0.21772
G1 X162.791 Y77.835 Z0.600 E0.21772
G1 X162.531 Y78.244 Z0.600 E0.21772
G1 X162.258 Y78.645 Z0.600 E0.21772
G1 X161.972 Y79.037 Z0.600 E0.21772
G1 X161.674 Y79.419 Z0.600 E0.21772
G1 X161.364 Y79.791 Z0.600 E0.21772
G1 X161.041 Y80.153 Z0.600 E0.21772
G1 X160.707 Y80.505 Z0.600 E0.21772
G1 X160.362 Y80.846 Z0.600 E0.21772
G1 X160.006 Y81.175 Z0.600 E0.21772
G1 X159.640 Y81.492 Z0.600 E0.21772
G1 X159.263 Y81.798 Z0.600 E0.21772
G1 X158.877 Y82.091 Z0.600 E0.21772
G1 X158.482 Y82.372 Z0.600 E0.21772
G1 X158.077 Y82.639 Z0.600 E0.21772
G1 X157.665 Y82.894 Z0.600 E0.21772
G1 X157.244 Y83.135 Z0.600 E0.21772
G1 X156.815 Y83.362 Z0.600 E0.21772
G1 X156.380 Y83.576 Z0.600 E0.21772
G1 X155.938 Y83.775 Z0.600 E0.21772
G1 X155.490 Y83.959 Z0.600 E0.21772
G1 X155.036 Y84.130 Z0.600 E0.21772
G1 X154.576 Y84.285 Z0.600 E0.21772
G1 X154.112 Y84.425 Z0.600 E0.21772
G1 X153.644 Y84.551 Z0.600 E0.21772
G1 X153.171 Y84.661 Z0.600 E0.21772
G1 X152.696 Y84.756 Z0.600 E0.21772
G1 X152.218 Y84.835 Z0.600 E0.21772
G1 X151.737 Y84.899 Z0.600 E0.21772
G1 X151.254 Y84.947 Z0.600 E0.21772
G1 X150.771 Y84.980 Z0.600 E0.21772
G1 X150.286 Y84.997 Z0.600 E0.21772
G1 X149.801 Y84.999 Z0.600 E0.21772
G1 X149.317 Y84.984 Z0.600 E0.21772
G1 X148.833 Y84.954 Z0.600 E0.21772
G1 X148.350 Y84.909 Z0.600 E0.21772
G1 X147.869 Y84.848 Z0.600 E0.21772
G1 X147.390 Y84.771 Z0.600 E0.21772
G1 X146.914 Y84.679 Z0.600 E0.21772
G1 X146.441 Y84.572 Z0.600 E0.21772
G1 X145.972 Y84.449 Z0.600 E0.21772
G1 X145.507 Y84.311 Z0.600 E0.21772
G1 X145.047 Y84.159 Z0.600 E0.21772
G1 X144.592 Y83.991 Z0.600 E0.21772
G1 X144.142 Y83.809 Z0.600 E0.21772
G1 X143.699 Y83.612 Z0.600 E0.21772
G1 X143.262 Y83.402 Z0.600 E0.21772
G1 X142.833 Y83.177 Z0.600 E0.21772
G1 X142.411 Y82.938 Z0.600 E0.21772
G1 X141.996 Y82.686 Z0.600 E0.21772
G1 X141.590 Y82.421 Z0.600 E0.21772
G1 X141.193 Y82.143 Z0.600 E0.21772
G1 X140.806 Y81.852 Z0.600 E0.21772
G1 X140.427 Y81.548 Z0.600 E0.21772
G1 X140.059 Y81.233 Z0.600 E0.21772
G1 X139.701 Y80.906 Z0.600 E0.21772
G1 X139.354 Y80.567 Z0.600 E0.21772
G1 X139.018 Y80.217 Z0.600 E0.21772
G1 X138.694 Y79.857 Z0.600 E0.21772
G1 X138.381 Y79.487 Z0.600 E0.21772
G1 X138.080 Y79.106 Z0.600 E0.21772
G1 X137.792 Y78.716 Z0.600 E0.21772
G1 X137.517 Y78.317 Z0.600 E0.21772
G1 X137.255 Y77.909 Z0.600 E0.21772
G1 X137.006 Y77.493 Z0.600 E0.21772
G1 X136.770 Y77.069 Z0.600 E0.21772
G1 X136.549 Y76.638 Z0.600 E0.21772
G1 X136.341 Y76.200 Z0.600 E0.21772
G1 X136.148 Y75.755 Z0.600 E0.21772
G1 X135.969 Y75.304 Z0.600 E0.21772
G1 X135.805 Y74.848 Z0.600 E0.21772
G1 X135.656 Y74.386 Z0.600 E0.21772
G1 X135.521 Y73.921 Z0.600 E0.21772
G1 X135.402 Y73.450 Z0.600 E0.21772
G1 X135.298 Y72.977 Z0.600 E0.21772
G1 X135.210 Y72.500 Z0.600 E0.21772
G1 X135.137 Y72.021 Z0.600 E0.21772
G1 X135.079 Y71.539 Z0.600 E0.21772
G1 X135.037 Y71.056 Z0.600 E0.21772
G1 X135.011 Y70.572 Z0.600 E0.21772
G1 X135.000 Y70.087 Z0.600 E0.21772
G1 X135.005 Y69.602 Z0.600 E0.21772
G1 X135.026 Y69.118 Z0.600 E0.21772
G1 X135.062 Y68.634 Z0.600 E0.21772
G1 X135.114 Y68.152 Z0.600 E0.21772
G1 X135.182 Y67.672 Z0.600 E0.21772
G1 X135.265 Y67.194 Z0.600 E0.21772
G1 X135.363 Y66.720 Z0.600 E0.21772
G1 X135.477 Y66.248 Z0.600 E0.21772
G1 X135.606 Y65.781 Z0.600 E0.21772
G1 X135.750 Y65.318 Z0.600 E0.21772
G1 X135.908 Y64.860 Z0.600 E0.21772
G1 X136.082 Y64.407 Z0.600 E0.21772
G1 X136.270 Y63.960 Z0.600 E0.21772
G1 X136.472 Y63.519 Z0.600 E0.21772
G1 X136.689 Y63.085 Z0.600 E0.21772
G1 X136.919 Y62.659 Z0.600 E0.21772
G1 X137.163 Y62.240 Z0.600 E0.21772
G1 X137.421 Y61.829 Z0.600 E0.21772
G1 X137.692 Y61.427 Z0.600 E0.21772
G1 X137.975 Y61.033 Z0.600 E0.21772
G1 X138.271 Y60.649 Z0.600 E0.21772
G1 X138.580 Y60.275 Z0.600 E0.21772
G1 X138.900 Y59.911 Z0.600 E0.21772
G1 X139.232 Y59.558 Z0.600 E0.21772
G1 X139.575 Y59.215 Z0.600 E0.21772
G1 X139.929 Y58.884 Z0.600 E0.21772
G1 X140.294 Y58.564 Z0.600 E0.21772
G1 X140.668 Y58.256 Z0.600 E0.21772
G1 X141.053 Y57.961 Z0.600 E0.21772
G1 X141.447 Y57.678 Z0.600 E0.21772
G1 X141.849 Y57.408 Z0.600 E0.21772
G1 X142.261 Y57.151 Z0.600 E0.21772
G1 X142.680 Y56.907 Z0.600 E0.21772
G1 X143.107 Y56.678 Z0.600 E0.21772
G1 X143.541 Y56.462 Z0.600 E0.21772
G1 X143.982 Y56.260 Z0.600 E0.21772
G1 X144.429 Y56.073 Z0.600 E0.21772
G1 X144.882 Y55.900 Z0.600 E0.21772
G1 X145.341 Y55.742 Z0.600 E0.21772
G1 X145.804 Y55.599 Z0.600 E0.21772
G1 X146.272 Y55.471 Z0.600 E0.21772
G1 X146.743 Y55.358 Z0.600 E0.21772
G1 X147.218 Y55.260 Z0.600 E0.21772
G1 X147.696 Y55.178 Z0.600 E0.21772
G1 X148.176 Y55.111 Z0.600 E0.21772
G1 X148.659 Y55.060 Z0.600 E0.21772
G1 X149.142 Y55.025 Z0.600 E0.21772
G1 X149.627 Y55.005 Z0.600 E0.21772
G1 X150.112 Y55.000 Z0.600 E0.21772
G1 X150.596 Y55.012 Z0.600 E0.21772
G1 X151.080 Y55.039 Z0.600 E0.21772
G1 X151.563 Y55.082 Z0.600 E0.21772
G1 X152.045 Y55.140 Z0.600 E0.21772
G1 X152.524 Y55.214 Z0.600 E0.21772
G1 X153.001 Y55.303 Z0.600 E0.21772
G1 X153.474 Y55.408 Z0.600 E0.21772
G1 X153.944 Y55.528 Z0.600 E0.21772
G1 X154.410 Y55.663 Z0.600 E0.21772
G1 X154.871 Y55.813 Z0.600 E0.21772
G1 X155.327 Y55.978 Z0.600 E0.21772
G1 X155.777 Y56.157 Z0.600 E0.21772
G1 X156.222 Y56.351 Z0.600 E0.21772
G1 X156.660 Y56.559 Z0.600 E0.21772
G1 X157.090 Y56.782 Z0.600 E0.21772
G1 X157.514 Y57.018 Z0.600 E0.21772
G1 X157.930 Y57.267 Z0.600 E0.21772
G1 X158.337 Y57.530 Z0.600 E0.21772
G1 X158.736 Y57.806 Z0.600 E0.21772
G1 X159.125 Y58.095 Z0.600 E0.21772
G1 X159.505 Y58.396 Z0.600 E0.21772
G1 X159.875 Y58.709 Z0.600 E0.21772
G1 X160.235 Y59.035 Z0.600 E0.21772
G1 X160.584 Y59.371 Z0.600 E0.21772
G1 X160.922 Y59.719 Z0.600 E0.21772
G1 X161.249 Y60.077 Z0.600 E0.21772
G1 X161.564 Y60.446 Z0.600 E0.21772
G1 X161.867 Y60.825 Z0.600 E0.21772
G1 X162.157 Y61.213 Z0.600 E0.21772
G1 X162.435 Y61.611 Z0.600 E0.21772
G1 X162.699 Y62.017 Z0.600 E0.21772
G1 X162.951 Y62.432 Z0.600 E0.21772
G1 X163.188 Y62.854 Z0.600 E0.21772
G1 X163.413 Y63.284 Z0.600 E0.21772
G1 X163.623 Y63.721 Z0.600 E0.21772
G1 X163.818 Y64.165 Z0.600 E0.21772
G1 X164.000 Y64.614 Z0.600 E0.21772
G1 X164.167 Y65.070 Z0.600 E0.21772
G1 X164.319 Y65.530 Z0.600 E0.21772
G1 X164.456 Y65.995 Z0.600 E0.21772
G1 X164.577 Y66.465 Z0.600 E0.21772
G1 X164.684 Y66.938 Z0.600 E0.21772
G1 X164.775 Y67.414 Z0.600 E0.21772
G1 X164.851 Y67.893 Z0.600 E0.21772
G1 X164.912 Y68.374 Z0.600 E0.21772
G1 X164.956 Y68.857 Z0.600 E0.21772
G1 X164.986 Y69.341 Z0.600 E0.21772
G1 X164.999 Y69.825 Z0.600 E0.21772
G1 X164.997 Y70.310 Z0.600 E0.21772
G1 X164.979 Y70.795 Z0.600 E0.21772
G1 X164.945 Y71.279 Z0.600 E0.21772
G1 X164.896 Y71.761 Z0.600 E0.21772
G1 X164.832 Y72.242 Z0.600 E0.21772
G1 E-3 F600
G92 E0

; ============================================================
; [1,3]  Z=0.6mm  speed=15mm/s  E/mm=0.4490
; Ring center: X230 Y70
; ============================================================
; Mini purge
G1 Z3.60 F6000
G1 X215.000 Y43.000 F6000
G1 Z0.600 F3000
G92 E0
G1 E3 F150
G1 X245.0 E13.4704 F900
G1 E-3 F600
G92 E0
; Ring (radial approach + overlap)
G1 Z3.60 F6000
G1 X253.000 Y70.000 F6000
G1 Z0.600 F3000
G1 E3 F300
G1 X245.000 Y70.000 E3.59209 F900
G1 X244.992 Y70.485 Z0.600 E0.21772
G1 X244.969 Y70.969 Z0.600 E0.21772
G1 X244.930 Y71.452 Z0.600 E0.21772
G1 X244.875 Y71.934 Z0.600 E0.21772
G1 X244.804 Y72.414 Z0.600 E0.21772
G1 X244.719 Y72.891 Z0.600 E0.21772
G1 X244.618 Y73.365 Z0.600 E0.21772
G1 X244.501 Y73.836 Z0.600 E0.21772
G1 X244.370 Y74.303 Z0.600 E0.21772
G1 X244.223 Y74.765 Z0.600 E0.21772
G1 X244.062 Y75.222 Z0.600 E0.21772
G1 X243.885 Y75.674 Z0.600 E0.21772
G1 X243.695 Y76.120 Z0.600 E0.21772
G1 X243.490 Y76.559 Z0.600 E0.21772
G1 X243.271 Y76.992 Z0.600 E0.21772
G1 X243.038 Y77.417 Z0.600 E0.21772
G1 X242.791 Y77.835 Z0.600 E0.21772
G1 X242.531 Y78.244 Z0.600 E0.21772
G1 X242.258 Y78.645 Z0.600 E0.21772
G1 X241.972 Y79.037 Z0.600 E0.21772
G1 X241.674 Y79.419 Z0.600 E0.21772
G1 X241.364 Y79.791 Z0.600 E0.21772
G1 X241.041 Y80.153 Z0.600 E0.21772
G1 X240.707 Y80.505 Z0.600 E0.21772
G1 X240.362 Y80.846 Z0.600 E0.21772
G1 X240.006 Y81.175 Z0.600 E0.21772
G1 X239.640 Y81.492 Z0.600 E0.21772
G1 X239.263 Y81.798 Z0.600 E0.21772
G1 X238.877 Y82.091 Z0.600 E0.21772
G1 X238.482 Y82.372 Z0.600 E0.21772
G1 X238.077 Y82.639 Z0.600 E0.21772
G1 X237.665 Y82.894 Z0.600 E0.21772
G1 X237.244 Y83.135 Z0.600 E0.21772
G1 X236.815 Y83.362 Z0.600 E0.21772
G1 X236.380 Y83.576 Z0.600 E0.21772
G1 X235.938 Y83.775 Z0.600 E0.21772
G1 X235.490 Y83.959 Z0.600 E0.21772
G1 X235.036 Y84.130 Z0.600 E0.21772
G1 X234.576 Y84.285 Z0.600 E0.21772
G1 X234.112 Y84.425 Z0.600 E0.21772
G1 X233.644 Y84.551 Z0.600 E0.21772
G1 X233.171 Y84.661 Z0.600 E0.21772
G1 X232.696 Y84.756 Z0.600 E0.21772
G1 X232.218 Y84.835 Z0.600 E0.21772
G1 X231.737 Y84.899 Z0.600 E0.21772
G1 X231.254 Y84.947 Z0.600 E0.21772
G1 X230.771 Y84.980 Z0.600 E0.21772
G1 X230.286 Y84.997 Z0.600 E0.21772
G1 X229.801 Y84.999 Z0.600 E0.21772
G1 X229.317 Y84.984 Z0.600 E0.21772
G1 X228.833 Y84.954 Z0.600 E0.21772
G1 X228.350 Y84.909 Z0.600 E0.21772
G1 X227.869 Y84.848 Z0.600 E0.21772
G1 X227.390 Y84.771 Z0.600 E0.21772
G1 X226.914 Y84.679 Z0.600 E0.21772
G1 X226.441 Y84.572 Z0.600 E0.21772
G1 X225.972 Y84.449 Z0.600 E0.21772
G1 X225.507 Y84.311 Z0.600 E0.21772
G1 X225.047 Y84.159 Z0.600 E0.21772
G1 X224.592 Y83.991 Z0.600 E0.21772
G1 X224.142 Y83.809 Z0.600 E0.21772
G1 X223.699 Y83.612 Z0.600 E0.21772
G1 X223.262 Y83.402 Z0.600 E0.21772
G1 X222.833 Y83.177 Z0.600 E0.21772
G1 X222.411 Y82.938 Z0.600 E0.21772
G1 X221.996 Y82.686 Z0.600 E0.21772
G1 X221.590 Y82.421 Z0.600 E0.21772
G1 X221.193 Y82.143 Z0.600 E0.21772
G1 X220.806 Y81.852 Z0.600 E0.21772
G1 X220.427 Y81.548 Z0.600 E0.21772
G1 X220.059 Y81.233 Z0.600 E0.21772
G1 X219.701 Y80.906 Z0.600 E0.21772
G1 X219.354 Y80.567 Z0.600 E0.21772
G1 X219.018 Y80.217 Z0.600 E0.21772
G1 X218.694 Y79.857 Z0.600 E0.21772
G1 X218.381 Y79.487 Z0.600 E0.21772
G1 X218.080 Y79.106 Z0.600 E0.21772
G1 X217.792 Y78.716 Z0.600 E0.21772
G1 X217.517 Y78.317 Z0.600 E0.21772
G1 X217.255 Y77.909 Z0.600 E0.21772
G1 X217.006 Y77.493 Z0.600 E0.21772
G1 X216.770 Y77.069 Z0.600 E0.21772
G1 X216.549 Y76.638 Z0.600 E0.21772
G1 X216.341 Y76.200 Z0.600 E0.21772
G1 X216.148 Y75.755 Z0.600 E0.21772
G1 X215.969 Y75.304 Z0.600 E0.21772
G1 X215.805 Y74.848 Z0.600 E0.21772
G1 X215.656 Y74.386 Z0.600 E0.21772
G1 X215.521 Y73.921 Z0.600 E0.21772
G1 X215.402 Y73.450 Z0.600 E0.21772
G1 X215.298 Y72.977 Z0.600 E0.21772
G1 X215.210 Y72.500 Z0.600 E0.21772
G1 X215.137 Y72.021 Z0.600 E0.21772
G1 X215.079 Y71.539 Z0.600 E0.21772
G1 X215.037 Y71.056 Z0.600 E0.21772
G1 X215.011 Y70.572 Z0.600 E0.21772
G1 X215.000 Y70.087 Z0.600 E0.21772
G1 X215.005 Y69.602 Z0.600 E0.21772
G1 X215.026 Y69.118 Z0.600 E0.21772
G1 X215.062 Y68.634 Z0.600 E0.21772
G1 X215.114 Y68.152 Z0.600 E0.21772
G1 X215.182 Y67.672 Z0.600 E0.21772
G1 X215.265 Y67.194 Z0.600 E0.21772
G1 X215.363 Y66.720 Z0.600 E0.21772
G1 X215.477 Y66.248 Z0.600 E0.21772
G1 X215.606 Y65.781 Z0.600 E0.21772
G1 X215.750 Y65.318 Z0.600 E0.21772
G1 X215.908 Y64.860 Z0.600 E0.21772
G1 X216.082 Y64.407 Z0.600 E0.21772
G1 X216.270 Y63.960 Z0.600 E0.21772
G1 X216.472 Y63.519 Z0.600 E0.21772
G1 X216.689 Y63.085 Z0.600 E0.21772
G1 X216.919 Y62.659 Z0.600 E0.21772
G1 X217.163 Y62.240 Z0.600 E0.21772
G1 X217.421 Y61.829 Z0.600 E0.21772
G1 X217.692 Y61.427 Z0.600 E0.21772
G1 X217.975 Y61.033 Z0.600 E0.21772
G1 X218.271 Y60.649 Z0.600 E0.21772
G1 X218.580 Y60.275 Z0.600 E0.21772
G1 X218.900 Y59.911 Z0.600 E0.21772
G1 X219.232 Y59.558 Z0.600 E0.21772
G1 X219.575 Y59.215 Z0.600 E0.21772
G1 X219.929 Y58.884 Z0.600 E0.21772
G1 X220.294 Y58.564 Z0.600 E0.21772
G1 X220.668 Y58.256 Z0.600 E0.21772
G1 X221.053 Y57.961 Z0.600 E0.21772
G1 X221.447 Y57.678 Z0.600 E0.21772
G1 X221.849 Y57.408 Z0.600 E0.21772
G1 X222.261 Y57.151 Z0.600 E0.21772
G1 X222.680 Y56.907 Z0.600 E0.21772
G1 X223.107 Y56.678 Z0.600 E0.21772
G1 X223.541 Y56.462 Z0.600 E0.21772
G1 X223.982 Y56.260 Z0.600 E0.21772
G1 X224.429 Y56.073 Z0.600 E0.21772
G1 X224.882 Y55.900 Z0.600 E0.21772
G1 X225.341 Y55.742 Z0.600 E0.21772
G1 X225.804 Y55.599 Z0.600 E0.21772
G1 X226.272 Y55.471 Z0.600 E0.21772
G1 X226.743 Y55.358 Z0.600 E0.21772
G1 X227.218 Y55.260 Z0.600 E0.21772
G1 X227.696 Y55.178 Z0.600 E0.21772
G1 X228.176 Y55.111 Z0.600 E0.21772
G1 X228.659 Y55.060 Z0.600 E0.21772
G1 X229.142 Y55.025 Z0.600 E0.21772
G1 X229.627 Y55.005 Z0.600 E0.21772
G1 X230.112 Y55.000 Z0.600 E0.21772
G1 X230.596 Y55.012 Z0.600 E0.21772
G1 X231.080 Y55.039 Z0.600 E0.21772
G1 X231.563 Y55.082 Z0.600 E0.21772
G1 X232.045 Y55.140 Z0.600 E0.21772
G1 X232.524 Y55.214 Z0.600 E0.21772
G1 X233.001 Y55.303 Z0.600 E0.21772
G1 X233.474 Y55.408 Z0.600 E0.21772
G1 X233.944 Y55.528 Z0.600 E0.21772
G1 X234.410 Y55.663 Z0.600 E0.21772
G1 X234.871 Y55.813 Z0.600 E0.21772
G1 X235.327 Y55.978 Z0.600 E0.21772
G1 X235.777 Y56.157 Z0.600 E0.21772
G1 X236.222 Y56.351 Z0.600 E0.21772
G1 X236.660 Y56.559 Z0.600 E0.21772
G1 X237.090 Y56.782 Z0.600 E0.21772
G1 X237.514 Y57.018 Z0.600 E0.21772
G1 X237.930 Y57.267 Z0.600 E0.21772
G1 X238.337 Y57.530 Z0.600 E0.21772
G1 X238.736 Y57.806 Z0.600 E0.21772
G1 X239.125 Y58.095 Z0.600 E0.21772
G1 X239.505 Y58.396 Z0.600 E0.21772
G1 X239.875 Y58.709 Z0.600 E0.21772
G1 X240.235 Y59.035 Z0.600 E0.21772
G1 X240.584 Y59.371 Z0.600 E0.21772
G1 X240.922 Y59.719 Z0.600 E0.21772
G1 X241.249 Y60.077 Z0.600 E0.21772
G1 X241.564 Y60.446 Z0.600 E0.21772
G1 X241.867 Y60.825 Z0.600 E0.21772
G1 X242.157 Y61.213 Z0.600 E0.21772
G1 X242.435 Y61.611 Z0.600 E0.21772
G1 X242.699 Y62.017 Z0.600 E0.21772
G1 X242.951 Y62.432 Z0.600 E0.21772
G1 X243.188 Y62.854 Z0.600 E0.21772
G1 X243.413 Y63.284 Z0.600 E0.21772
G1 X243.623 Y63.721 Z0.600 E0.21772
G1 X243.818 Y64.165 Z0.600 E0.21772
G1 X244.000 Y64.614 Z0.600 E0.21772
G1 X244.167 Y65.070 Z0.600 E0.21772
G1 X244.319 Y65.530 Z0.600 E0.21772
G1 X244.456 Y65.995 Z0.600 E0.21772
G1 X244.577 Y66.465 Z0.600 E0.21772
G1 X244.684 Y66.938 Z0.600 E0.21772
G1 X244.775 Y67.414 Z0.600 E0.21772
G1 X244.851 Y67.893 Z0.600 E0.21772
G1 X244.912 Y68.374 Z0.600 E0.21772
G1 X244.956 Y68.857 Z0.600 E0.21772
G1 X244.986 Y69.341 Z0.600 E0.21772
G1 X244.999 Y69.825 Z0.600 E0.21772
G1 X244.997 Y70.310 Z0.600 E0.21772
G1 X244.979 Y70.795 Z0.600 E0.21772
G1 X244.945 Y71.279 Z0.600 E0.21772
G1 X244.896 Y71.761 Z0.600 E0.21772
G1 X244.832 Y72.242 Z0.600 E0.21772
G1 E-3 F600
G92 E0

; ============================================================
; [2,1]  Z=0.8mm  speed=5mm/s  E/mm=0.5987
; Ring center: X70 Y160
; ============================================================
; Mini purge
G1 Z3.80 F6000
G1 X55.000 Y133.000 F6000
G1 Z0.800 F3000
G92 E0
G1 E3 F150
G1 X85.0 E17.9605 F300
G1 E-3 F600
G92 E0
; Ring (radial approach + overlap)
G1 Z3.80 F6000
G1 X93.000 Y160.000 F6000
G1 Z0.800 F3000
G1 E3 F300
G1 X85.000 Y160.000 E4.78946 F300
G1 X84.992 Y160.485 Z0.800 E0.29030
G1 X84.969 Y160.969 Z0.800 E0.29030
G1 X84.930 Y161.452 Z0.800 E0.29030
G1 X84.875 Y161.934 Z0.800 E0.29030
G1 X84.804 Y162.414 Z0.800 E0.29030
G1 X84.719 Y162.891 Z0.800 E0.29030
G1 X84.618 Y163.365 Z0.800 E0.29030
G1 X84.501 Y163.836 Z0.800 E0.29030
G1 X84.370 Y164.303 Z0.800 E0.29030
G1 X84.223 Y164.765 Z0.800 E0.29030
G1 X84.062 Y165.222 Z0.800 E0.29030
G1 X83.885 Y165.674 Z0.800 E0.29030
G1 X83.695 Y166.120 Z0.800 E0.29030
G1 X83.490 Y166.559 Z0.800 E0.29030
G1 X83.271 Y166.992 Z0.800 E0.29030
G1 X83.038 Y167.417 Z0.800 E0.29030
G1 X82.791 Y167.835 Z0.800 E0.29030
G1 X82.531 Y168.244 Z0.800 E0.29030
G1 X82.258 Y168.645 Z0.800 E0.29030
G1 X81.972 Y169.037 Z0.800 E0.29030
G1 X81.674 Y169.419 Z0.800 E0.29030
G1 X81.364 Y169.791 Z0.800 E0.29030
G1 X81.041 Y170.153 Z0.800 E0.29030
G1 X80.707 Y170.505 Z0.800 E0.29030
G1 X80.362 Y170.846 Z0.800 E0.29030
G1 X80.006 Y171.175 Z0.800 E0.29030
G1 X79.640 Y171.492 Z0.800 E0.29030
G1 X79.263 Y171.798 Z0.800 E0.29030
G1 X78.877 Y172.091 Z0.800 E0.29030
G1 X78.482 Y172.372 Z0.800 E0.29030
G1 X78.077 Y172.639 Z0.800 E0.29030
G1 X77.665 Y172.894 Z0.800 E0.29030
G1 X77.244 Y173.135 Z0.800 E0.29030
G1 X76.815 Y173.362 Z0.800 E0.29030
G1 X76.380 Y173.576 Z0.800 E0.29030
G1 X75.938 Y173.775 Z0.800 E0.29030
G1 X75.490 Y173.959 Z0.800 E0.29030
G1 X75.036 Y174.130 Z0.800 E0.29030
G1 X74.576 Y174.285 Z0.800 E0.29030
G1 X74.112 Y174.425 Z0.800 E0.29030
G1 X73.644 Y174.551 Z0.800 E0.29030
G1 X73.171 Y174.661 Z0.800 E0.29030
G1 X72.696 Y174.756 Z0.800 E0.29030
G1 X72.218 Y174.835 Z0.800 E0.29030
G1 X71.737 Y174.899 Z0.800 E0.29030
G1 X71.254 Y174.947 Z0.800 E0.29030
G1 X70.771 Y174.980 Z0.800 E0.29030
G1 X70.286 Y174.997 Z0.800 E0.29030
G1 X69.801 Y174.999 Z0.800 E0.29030
G1 X69.317 Y174.984 Z0.800 E0.29030
G1 X68.833 Y174.954 Z0.800 E0.29030
G1 X68.350 Y174.909 Z0.800 E0.29030
G1 X67.869 Y174.848 Z0.800 E0.29030
G1 X67.390 Y174.771 Z0.800 E0.29030
G1 X66.914 Y174.679 Z0.800 E0.29030
G1 X66.441 Y174.572 Z0.800 E0.29030
G1 X65.972 Y174.449 Z0.800 E0.29030
G1 X65.507 Y174.311 Z0.800 E0.29030
G1 X65.047 Y174.159 Z0.800 E0.29030
G1 X64.592 Y173.991 Z0.800 E0.29030
G1 X64.142 Y173.809 Z0.800 E0.29030
G1 X63.699 Y173.612 Z0.800 E0.29030
G1 X63.262 Y173.402 Z0.800 E0.29030
G1 X62.833 Y173.177 Z0.800 E0.29030
G1 X62.411 Y172.938 Z0.800 E0.29030
G1 X61.996 Y172.686 Z0.800 E0.29030
G1 X61.590 Y172.421 Z0.800 E0.29030
G1 X61.193 Y172.143 Z0.800 E0.29030
G1 X60.806 Y171.852 Z0.800 E0.29030
G1 X60.427 Y171.548 Z0.800 E0.29030
G1 X60.059 Y171.233 Z0.800 E0.29030
G1 X59.701 Y170.906 Z0.800 E0.29030
G1 X59.354 Y170.567 Z0.800 E0.29030
G1 X59.018 Y170.217 Z0.800 E0.29030
G1 X58.694 Y169.857 Z0.800 E0.29030
G1 X58.381 Y169.487 Z0.800 E0.29030
G1 X58.080 Y169.106 Z0.800 E0.29030
G1 X57.792 Y168.716 Z0.800 E0.29030
G1 X57.517 Y168.317 Z0.800 E0.29030
G1 X57.255 Y167.909 Z0.800 E0.29030
G1 X57.006 Y167.493 Z0.800 E0.29030
G1 X56.770 Y167.069 Z0.800 E0.29030
G1 X56.549 Y166.638 Z0.800 E0.29030
G1 X56.341 Y166.200 Z0.800 E0.29030
G1 X56.148 Y165.755 Z0.800 E0.29030
G1 X55.969 Y165.304 Z0.800 E0.29030
G1 X55.805 Y164.848 Z0.800 E0.29030
G1 X55.656 Y164.386 Z0.800 E0.29030
G1 X55.521 Y163.921 Z0.800 E0.29030
G1 X55.402 Y163.450 Z0.800 E0.29030
G1 X55.298 Y162.977 Z0.800 E0.29030
G1 X55.210 Y162.500 Z0.800 E0.29030
G1 X55.137 Y162.021 Z0.800 E0.29030
G1 X55.079 Y161.539 Z0.800 E0.29030
G1 X55.037 Y161.056 Z0.800 E0.29030
G1 X55.011 Y160.572 Z0.800 E0.29030
G1 X55.000 Y160.087 Z0.800 E0.29030
G1 X55.005 Y159.602 Z0.800 E0.29030
G1 X55.026 Y159.118 Z0.800 E0.29030
G1 X55.062 Y158.634 Z0.800 E0.29030
G1 X55.114 Y158.152 Z0.800 E0.29030
G1 X55.182 Y157.672 Z0.800 E0.29030
G1 X55.265 Y157.194 Z0.800 E0.29030
G1 X55.363 Y156.720 Z0.800 E0.29030
G1 X55.477 Y156.248 Z0.800 E0.29030
G1 X55.606 Y155.781 Z0.800 E0.29030
G1 X55.750 Y155.318 Z0.800 E0.29030
G1 X55.908 Y154.860 Z0.800 E0.29030
G1 X56.082 Y154.407 Z0.800 E0.29030
G1 X56.270 Y153.960 Z0.800 E0.29030
G1 X56.472 Y153.519 Z0.800 E0.29030
G1 X56.689 Y153.085 Z0.800 E0.29030
G1 X56.919 Y152.659 Z0.800 E0.29030
G1 X57.163 Y152.240 Z0.800 E0.29030
G1 X57.421 Y151.829 Z0.800 E0.29030
G1 X57.692 Y151.427 Z0.800 E0.29030
G1 X57.975 Y151.033 Z0.800 E0.29030
G1 X58.271 Y150.649 Z0.800 E0.29030
G1 X58.580 Y150.275 Z0.800 E0.29030
G1 X58.900 Y149.911 Z0.800 E0.29030
G1 X59.232 Y149.558 Z0.800 E0.29030
G1 X59.575 Y149.215 Z0.800 E0.29030
G1 X59.929 Y148.884 Z0.800 E0.29030
G1 X60.294 Y148.564 Z0.800 E0.29030
G1 X60.668 Y148.256 Z0.800 E0.29030
G1 X61.053 Y147.961 Z0.800 E0.29030
G1 X61.447 Y147.678 Z0.800 E0.29030
G1 X61.849 Y147.408 Z0.800 E0.29030
G1 X62.261 Y147.151 Z0.800 E0.29030
G1 X62.680 Y146.907 Z0.800 E0.29030
G1 X63.107 Y146.678 Z0.800 E0.29030
G1 X63.541 Y146.462 Z0.800 E0.29030
G1 X63.982 Y146.260 Z0.800 E0.29030
G1 X64.429 Y146.073 Z0.800 E0.29030
G1 X64.882 Y145.900 Z0.800 E0.29030
G1 X65.341 Y145.742 Z0.800 E0.29030
G1 X65.804 Y145.599 Z0.800 E0.29030
G1 X66.272 Y145.471 Z0.800 E0.29030
G1 X66.743 Y145.358 Z0.800 E0.29030
G1 X67.218 Y145.260 Z0.800 E0.29030
G1 X67.696 Y145.178 Z0.800 E0.29030
G1 X68.176 Y145.111 Z0.800 E0.29030
G1 X68.659 Y145.060 Z0.800 E0.29030
G1 X69.142 Y145.025 Z0.800 E0.29030
G1 X69.627 Y145.005 Z0.800 E0.29030
G1 X70.112 Y145.000 Z0.800 E0.29030
G1 X70.596 Y145.012 Z0.800 E0.29030
G1 X71.080 Y145.039 Z0.800 E0.29030
G1 X71.563 Y145.082 Z0.800 E0.29030
G1 X72.045 Y145.140 Z0.800 E0.29030
G1 X72.524 Y145.214 Z0.800 E0.29030
G1 X73.001 Y145.303 Z0.800 E0.29030
G1 X73.474 Y145.408 Z0.800 E0.29030
G1 X73.944 Y145.528 Z0.800 E0.29030
G1 X74.410 Y145.663 Z0.800 E0.29030
G1 X74.871 Y145.813 Z0.800 E0.29030
G1 X75.327 Y145.978 Z0.800 E0.29030
G1 X75.777 Y146.157 Z0.800 E0.29030
G1 X76.222 Y146.351 Z0.800 E0.29030
G1 X76.660 Y146.559 Z0.800 E0.29030
G1 X77.090 Y146.782 Z0.800 E0.29030
G1 X77.514 Y147.018 Z0.800 E0.29030
G1 X77.930 Y147.267 Z0.800 E0.29030
G1 X78.337 Y147.530 Z0.800 E0.29030
G1 X78.736 Y147.806 Z0.800 E0.29030
G1 X79.125 Y148.095 Z0.800 E0.29030
G1 X79.505 Y148.396 Z0.800 E0.29030
G1 X79.875 Y148.709 Z0.800 E0.29030
G1 X80.235 Y149.035 Z0.800 E0.29030
G1 X80.584 Y149.371 Z0.800 E0.29030
G1 X80.922 Y149.719 Z0.800 E0.29030
G1 X81.249 Y150.077 Z0.800 E0.29030
G1 X81.564 Y150.446 Z0.800 E0.29030
G1 X81.867 Y150.825 Z0.800 E0.29030
G1 X82.157 Y151.213 Z0.800 E0.29030
G1 X82.435 Y151.611 Z0.800 E0.29030
G1 X82.699 Y152.017 Z0.800 E0.29030
G1 X82.951 Y152.432 Z0.800 E0.29030
G1 X83.188 Y152.854 Z0.800 E0.29030
G1 X83.413 Y153.284 Z0.800 E0.29030
G1 X83.623 Y153.721 Z0.800 E0.29030
G1 X83.818 Y154.165 Z0.800 E0.29030
G1 X84.000 Y154.614 Z0.800 E0.29030
G1 X84.167 Y155.070 Z0.800 E0.29030
G1 X84.319 Y155.530 Z0.800 E0.29030
G1 X84.456 Y155.995 Z0.800 E0.29030
G1 X84.577 Y156.465 Z0.800 E0.29030
G1 X84.684 Y156.938 Z0.800 E0.29030
G1 X84.775 Y157.414 Z0.800 E0.29030
G1 X84.851 Y157.893 Z0.800 E0.29030
G1 X84.912 Y158.374 Z0.800 E0.29030
G1 X84.956 Y158.857 Z0.800 E0.29030
G1 X84.986 Y159.341 Z0.800 E0.29030
G1 X84.999 Y159.825 Z0.800 E0.29030
G1 X84.997 Y160.310 Z0.800 E0.29030
G1 X84.979 Y160.795 Z0.800 E0.29030
G1 X84.945 Y161.279 Z0.800 E0.29030
G1 X84.896 Y161.761 Z0.800 E0.29030
G1 X84.832 Y162.242 Z0.800 E0.29030
G1 E-3 F600
G92 E0

; ============================================================
; [2,2]  Z=0.8mm  speed=10mm/s  E/mm=0.5987
; Ring center: X150 Y160
; ============================================================
; Mini purge
G1 Z3.80 F6000
G1 X135.000 Y133.000 F6000
G1 Z0.800 F3000
G92 E0
G1 E3 F150
G1 X165.0 E17.9605 F600
G1 E-3 F600
G92 E0
; Ring (radial approach + overlap)
G1 Z3.80 F6000
G1 X173.000 Y160.000 F6000
G1 Z0.800 F3000
G1 E3 F300
G1 X165.000 Y160.000 E4.78946 F600
G1 X164.992 Y160.485 Z0.800 E0.29030
G1 X164.969 Y160.969 Z0.800 E0.29030
G1 X164.930 Y161.452 Z0.800 E0.29030
G1 X164.875 Y161.934 Z0.800 E0.29030
G1 X164.804 Y162.414 Z0.800 E0.29030
G1 X164.719 Y162.891 Z0.800 E0.29030
G1 X164.618 Y163.365 Z0.800 E0.29030
G1 X164.501 Y163.836 Z0.800 E0.29030
G1 X164.370 Y164.303 Z0.800 E0.29030
G1 X164.223 Y164.765 Z0.800 E0.29030
G1 X164.062 Y165.222 Z0.800 E0.29030
G1 X163.885 Y165.674 Z0.800 E0.29030
G1 X163.695 Y166.120 Z0.800 E0.29030
G1 X163.490 Y166.559 Z0.800 E0.29030
G1 X163.271 Y166.992 Z0.800 E0.29030
G1 X163.038 Y167.417 Z0.800 E0.29030
G1 X162.791 Y167.835 Z0.800 E0.29030
G1 X162.531 Y168.244 Z0.800 E0.29030
G1 X162.258 Y168.645 Z0.800 E0.29030
G1 X161.972 Y169.037 Z0.800 E0.29030
G1 X161.674 Y169.419 Z0.800 E0.29030
G1 X161.364 Y169.791 Z0.800 E0.29030
G1 X161.041 Y170.153 Z0.800 E0.29030
G1 X160.707 Y170.505 Z0.800 E0.29030
G1 X160.362 Y170.846 Z0.800 E0.29030
G1 X160.006 Y171.175 Z0.800 E0.29030
G1 X159.640 Y171.492 Z0.800 E0.29030
G1 X159.263 Y171.798 Z0.800 E0.29030
G1 X158.877 Y172.091 Z0.800 E0.29030
G1 X158.482 Y172.372 Z0.800 E0.29030
G1 X158.077 Y172.639 Z0.800 E0.29030
G1 X157.665 Y172.894 Z0.800 E0.29030
G1 X157.244 Y173.135 Z0.800 E0.29030
G1 X156.815 Y173.362 Z0.800 E0.29030
G1 X156.380 Y173.576 Z0.800 E0.29030
G1 X155.938 Y173.775 Z0.800 E0.29030
G1 X155.490 Y173.959 Z0.800 E0.29030
G1 X155.036 Y174.130 Z0.800 E0.29030
G1 X154.576 Y174.285 Z0.800 E0.29030
G1 X154.112 Y174.425 Z0.800 E0.29030
G1 X153.644 Y174.551 Z0.800 E0.29030
G1 X153.171 Y174.661 Z0.800 E0.29030
G1 X152.696 Y174.756 Z0.800 E0.29030
G1 X152.218 Y174.835 Z0.800 E0.29030
G1 X151.737 Y174.899 Z0.800 E0.29030
G1 X151.254 Y174.947 Z0.800 E0.29030
G1 X150.771 Y174.980 Z0.800 E0.29030
G1 X150.286 Y174.997 Z0.800 E0.29030
G1 X149.801 Y174.999 Z0.800 E0.29030
G1 X149.317 Y174.984 Z0.800 E0.29030
G1 X148.833 Y174.954 Z0.800 E0.29030
G1 X148.350 Y174.909 Z0.800 E0.29030
G1 X147.869 Y174.848 Z0.800 E0.29030
G1 X147.390 Y174.771 Z0.800 E0.29030
G1 X146.914 Y174.679 Z0.800 E0.29030
G1 X146.441 Y174.572 Z0.800 E0.29030
G1 X145.972 Y174.449 Z0.800 E0.29030
G1 X145.507 Y174.311 Z0.800 E0.29030
G1 X145.047 Y174.159 Z0.800 E0.29030
G1 X144.592 Y173.991 Z0.800 E0.29030
G1 X144.142 Y173.809 Z0.800 E0.29030
G1 X143.699 Y173.612 Z0.800 E0.29030
G1 X143.262 Y173.402 Z0.800 E0.29030
G1 X142.833 Y173.177 Z0.800 E0.29030
G1 X142.411 Y172.938 Z0.800 E0.29030
G1 X141.996 Y172.686 Z0.800 E0.29030
G1 X141.590 Y172.421 Z0.800 E0.29030
G1 X141.193 Y172.143 Z0.800 E0.29030
G1 X140.806 Y171.852 Z0.800 E0.29030
G1 X140.427 Y171.548 Z0.800 E0.29030
G1 X140.059 Y171.233 Z0.800 E0.29030
G1 X139.701 Y170.906 Z0.800 E0.29030
G1 X139.354 Y170.567 Z0.800 E0.29030
G1 X139.018 Y170.217 Z0.800 E0.29030
G1 X138.694 Y169.857 Z0.800 E0.29030
G1 X138.381 Y169.487 Z0.800 E0.29030
G1 X138.080 Y169.106 Z0.800 E0.29030
G1 X137.792 Y168.716 Z0.800 E0.29030
G1 X137.517 Y168.317 Z0.800 E0.29030
G1 X137.255 Y167.909 Z0.800 E0.29030
G1 X137.006 Y167.493 Z0.800 E0.29030
G1 X136.770 Y167.069 Z0.800 E0.29030
G1 X136.549 Y166.638 Z0.800 E0.29030
G1 X136.341 Y166.200 Z0.800 E0.29030
G1 X136.148 Y165.755 Z0.800 E0.29030
G1 X135.969 Y165.304 Z0.800 E0.29030
G1 X135.805 Y164.848 Z0.800 E0.29030
G1 X135.656 Y164.386 Z0.800 E0.29030
G1 X135.521 Y163.921 Z0.800 E0.29030
G1 X135.402 Y163.450 Z0.800 E0.29030
G1 X135.298 Y162.977 Z0.800 E0.29030
G1 X135.210 Y162.500 Z0.800 E0.29030
G1 X135.137 Y162.021 Z0.800 E0.29030
G1 X135.079 Y161.539 Z0.800 E0.29030
G1 X135.037 Y161.056 Z0.800 E0.29030
G1 X135.011 Y160.572 Z0.800 E0.29030
G1 X135.000 Y160.087 Z0.800 E0.29030
G1 X135.005 Y159.602 Z0.800 E0.29030
G1 X135.026 Y159.118 Z0.800 E0.29030
G1 X135.062 Y158.634 Z0.800 E0.29030
G1 X135.114 Y158.152 Z0.800 E0.29030
G1 X135.182 Y157.672 Z0.800 E0.29030
G1 X135.265 Y157.194 Z0.800 E0.29030
G1 X135.363 Y156.720 Z0.800 E0.29030
G1 X135.477 Y156.248 Z0.800 E0.29030
G1 X135.606 Y155.781 Z0.800 E0.29030
G1 X135.750 Y155.318 Z0.800 E0.29030
G1 X135.908 Y154.860 Z0.800 E0.29030
G1 X136.082 Y154.407 Z0.800 E0.29030
G1 X136.270 Y153.960 Z0.800 E0.29030
G1 X136.472 Y153.519 Z0.800 E0.29030
G1 X136.689 Y153.085 Z0.800 E0.29030
G1 X136.919 Y152.659 Z0.800 E0.29030
G1 X137.163 Y152.240 Z0.800 E0.29030
G1 X137.421 Y151.829 Z0.800 E0.29030
G1 X137.692 Y151.427 Z0.800 E0.29030
G1 X137.975 Y151.033 Z0.800 E0.29030
G1 X138.271 Y150.649 Z0.800 E0.29030
G1 X138.580 Y150.275 Z0.800 E0.29030
G1 X138.900 Y149.911 Z0.800 E0.29030
G1 X139.232 Y149.558 Z0.800 E0.29030
G1 X139.575 Y149.215 Z0.800 E0.29030
G1 X139.929 Y148.884 Z0.800 E0.29030
G1 X140.294 Y148.564 Z0.800 E0.29030
G1 X140.668 Y148.256 Z0.800 E0.29030
G1 X141.053 Y147.961 Z0.800 E0.29030
G1 X141.447 Y147.678 Z0.800 E0.29030
G1 X141.849 Y147.408 Z0.800 E0.29030
G1 X142.261 Y147.151 Z0.800 E0.29030
G1 X142.680 Y146.907 Z0.800 E0.29030
G1 X143.107 Y146.678 Z0.800 E0.29030
G1 X143.541 Y146.462 Z0.800 E0.29030
G1 X143.982 Y146.260 Z0.800 E0.29030
G1 X144.429 Y146.073 Z0.800 E0.29030
G1 X144.882 Y145.900 Z0.800 E0.29030
G1 X145.341 Y145.742 Z0.800 E0.29030
G1 X145.804 Y145.599 Z0.800 E0.29030
G1 X146.272 Y145.471 Z0.800 E0.29030
G1 X146.743 Y145.358 Z0.800 E0.29030
G1 X147.218 Y145.260 Z0.800 E0.29030
G1 X147.696 Y145.178 Z0.800 E0.29030
G1 X148.176 Y145.111 Z0.800 E0.29030
G1 X148.659 Y145.060 Z0.800 E0.29030
G1 X149.142 Y145.025 Z0.800 E0.29030
G1 X149.627 Y145.005 Z0.800 E0.29030
G1 X150.112 Y145.000 Z0.800 E0.29030
G1 X150.596 Y145.012 Z0.800 E0.29030
G1 X151.080 Y145.039 Z0.800 E0.29030
G1 X151.563 Y145.082 Z0.800 E0.29030
G1 X152.045 Y145.140 Z0.800 E0.29030
G1 X152.524 Y145.214 Z0.800 E0.29030
G1 X153.001 Y145.303 Z0.800 E0.29030
G1 X153.474 Y145.408 Z0.800 E0.29030
G1 X153.944 Y145.528 Z0.800 E0.29030
G1 X154.410 Y145.663 Z0.800 E0.29030
G1 X154.871 Y145.813 Z0.800 E0.29030
G1 X155.327 Y145.978 Z0.800 E0.29030
G1 X155.777 Y146.157 Z0.800 E0.29030
G1 X156.222 Y146.351 Z0.800 E0.29030
G1 X156.660 Y146.559 Z0.800 E0.29030
G1 X157.090 Y146.782 Z0.800 E0.29030
G1 X157.514 Y147.018 Z0.800 E0.29030
G1 X157.930 Y147.267 Z0.800 E0.29030
G1 X158.337 Y147.530 Z0.800 E0.29030
G1 X158.736 Y147.806 Z0.800 E0.29030
G1 X159.125 Y148.095 Z0.800 E0.29030
G1 X159.505 Y148.396 Z0.800 E0.29030
G1 X159.875 Y148.709 Z0.800 E0.29030
G1 X160.235 Y149.035 Z0.800 E0.29030
G1 X160.584 Y149.371 Z0.800 E0.29030
G1 X160.922 Y149.719 Z0.800 E0.29030
G1 X161.249 Y150.077 Z0.800 E0.29030
G1 X161.564 Y150.446 Z0.800 E0.29030
G1 X161.867 Y150.825 Z0.800 E0.29030
G1 X162.157 Y151.213 Z0.800 E0.29030
G1 X162.435 Y151.611 Z0.800 E0.29030
G1 X162.699 Y152.017 Z0.800 E0.29030
G1 X162.951 Y152.432 Z0.800 E0.29030
G1 X163.188 Y152.854 Z0.800 E0.29030
G1 X163.413 Y153.284 Z0.800 E0.29030
G1 X163.623 Y153.721 Z0.800 E0.29030
G1 X163.818 Y154.165 Z0.800 E0.29030
G1 X164.000 Y154.614 Z0.800 E0.29030
G1 X164.167 Y155.070 Z0.800 E0.29030
G1 X164.319 Y155.530 Z0.800 E0.29030
G1 X164.456 Y155.995 Z0.800 E0.29030
G1 X164.577 Y156.465 Z0.800 E0.29030
G1 X164.684 Y156.938 Z0.800 E0.29030
G1 X164.775 Y157.414 Z0.800 E0.29030
G1 X164.851 Y157.893 Z0.800 E0.29030
G1 X164.912 Y158.374 Z0.800 E0.29030
G1 X164.956 Y158.857 Z0.800 E0.29030
G1 X164.986 Y159.341 Z0.800 E0.29030
G1 X164.999 Y159.825 Z0.800 E0.29030
G1 X164.997 Y160.310 Z0.800 E0.29030
G1 X164.979 Y160.795 Z0.800 E0.29030
G1 X164.945 Y161.279 Z0.800 E0.29030
G1 X164.896 Y161.761 Z0.800 E0.29030
G1 X164.832 Y162.242 Z0.800 E0.29030
G1 E-3 F600
G92 E0

; ============================================================
; [2,3]  Z=0.8mm  speed=15mm/s  E/mm=0.5987
; Ring center: X230 Y160
; ============================================================
; Mini purge
G1 Z3.80 F6000
G1 X215.000 Y133.000 F6000
G1 Z0.800 F3000
G92 E0
G1 E3 F150
G1 X245.0 E17.9605 F900
G1 E-3 F600
G92 E0
; Ring (radial approach + overlap)
G1 Z3.80 F6000
G1 X253.000 Y160.000 F6000
G1 Z0.800 F3000
G1 E3 F300
G1 X245.000 Y160.000 E4.78946 F900
G1 X244.992 Y160.485 Z0.800 E0.29030
G1 X244.969 Y160.969 Z0.800 E0.29030
G1 X244.930 Y161.452 Z0.800 E0.29030
G1 X244.875 Y161.934 Z0.800 E0.29030
G1 X244.804 Y162.414 Z0.800 E0.29030
G1 X244.719 Y162.891 Z0.800 E0.29030
G1 X244.618 Y163.365 Z0.800 E0.29030
G1 X244.501 Y163.836 Z0.800 E0.29030
G1 X244.370 Y164.303 Z0.800 E0.29030
G1 X244.223 Y164.765 Z0.800 E0.29030
G1 X244.062 Y165.222 Z0.800 E0.29030
G1 X243.885 Y165.674 Z0.800 E0.29030
G1 X243.695 Y166.120 Z0.800 E0.29030
G1 X243.490 Y166.559 Z0.800 E0.29030
G1 X243.271 Y166.992 Z0.800 E0.29030
G1 X243.038 Y167.417 Z0.800 E0.29030
G1 X242.791 Y167.835 Z0.800 E0.29030
G1 X242.531 Y168.244 Z0.800 E0.29030
G1 X242.258 Y168.645 Z0.800 E0.29030
G1 X241.972 Y169.037 Z0.800 E0.29030
G1 X241.674 Y169.419 Z0.800 E0.29030
G1 X241.364 Y169.791 Z0.800 E0.29030
G1 X241.041 Y170.153 Z0.800 E0.29030
G1 X240.707 Y170.505 Z0.800 E0.29030
G1 X240.362 Y170.846 Z0.800 E0.29030
G1 X240.006 Y171.175 Z0.800 E0.29030
G1 X239.640 Y171.492 Z0.800 E0.29030
G1 X239.263 Y171.798 Z0.800 E0.29030
G1 X238.877 Y172.091 Z0.800 E0.29030
G1 X238.482 Y172.372 Z0.800 E0.29030
G1 X238.077 Y172.639 Z0.800 E0.29030
G1 X237.665 Y172.894 Z0.800 E0.29030
G1 X237.244 Y173.135 Z0.800 E0.29030
G1 X236.815 Y173.362 Z0.800 E0.29030
G1 X236.380 Y173.576 Z0.800 E0.29030
G1 X235.938 Y173.775 Z0.800 E0.29030
G1 X235.490 Y173.959 Z0.800 E0.29030
G1 X235.036 Y174.130 Z0.800 E0.29030
G1 X234.576 Y174.285 Z0.800 E0.29030
G1 X234.112 Y174.425 Z0.800 E0.29030
G1 X233.644 Y174.551 Z0.800 E0.29030
G1 X233.171 Y174.661 Z0.800 E0.29030
G1 X232.696 Y174.756 Z0.800 E0.29030
G1 X232.218 Y174.835 Z0.800 E0.29030
G1 X231.737 Y174.899 Z0.800 E0.29030
G1 X231.254 Y174.947 Z0.800 E0.29030
G1 X230.771 Y174.980 Z0.800 E0.29030
G1 X230.286 Y174.997 Z0.800 E0.29030
G1 X229.801 Y174.999 Z0.800 E0.29030
G1 X229.317 Y174.984 Z0.800 E0.29030
G1 X228.833 Y174.954 Z0.800 E0.29030
G1 X228.350 Y174.909 Z0.800 E0.29030
G1 X227.869 Y174.848 Z0.800 E0.29030
G1 X227.390 Y174.771 Z0.800 E0.29030
G1 X226.914 Y174.679 Z0.800 E0.29030
G1 X226.441 Y174.572 Z0.800 E0.29030
G1 X225.972 Y174.449 Z0.800 E0.29030
G1 X225.507 Y174.311 Z0.800 E0.29030
G1 X225.047 Y174.159 Z0.800 E0.29030
G1 X224.592 Y173.991 Z0.800 E0.29030
G1 X224.142 Y173.809 Z0.800 E0.29030
G1 X223.699 Y173.612 Z0.800 E0.29030
G1 X223.262 Y173.402 Z0.800 E0.29030
G1 X222.833 Y173.177 Z0.800 E0.29030
G1 X222.411 Y172.938 Z0.800 E0.29030
G1 X221.996 Y172.686 Z0.800 E0.29030
G1 X221.590 Y172.421 Z0.800 E0.29030
G1 X221.193 Y172.143 Z0.800 E0.29030
G1 X220.806 Y171.852 Z0.800 E0.29030
G1 X220.427 Y171.548 Z0.800 E0.29030
G1 X220.059 Y171.233 Z0.800 E0.29030
G1 X219.701 Y170.906 Z0.800 E0.29030
G1 X219.354 Y170.567 Z0.800 E0.29030
G1 X219.018 Y170.217 Z0.800 E0.29030
G1 X218.694 Y169.857 Z0.800 E0.29030
G1 X218.381 Y169.487 Z0.800 E0.29030
G1 X218.080 Y169.106 Z0.800 E0.29030
G1 X217.792 Y168.716 Z0.800 E0.29030
G1 X217.517 Y168.317 Z0.800 E0.29030
G1 X217.255 Y167.909 Z0.800 E0.29030
G1 X217.006 Y167.493 Z0.800 E0.29030
G1 X216.770 Y167.069 Z0.800 E0.29030
G1 X216.549 Y166.638 Z0.800 E0.29030
G1 X216.341 Y166.200 Z0.800 E0.29030
G1 X216.148 Y165.755 Z0.800 E0.29030
G1 X215.969 Y165.304 Z0.800 E0.29030
G1 X215.805 Y164.848 Z0.800 E0.29030
G1 X215.656 Y164.386 Z0.800 E0.29030
G1 X215.521 Y163.921 Z0.800 E0.29030
G1 X215.402 Y163.450 Z0.800 E0.29030
G1 X215.298 Y162.977 Z0.800 E0.29030
G1 X215.210 Y162.500 Z0.800 E0.29030
G1 X215.137 Y162.021 Z0.800 E0.29030
G1 X215.079 Y161.539 Z0.800 E0.29030
G1 X215.037 Y161.056 Z0.800 E0.29030
G1 X215.011 Y160.572 Z0.800 E0.29030
G1 X215.000 Y160.087 Z0.800 E0.29030
G1 X215.005 Y159.602 Z0.800 E0.29030
G1 X215.026 Y159.118 Z0.800 E0.29030
G1 X215.062 Y158.634 Z0.800 E0.29030
G1 X215.114 Y158.152 Z0.800 E0.29030
G1 X215.182 Y157.672 Z0.800 E0.29030
G1 X215.265 Y157.194 Z0.800 E0.29030
G1 X215.363 Y156.720 Z0.800 E0.29030
G1 X215.477 Y156.248 Z0.800 E0.29030
G1 X215.606 Y155.781 Z0.800 E0.29030
G1 X215.750 Y155.318 Z0.800 E0.29030
G1 X215.908 Y154.860 Z0.800 E0.29030
G1 X216.082 Y154.407 Z0.800 E0.29030
G1 X216.270 Y153.960 Z0.800 E0.29030
G1 X216.472 Y153.519 Z0.800 E0.29030
G1 X216.689 Y153.085 Z0.800 E0.29030
G1 X216.919 Y152.659 Z0.800 E0.29030
G1 X217.163 Y152.240 Z0.800 E0.29030
G1 X217.421 Y151.829 Z0.800 E0.29030
G1 X217.692 Y151.427 Z0.800 E0.29030
G1 X217.975 Y151.033 Z0.800 E0.29030
G1 X218.271 Y150.649 Z0.800 E0.29030
G1 X218.580 Y150.275 Z0.800 E0.29030
G1 X218.900 Y149.911 Z0.800 E0.29030
G1 X219.232 Y149.558 Z0.800 E0.29030
G1 X219.575 Y149.215 Z0.800 E0.29030
G1 X219.929 Y148.884 Z0.800 E0.29030
G1 X220.294 Y148.564 Z0.800 E0.29030
G1 X220.668 Y148.256 Z0.800 E0.29030
G1 X221.053 Y147.961 Z0.800 E0.29030
G1 X221.447 Y147.678 Z0.800 E0.29030
G1 X221.849 Y147.408 Z0.800 E0.29030
G1 X222.261 Y147.151 Z0.800 E0.29030
G1 X222.680 Y146.907 Z0.800 E0.29030
G1 X223.107 Y146.678 Z0.800 E0.29030
G1 X223.541 Y146.462 Z0.800 E0.29030
G1 X223.982 Y146.260 Z0.800 E0.29030
G1 X224.429 Y146.073 Z0.800 E0.29030
G1 X224.882 Y145.900 Z0.800 E0.29030
G1 X225.341 Y145.742 Z0.800 E0.29030
G1 X225.804 Y145.599 Z0.800 E0.29030
G1 X226.272 Y145.471 Z0.800 E0.29030
G1 X226.743 Y145.358 Z0.800 E0.29030
G1 X227.218 Y145.260 Z0.800 E0.29030
G1 X227.696 Y145.178 Z0.800 E0.29030
G1 X228.176 Y145.111 Z0.800 E0.29030
G1 X228.659 Y145.060 Z0.800 E0.29030
G1 X229.142 Y145.025 Z0.800 E0.29030
G1 X229.627 Y145.005 Z0.800 E0.29030
G1 X230.112 Y145.000 Z0.800 E0.29030
G1 X230.596 Y145.012 Z0.800 E0.29030
G1 X231.080 Y145.039 Z0.800 E0.29030
G1 X231.563 Y145.082 Z0.800 E0.29030
G1 X232.045 Y145.140 Z0.800 E0.29030
G1 X232.524 Y145.214 Z0.800 E0.29030
G1 X233.001 Y145.303 Z0.800 E0.29030
G1 X233.474 Y145.408 Z0.800 E0.29030
G1 X233.944 Y145.528 Z0.800 E0.29030
G1 X234.410 Y145.663 Z0.800 E0.29030
G1 X234.871 Y145.813 Z0.800 E0.29030
G1 X235.327 Y145.978 Z0.800 E0.29030
G1 X235.777 Y146.157 Z0.800 E0.29030
G1 X236.222 Y146.351 Z0.800 E0.29030
G1 X236.660 Y146.559 Z0.800 E0.29030
G1 X237.090 Y146.782 Z0.800 E0.29030
G1 X237.514 Y147.018 Z0.800 E0.29030
G1 X237.930 Y147.267 Z0.800 E0.29030
G1 X238.337 Y147.530 Z0.800 E0.29030
G1 X238.736 Y147.806 Z0.800 E0.29030
G1 X239.125 Y148.095 Z0.800 E0.29030
G1 X239.505 Y148.396 Z0.800 E0.29030
G1 X239.875 Y148.709 Z0.800 E0.29030
G1 X240.235 Y149.035 Z0.800 E0.29030
G1 X240.584 Y149.371 Z0.800 E0.29030
G1 X240.922 Y149.719 Z0.800 E0.29030
G1 X241.249 Y150.077 Z0.800 E0.29030
G1 X241.564 Y150.446 Z0.800 E0.29030
G1 X241.867 Y150.825 Z0.800 E0.29030
G1 X242.157 Y151.213 Z0.800 E0.29030
G1 X242.435 Y151.611 Z0.800 E0.29030
G1 X242.699 Y152.017 Z0.800 E0.29030
G1 X242.951 Y152.432 Z0.800 E0.29030
G1 X243.188 Y152.854 Z0.800 E0.29030
G1 X243.413 Y153.284 Z0.800 E0.29030
G1 X243.623 Y153.721 Z0.800 E0.29030
G1 X243.818 Y154.165 Z0.800 E0.29030
G1 X244.000 Y154.614 Z0.800 E0.29030
G1 X244.167 Y155.070 Z0.800 E0.29030
G1 X244.319 Y155.530 Z0.800 E0.29030
G1 X244.456 Y155.995 Z0.800 E0.29030
G1 X244.577 Y156.465 Z0.800 E0.29030
G1 X244.684 Y156.938 Z0.800 E0.29030
G1 X244.775 Y157.414 Z0.800 E0.29030
G1 X244.851 Y157.893 Z0.800 E0.29030
G1 X244.912 Y158.374 Z0.800 E0.29030
G1 X244.956 Y158.857 Z0.800 E0.29030
G1 X244.986 Y159.341 Z0.800 E0.29030
G1 X244.999 Y159.825 Z0.800 E0.29030
G1 X244.997 Y160.310 Z0.800 E0.29030
G1 X244.979 Y160.795 Z0.800 E0.29030
G1 X244.945 Y161.279 Z0.800 E0.29030
G1 X244.896 Y161.761 Z0.800 E0.29030
G1 X244.832 Y162.242 Z0.800 E0.29030
G1 E-3 F600
G92 E0

; ============================================================
; [3,1]  Z=1.0mm  speed=5mm/s  E/mm=0.7484
; Ring center: X70 Y250
; ============================================================
; Mini purge
G1 Z4.00 F6000
G1 X55.000 Y223.000 F6000
G1 Z1.000 F3000
G92 E0
G1 E3 F150
G1 X85.0 E22.4506 F300
G1 E-3 F600
G92 E0
; Ring (radial approach + overlap)
G1 Z4.00 F6000
G1 X93.000 Y250.000 F6000
G1 Z1.000 F3000
G1 E3 F300
G1 X85.000 Y250.000 E5.98682 F300
G1 X84.992 Y250.485 Z1.000 E0.36287
G1 X84.969 Y250.969 Z1.000 E0.36287
G1 X84.930 Y251.452 Z1.000 E0.36287
G1 X84.875 Y251.934 Z1.000 E0.36287
G1 X84.804 Y252.414 Z1.000 E0.36287
G1 X84.719 Y252.891 Z1.000 E0.36287
G1 X84.618 Y253.365 Z1.000 E0.36287
G1 X84.501 Y253.836 Z1.000 E0.36287
G1 X84.370 Y254.303 Z1.000 E0.36287
G1 X84.223 Y254.765 Z1.000 E0.36287
G1 X84.062 Y255.222 Z1.000 E0.36287
G1 X83.885 Y255.674 Z1.000 E0.36287
G1 X83.695 Y256.120 Z1.000 E0.36287
G1 X83.490 Y256.559 Z1.000 E0.36287
G1 X83.271 Y256.992 Z1.000 E0.36287
G1 X83.038 Y257.417 Z1.000 E0.36287
G1 X82.791 Y257.835 Z1.000 E0.36287
G1 X82.531 Y258.244 Z1.000 E0.36287
G1 X82.258 Y258.645 Z1.000 E0.36287
G1 X81.972 Y259.037 Z1.000 E0.36287
G1 X81.674 Y259.419 Z1.000 E0.36287
G1 X81.364 Y259.791 Z1.000 E0.36287
G1 X81.041 Y260.153 Z1.000 E0.36287
G1 X80.707 Y260.505 Z1.000 E0.36287
G1 X80.362 Y260.846 Z1.000 E0.36287
G1 X80.006 Y261.175 Z1.000 E0.36287
G1 X79.640 Y261.492 Z1.000 E0.36287
G1 X79.263 Y261.798 Z1.000 E0.36287
G1 X78.877 Y262.091 Z1.000 E0.36287
G1 X78.482 Y262.372 Z1.000 E0.36287
G1 X78.077 Y262.639 Z1.000 E0.36287
G1 X77.665 Y262.894 Z1.000 E0.36287
G1 X77.244 Y263.135 Z1.000 E0.36287
G1 X76.815 Y263.362 Z1.000 E0.36287
G1 X76.380 Y263.576 Z1.000 E0.36287
G1 X75.938 Y263.775 Z1.000 E0.36287
G1 X75.490 Y263.959 Z1.000 E0.36287
G1 X75.036 Y264.130 Z1.000 E0.36287
G1 X74.576 Y264.285 Z1.000 E0.36287
G1 X74.112 Y264.425 Z1.000 E0.36287
G1 X73.644 Y264.551 Z1.000 E0.36287
G1 X73.171 Y264.661 Z1.000 E0.36287
G1 X72.696 Y264.756 Z1.000 E0.36287
G1 X72.218 Y264.835 Z1.000 E0.36287
G1 X71.737 Y264.899 Z1.000 E0.36287
G1 X71.254 Y264.947 Z1.000 E0.36287
G1 X70.771 Y264.980 Z1.000 E0.36287
G1 X70.286 Y264.997 Z1.000 E0.36287
G1 X69.801 Y264.999 Z1.000 E0.36287
G1 X69.317 Y264.984 Z1.000 E0.36287
G1 X68.833 Y264.954 Z1.000 E0.36287
G1 X68.350 Y264.909 Z1.000 E0.36287
G1 X67.869 Y264.848 Z1.000 E0.36287
G1 X67.390 Y264.771 Z1.000 E0.36287
G1 X66.914 Y264.679 Z1.000 E0.36287
G1 X66.441 Y264.572 Z1.000 E0.36287
G1 X65.972 Y264.449 Z1.000 E0.36287
G1 X65.507 Y264.311 Z1.000 E0.36287
G1 X65.047 Y264.159 Z1.000 E0.36287
G1 X64.592 Y263.991 Z1.000 E0.36287
G1 X64.142 Y263.809 Z1.000 E0.36287
G1 X63.699 Y263.612 Z1.000 E0.36287
G1 X63.262 Y263.402 Z1.000 E0.36287
G1 X62.833 Y263.177 Z1.000 E0.36287
G1 X62.411 Y262.938 Z1.000 E0.36287
G1 X61.996 Y262.686 Z1.000 E0.36287
G1 X61.590 Y262.421 Z1.000 E0.36287
G1 X61.193 Y262.143 Z1.000 E0.36287
G1 X60.806 Y261.852 Z1.000 E0.36287
G1 X60.427 Y261.548 Z1.000 E0.36287
G1 X60.059 Y261.233 Z1.000 E0.36287
G1 X59.701 Y260.906 Z1.000 E0.36287
G1 X59.354 Y260.567 Z1.000 E0.36287
G1 X59.018 Y260.217 Z1.000 E0.36287
G1 X58.694 Y259.857 Z1.000 E0.36287
G1 X58.381 Y259.487 Z1.000 E0.36287
G1 X58.080 Y259.106 Z1.000 E0.36287
G1 X57.792 Y258.716 Z1.000 E0.36287
G1 X57.517 Y258.317 Z1.000 E0.36287
G1 X57.255 Y257.909 Z1.000 E0.36287
G1 X57.006 Y257.493 Z1.000 E0.36287
G1 X56.770 Y257.069 Z1.000 E0.36287
G1 X56.549 Y256.638 Z1.000 E0.36287
G1 X56.341 Y256.200 Z1.000 E0.36287
G1 X56.148 Y255.755 Z1.000 E0.36287
G1 X55.969 Y255.304 Z1.000 E0.36287
G1 X55.805 Y254.848 Z1.000 E0.36287
G1 X55.656 Y254.386 Z1.000 E0.36287
G1 X55.521 Y253.921 Z1.000 E0.36287
G1 X55.402 Y253.450 Z1.000 E0.36287
G1 X55.298 Y252.977 Z1.000 E0.36287
G1 X55.210 Y252.500 Z1.000 E0.36287
G1 X55.137 Y252.021 Z1.000 E0.36287
G1 X55.079 Y251.539 Z1.000 E0.36287
G1 X55.037 Y251.056 Z1.000 E0.36287
G1 X55.011 Y250.572 Z1.000 E0.36287
G1 X55.000 Y250.087 Z1.000 E0.36287
G1 X55.005 Y249.602 Z1.000 E0.36287
G1 X55.026 Y249.118 Z1.000 E0.36287
G1 X55.062 Y248.634 Z1.000 E0.36287
G1 X55.114 Y248.152 Z1.000 E0.36287
G1 X55.182 Y247.672 Z1.000 E0.36287
G1 X55.265 Y247.194 Z1.000 E0.36287
G1 X55.363 Y246.720 Z1.000 E0.36287
G1 X55.477 Y246.248 Z1.000 E0.36287
G1 X55.606 Y245.781 Z1.000 E0.36287
G1 X55.750 Y245.318 Z1.000 E0.36287
G1 X55.908 Y244.860 Z1.000 E0.36287
G1 X56.082 Y244.407 Z1.000 E0.36287
G1 X56.270 Y243.960 Z1.000 E0.36287
G1 X56.472 Y243.519 Z1.000 E0.36287
G1 X56.689 Y243.085 Z1.000 E0.36287
G1 X56.919 Y242.659 Z1.000 E0.36287
G1 X57.163 Y242.240 Z1.000 E0.36287
G1 X57.421 Y241.829 Z1.000 E0.36287
G1 X57.692 Y241.427 Z1.000 E0.36287
G1 X57.975 Y241.033 Z1.000 E0.36287
G1 X58.271 Y240.649 Z1.000 E0.36287
G1 X58.580 Y240.275 Z1.000 E0.36287
G1 X58.900 Y239.911 Z1.000 E0.36287
G1 X59.232 Y239.558 Z1.000 E0.36287
G1 X59.575 Y239.215 Z1.000 E0.36287
G1 X59.929 Y238.884 Z1.000 E0.36287
G1 X60.294 Y238.564 Z1.000 E0.36287
G1 X60.668 Y238.256 Z1.000 E0.36287
G1 X61.053 Y237.961 Z1.000 E0.36287
G1 X61.447 Y237.678 Z1.000 E0.36287
G1 X61.849 Y237.408 Z1.000 E0.36287
G1 X62.261 Y237.151 Z1.000 E0.36287
G1 X62.680 Y236.907 Z1.000 E0.36287
G1 X63.107 Y236.678 Z1.000 E0.36287
G1 X63.541 Y236.462 Z1.000 E0.36287
G1 X63.982 Y236.260 Z1.000 E0.36287
G1 X64.429 Y236.073 Z1.000 E0.36287
G1 X64.882 Y235.900 Z1.000 E0.36287
G1 X65.341 Y235.742 Z1.000 E0.36287
G1 X65.804 Y235.599 Z1.000 E0.36287
G1 X66.272 Y235.471 Z1.000 E0.36287
G1 X66.743 Y235.358 Z1.000 E0.36287
G1 X67.218 Y235.260 Z1.000 E0.36287
G1 X67.696 Y235.178 Z1.000 E0.36287
G1 X68.176 Y235.111 Z1.000 E0.36287
G1 X68.659 Y235.060 Z1.000 E0.36287
G1 X69.142 Y235.025 Z1.000 E0.36287
G1 X69.627 Y235.005 Z1.000 E0.36287
G1 X70.112 Y235.000 Z1.000 E0.36287
G1 X70.596 Y235.012 Z1.000 E0.36287
G1 X71.080 Y235.039 Z1.000 E0.36287
G1 X71.563 Y235.082 Z1.000 E0.36287
G1 X72.045 Y235.140 Z1.000 E0.36287
G1 X72.524 Y235.214 Z1.000 E0.36287
G1 X73.001 Y235.303 Z1.000 E0.36287
G1 X73.474 Y235.408 Z1.000 E0.36287
G1 X73.944 Y235.528 Z1.000 E0.36287
G1 X74.410 Y235.663 Z1.000 E0.36287
G1 X74.871 Y235.813 Z1.000 E0.36287
G1 X75.327 Y235.978 Z1.000 E0.36287
G1 X75.777 Y236.157 Z1.000 E0.36287
G1 X76.222 Y236.351 Z1.000 E0.36287
G1 X76.660 Y236.559 Z1.000 E0.36287
G1 X77.090 Y236.782 Z1.000 E0.36287
G1 X77.514 Y237.018 Z1.000 E0.36287
G1 X77.930 Y237.267 Z1.000 E0.36287
G1 X78.337 Y237.530 Z1.000 E0.36287
G1 X78.736 Y237.806 Z1.000 E0.36287
G1 X79.125 Y238.095 Z1.000 E0.36287
G1 X79.505 Y238.396 Z1.000 E0.36287
G1 X79.875 Y238.709 Z1.000 E0.36287
G1 X80.235 Y239.035 Z1.000 E0.36287
G1 X80.584 Y239.371 Z1.000 E0.36287
G1 X80.922 Y239.719 Z1.000 E0.36287
G1 X81.249 Y240.077 Z1.000 E0.36287
G1 X81.564 Y240.446 Z1.000 E0.36287
G1 X81.867 Y240.825 Z1.000 E0.36287
G1 X82.157 Y241.213 Z1.000 E0.36287
G1 X82.435 Y241.611 Z1.000 E0.36287
G1 X82.699 Y242.017 Z1.000 E0.36287
G1 X82.951 Y242.432 Z1.000 E0.36287
G1 X83.188 Y242.854 Z1.000 E0.36287
G1 X83.413 Y243.284 Z1.000 E0.36287
G1 X83.623 Y243.721 Z1.000 E0.36287
G1 X83.818 Y244.165 Z1.000 E0.36287
G1 X84.000 Y244.614 Z1.000 E0.36287
G1 X84.167 Y245.070 Z1.000 E0.36287
G1 X84.319 Y245.530 Z1.000 E0.36287
G1 X84.456 Y245.995 Z1.000 E0.36287
G1 X84.577 Y246.465 Z1.000 E0.36287
G1 X84.684 Y246.938 Z1.000 E0.36287
G1 X84.775 Y247.414 Z1.000 E0.36287
G1 X84.851 Y247.893 Z1.000 E0.36287
G1 X84.912 Y248.374 Z1.000 E0.36287
G1 X84.956 Y248.857 Z1.000 E0.36287
G1 X84.986 Y249.341 Z1.000 E0.36287
G1 X84.999 Y249.825 Z1.000 E0.36287
G1 X84.997 Y250.310 Z1.000 E0.36287
G1 X84.979 Y250.795 Z1.000 E0.36287
G1 X84.945 Y251.279 Z1.000 E0.36287
G1 X84.896 Y251.761 Z1.000 E0.36287
G1 X84.832 Y252.242 Z1.000 E0.36287
G1 E-3 F600
G92 E0

; ============================================================
; [3,2]  Z=1.0mm  speed=10mm/s  E/mm=0.7484
; Ring center: X150 Y250
; ============================================================
; Mini purge
G1 Z4.00 F6000
G1 X135.000 Y223.000 F6000
G1 Z1.000 F3000
G92 E0
G1 E3 F150
G1 X165.0 E22.4506 F600
G1 E-3 F600
G92 E0
; Ring (radial approach + overlap)
G1 Z4.00 F6000
G1 X173.000 Y250.000 F6000
G1 Z1.000 F3000
G1 E3 F300
G1 X165.000 Y250.000 E5.98682 F600
G1 X164.992 Y250.485 Z1.000 E0.36287
G1 X164.969 Y250.969 Z1.000 E0.36287
G1 X164.930 Y251.452 Z1.000 E0.36287
G1 X164.875 Y251.934 Z1.000 E0.36287
G1 X164.804 Y252.414 Z1.000 E0.36287
G1 X164.719 Y252.891 Z1.000 E0.36287
G1 X164.618 Y253.365 Z1.000 E0.36287
G1 X164.501 Y253.836 Z1.000 E0.36287
G1 X164.370 Y254.303 Z1.000 E0.36287
G1 X164.223 Y254.765 Z1.000 E0.36287
G1 X164.062 Y255.222 Z1.000 E0.36287
G1 X163.885 Y255.674 Z1.000 E0.36287
G1 X163.695 Y256.120 Z1.000 E0.36287
G1 X163.490 Y256.559 Z1.000 E0.36287
G1 X163.271 Y256.992 Z1.000 E0.36287
G1 X163.038 Y257.417 Z1.000 E0.36287
G1 X162.791 Y257.835 Z1.000 E0.36287
G1 X162.531 Y258.244 Z1.000 E0.36287
G1 X162.258 Y258.645 Z1.000 E0.36287
G1 X161.972 Y259.037 Z1.000 E0.36287
G1 X161.674 Y259.419 Z1.000 E0.36287
G1 X161.364 Y259.791 Z1.000 E0.36287
G1 X161.041 Y260.153 Z1.000 E0.36287
G1 X160.707 Y260.505 Z1.000 E0.36287
G1 X160.362 Y260.846 Z1.000 E0.36287
G1 X160.006 Y261.175 Z1.000 E0.36287
G1 X159.640 Y261.492 Z1.000 E0.36287
G1 X159.263 Y261.798 Z1.000 E0.36287
G1 X158.877 Y262.091 Z1.000 E0.36287
G1 X158.482 Y262.372 Z1.000 E0.36287
G1 X158.077 Y262.639 Z1.000 E0.36287
G1 X157.665 Y262.894 Z1.000 E0.36287
G1 X157.244 Y263.135 Z1.000 E0.36287
G1 X156.815 Y263.362 Z1.000 E0.36287
G1 X156.380 Y263.576 Z1.000 E0.36287
G1 X155.938 Y263.775 Z1.000 E0.36287
G1 X155.490 Y263.959 Z1.000 E0.36287
G1 X155.036 Y264.130 Z1.000 E0.36287
G1 X154.576 Y264.285 Z1.000 E0.36287
G1 X154.112 Y264.425 Z1.000 E0.36287
G1 X153.644 Y264.551 Z1.000 E0.36287
G1 X153.171 Y264.661 Z1.000 E0.36287
G1 X152.696 Y264.756 Z1.000 E0.36287
G1 X152.218 Y264.835 Z1.000 E0.36287
G1 X151.737 Y264.899 Z1.000 E0.36287
G1 X151.254 Y264.947 Z1.000 E0.36287
G1 X150.771 Y264.980 Z1.000 E0.36287
G1 X150.286 Y264.997 Z1.000 E0.36287
G1 X149.801 Y264.999 Z1.000 E0.36287
G1 X149.317 Y264.984 Z1.000 E0.36287
G1 X148.833 Y264.954 Z1.000 E0.36287
G1 X148.350 Y264.909 Z1.000 E0.36287
G1 X147.869 Y264.848 Z1.000 E0.36287
G1 X147.390 Y264.771 Z1.000 E0.36287
G1 X146.914 Y264.679 Z1.000 E0.36287
G1 X146.441 Y264.572 Z1.000 E0.36287
G1 X145.972 Y264.449 Z1.000 E0.36287
G1 X145.507 Y264.311 Z1.000 E0.36287
G1 X145.047 Y264.159 Z1.000 E0.36287
G1 X144.592 Y263.991 Z1.000 E0.36287
G1 X144.142 Y263.809 Z1.000 E0.36287
G1 X143.699 Y263.612 Z1.000 E0.36287
G1 X143.262 Y263.402 Z1.000 E0.36287
G1 X142.833 Y263.177 Z1.000 E0.36287
G1 X142.411 Y262.938 Z1.000 E0.36287
G1 X141.996 Y262.686 Z1.000 E0.36287
G1 X141.590 Y262.421 Z1.000 E0.36287
G1 X141.193 Y262.143 Z1.000 E0.36287
G1 X140.806 Y261.852 Z1.000 E0.36287
G1 X140.427 Y261.548 Z1.000 E0.36287
G1 X140.059 Y261.233 Z1.000 E0.36287
G1 X139.701 Y260.906 Z1.000 E0.36287
G1 X139.354 Y260.567 Z1.000 E0.36287
G1 X139.018 Y260.217 Z1.000 E0.36287
G1 X138.694 Y259.857 Z1.000 E0.36287
G1 X138.381 Y259.487 Z1.000 E0.36287
G1 X138.080 Y259.106 Z1.000 E0.36287
G1 X137.792 Y258.716 Z1.000 E0.36287
G1 X137.517 Y258.317 Z1.000 E0.36287
G1 X137.255 Y257.909 Z1.000 E0.36287
G1 X137.006 Y257.493 Z1.000 E0.36287
G1 X136.770 Y257.069 Z1.000 E0.36287
G1 X136.549 Y256.638 Z1.000 E0.36287
G1 X136.341 Y256.200 Z1.000 E0.36287
G1 X136.148 Y255.755 Z1.000 E0.36287
G1 X135.969 Y255.304 Z1.000 E0.36287
G1 X135.805 Y254.848 Z1.000 E0.36287
G1 X135.656 Y254.386 Z1.000 E0.36287
G1 X135.521 Y253.921 Z1.000 E0.36287
G1 X135.402 Y253.450 Z1.000 E0.36287
G1 X135.298 Y252.977 Z1.000 E0.36287
G1 X135.210 Y252.500 Z1.000 E0.36287
G1 X135.137 Y252.021 Z1.000 E0.36287
G1 X135.079 Y251.539 Z1.000 E0.36287
G1 X135.037 Y251.056 Z1.000 E0.36287
G1 X135.011 Y250.572 Z1.000 E0.36287
G1 X135.000 Y250.087 Z1.000 E0.36287
G1 X135.005 Y249.602 Z1.000 E0.36287
G1 X135.026 Y249.118 Z1.000 E0.36287
G1 X135.062 Y248.634 Z1.000 E0.36287
G1 X135.114 Y248.152 Z1.000 E0.36287
G1 X135.182 Y247.672 Z1.000 E0.36287
G1 X135.265 Y247.194 Z1.000 E0.36287
G1 X135.363 Y246.720 Z1.000 E0.36287
G1 X135.477 Y246.248 Z1.000 E0.36287
G1 X135.606 Y245.781 Z1.000 E0.36287
G1 X135.750 Y245.318 Z1.000 E0.36287
G1 X135.908 Y244.860 Z1.000 E0.36287
G1 X136.082 Y244.407 Z1.000 E0.36287
G1 X136.270 Y243.960 Z1.000 E0.36287
G1 X136.472 Y243.519 Z1.000 E0.36287
G1 X136.689 Y243.085 Z1.000 E0.36287
G1 X136.919 Y242.659 Z1.000 E0.36287
G1 X137.163 Y242.240 Z1.000 E0.36287
G1 X137.421 Y241.829 Z1.000 E0.36287
G1 X137.692 Y241.427 Z1.000 E0.36287
G1 X137.975 Y241.033 Z1.000 E0.36287
G1 X138.271 Y240.649 Z1.000 E0.36287
G1 X138.580 Y240.275 Z1.000 E0.36287
G1 X138.900 Y239.911 Z1.000 E0.36287
G1 X139.232 Y239.558 Z1.000 E0.36287
G1 X139.575 Y239.215 Z1.000 E0.36287
G1 X139.929 Y238.884 Z1.000 E0.36287
G1 X140.294 Y238.564 Z1.000 E0.36287
G1 X140.668 Y238.256 Z1.000 E0.36287
G1 X141.053 Y237.961 Z1.000 E0.36287
G1 X141.447 Y237.678 Z1.000 E0.36287
G1 X141.849 Y237.408 Z1.000 E0.36287
G1 X142.261 Y237.151 Z1.000 E0.36287
G1 X142.680 Y236.907 Z1.000 E0.36287
G1 X143.107 Y236.678 Z1.000 E0.36287
G1 X143.541 Y236.462 Z1.000 E0.36287
G1 X143.982 Y236.260 Z1.000 E0.36287
G1 X144.429 Y236.073 Z1.000 E0.36287
G1 X144.882 Y235.900 Z1.000 E0.36287
G1 X145.341 Y235.742 Z1.000 E0.36287
G1 X145.804 Y235.599 Z1.000 E0.36287
G1 X146.272 Y235.471 Z1.000 E0.36287
G1 X146.743 Y235.358 Z1.000 E0.36287
G1 X147.218 Y235.260 Z1.000 E0.36287
G1 X147.696 Y235.178 Z1.000 E0.36287
G1 X148.176 Y235.111 Z1.000 E0.36287
G1 X148.659 Y235.060 Z1.000 E0.36287
G1 X149.142 Y235.025 Z1.000 E0.36287
G1 X149.627 Y235.005 Z1.000 E0.36287
G1 X150.112 Y235.000 Z1.000 E0.36287
G1 X150.596 Y235.012 Z1.000 E0.36287
G1 X151.080 Y235.039 Z1.000 E0.36287
G1 X151.563 Y235.082 Z1.000 E0.36287
G1 X152.045 Y235.140 Z1.000 E0.36287
G1 X152.524 Y235.214 Z1.000 E0.36287
G1 X153.001 Y235.303 Z1.000 E0.36287
G1 X153.474 Y235.408 Z1.000 E0.36287
G1 X153.944 Y235.528 Z1.000 E0.36287
G1 X154.410 Y235.663 Z1.000 E0.36287
G1 X154.871 Y235.813 Z1.000 E0.36287
G1 X155.327 Y235.978 Z1.000 E0.36287
G1 X155.777 Y236.157 Z1.000 E0.36287
G1 X156.222 Y236.351 Z1.000 E0.36287
G1 X156.660 Y236.559 Z1.000 E0.36287
G1 X157.090 Y236.782 Z1.000 E0.36287
G1 X157.514 Y237.018 Z1.000 E0.36287
G1 X157.930 Y237.267 Z1.000 E0.36287
G1 X158.337 Y237.530 Z1.000 E0.36287
G1 X158.736 Y237.806 Z1.000 E0.36287
G1 X159.125 Y238.095 Z1.000 E0.36287
G1 X159.505 Y238.396 Z1.000 E0.36287
G1 X159.875 Y238.709 Z1.000 E0.36287
G1 X160.235 Y239.035 Z1.000 E0.36287
G1 X160.584 Y239.371 Z1.000 E0.36287
G1 X160.922 Y239.719 Z1.000 E0.36287
G1 X161.249 Y240.077 Z1.000 E0.36287
G1 X161.564 Y240.446 Z1.000 E0.36287
G1 X161.867 Y240.825 Z1.000 E0.36287
G1 X162.157 Y241.213 Z1.000 E0.36287
G1 X162.435 Y241.611 Z1.000 E0.36287
G1 X162.699 Y242.017 Z1.000 E0.36287
G1 X162.951 Y242.432 Z1.000 E0.36287
G1 X163.188 Y242.854 Z1.000 E0.36287
G1 X163.413 Y243.284 Z1.000 E0.36287
G1 X163.623 Y243.721 Z1.000 E0.36287
G1 X163.818 Y244.165 Z1.000 E0.36287
G1 X164.000 Y244.614 Z1.000 E0.36287
G1 X164.167 Y245.070 Z1.000 E0.36287
G1 X164.319 Y245.530 Z1.000 E0.36287
G1 X164.456 Y245.995 Z1.000 E0.36287
G1 X164.577 Y246.465 Z1.000 E0.36287
G1 X164.684 Y246.938 Z1.000 E0.36287
G1 X164.775 Y247.414 Z1.000 E0.36287
G1 X164.851 Y247.893 Z1.000 E0.36287
G1 X164.912 Y248.374 Z1.000 E0.36287
G1 X164.956 Y248.857 Z1.000 E0.36287
G1 X164.986 Y249.341 Z1.000 E0.36287
G1 X164.999 Y249.825 Z1.000 E0.36287
G1 X164.997 Y250.310 Z1.000 E0.36287
G1 X164.979 Y250.795 Z1.000 E0.36287
G1 X164.945 Y251.279 Z1.000 E0.36287
G1 X164.896 Y251.761 Z1.000 E0.36287
G1 X164.832 Y252.242 Z1.000 E0.36287
G1 E-3 F600
G92 E0

; ============================================================
; [3,3]  Z=1.0mm  speed=15mm/s  E/mm=0.7484
; Ring center: X230 Y250
; ============================================================
; Mini purge
G1 Z4.00 F6000
G1 X215.000 Y223.000 F6000
G1 Z1.000 F3000
G92 E0
G1 E3 F150
G1 X245.0 E22.4506 F900
G1 E-3 F600
G92 E0
; Ring (radial approach + overlap)
G1 Z4.00 F6000
G1 X253.000 Y250.000 F6000
G1 Z1.000 F3000
G1 E3 F300
G1 X245.000 Y250.000 E5.98682 F900
G1 X244.992 Y250.485 Z1.000 E0.36287
G1 X244.969 Y250.969 Z1.000 E0.36287
G1 X244.930 Y251.452 Z1.000 E0.36287
G1 X244.875 Y251.934 Z1.000 E0.36287
G1 X244.804 Y252.414 Z1.000 E0.36287
G1 X244.719 Y252.891 Z1.000 E0.36287
G1 X244.618 Y253.365 Z1.000 E0.36287
G1 X244.501 Y253.836 Z1.000 E0.36287
G1 X244.370 Y254.303 Z1.000 E0.36287
G1 X244.223 Y254.765 Z1.000 E0.36287
G1 X244.062 Y255.222 Z1.000 E0.36287
G1 X243.885 Y255.674 Z1.000 E0.36287
G1 X243.695 Y256.120 Z1.000 E0.36287
G1 X243.490 Y256.559 Z1.000 E0.36287
G1 X243.271 Y256.992 Z1.000 E0.36287
G1 X243.038 Y257.417 Z1.000 E0.36287
G1 X242.791 Y257.835 Z1.000 E0.36287
G1 X242.531 Y258.244 Z1.000 E0.36287
G1 X242.258 Y258.645 Z1.000 E0.36287
G1 X241.972 Y259.037 Z1.000 E0.36287
G1 X241.674 Y259.419 Z1.000 E0.36287
G1 X241.364 Y259.791 Z1.000 E0.36287
G1 X241.041 Y260.153 Z1.000 E0.36287
G1 X240.707 Y260.505 Z1.000 E0.36287
G1 X240.362 Y260.846 Z1.000 E0.36287
G1 X240.006 Y261.175 Z1.000 E0.36287
G1 X239.640 Y261.492 Z1.000 E0.36287
G1 X239.263 Y261.798 Z1.000 E0.36287
G1 X238.877 Y262.091 Z1.000 E0.36287
G1 X238.482 Y262.372 Z1.000 E0.36287
G1 X238.077 Y262.639 Z1.000 E0.36287
G1 X237.665 Y262.894 Z1.000 E0.36287
G1 X237.244 Y263.135 Z1.000 E0.36287
G1 X236.815 Y263.362 Z1.000 E0.36287
G1 X236.380 Y263.576 Z1.000 E0.36287
G1 X235.938 Y263.775 Z1.000 E0.36287
G1 X235.490 Y263.959 Z1.000 E0.36287
G1 X235.036 Y264.130 Z1.000 E0.36287
G1 X234.576 Y264.285 Z1.000 E0.36287
G1 X234.112 Y264.425 Z1.000 E0.36287
G1 X233.644 Y264.551 Z1.000 E0.36287
G1 X233.171 Y264.661 Z1.000 E0.36287
G1 X232.696 Y264.756 Z1.000 E0.36287
G1 X232.218 Y264.835 Z1.000 E0.36287
G1 X231.737 Y264.899 Z1.000 E0.36287
G1 X231.254 Y264.947 Z1.000 E0.36287
G1 X230.771 Y264.980 Z1.000 E0.36287
G1 X230.286 Y264.997 Z1.000 E0.36287
G1 X229.801 Y264.999 Z1.000 E0.36287
G1 X229.317 Y264.984 Z1.000 E0.36287
G1 X228.833 Y264.954 Z1.000 E0.36287
G1 X228.350 Y264.909 Z1.000 E0.36287
G1 X227.869 Y264.848 Z1.000 E0.36287
G1 X227.390 Y264.771 Z1.000 E0.36287
G1 X226.914 Y264.679 Z1.000 E0.36287
G1 X226.441 Y264.572 Z1.000 E0.36287
G1 X225.972 Y264.449 Z1.000 E0.36287
G1 X225.507 Y264.311 Z1.000 E0.36287
G1 X225.047 Y264.159 Z1.000 E0.36287
G1 X224.592 Y263.991 Z1.000 E0.36287
G1 X224.142 Y263.809 Z1.000 E0.36287
G1 X223.699 Y263.612 Z1.000 E0.36287
G1 X223.262 Y263.402 Z1.000 E0.36287
G1 X222.833 Y263.177 Z1.000 E0.36287
G1 X222.411 Y262.938 Z1.000 E0.36287
G1 X221.996 Y262.686 Z1.000 E0.36287
G1 X221.590 Y262.421 Z1.000 E0.36287
G1 X221.193 Y262.143 Z1.000 E0.36287
G1 X220.806 Y261.852 Z1.000 E0.36287
G1 X220.427 Y261.548 Z1.000 E0.36287
G1 X220.059 Y261.233 Z1.000 E0.36287
G1 X219.701 Y260.906 Z1.000 E0.36287
G1 X219.354 Y260.567 Z1.000 E0.36287
G1 X219.018 Y260.217 Z1.000 E0.36287
G1 X218.694 Y259.857 Z1.000 E0.36287
G1 X218.381 Y259.487 Z1.000 E0.36287
G1 X218.080 Y259.106 Z1.000 E0.36287
G1 X217.792 Y258.716 Z1.000 E0.36287
G1 X217.517 Y258.317 Z1.000 E0.36287
G1 X217.255 Y257.909 Z1.000 E0.36287
G1 X217.006 Y257.493 Z1.000 E0.36287
G1 X216.770 Y257.069 Z1.000 E0.36287
G1 X216.549 Y256.638 Z1.000 E0.36287
G1 X216.341 Y256.200 Z1.000 E0.36287
G1 X216.148 Y255.755 Z1.000 E0.36287
G1 X215.969 Y255.304 Z1.000 E0.36287
G1 X215.805 Y254.848 Z1.000 E0.36287
G1 X215.656 Y254.386 Z1.000 E0.36287
G1 X215.521 Y253.921 Z1.000 E0.36287
G1 X215.402 Y253.450 Z1.000 E0.36287
G1 X215.298 Y252.977 Z1.000 E0.36287
G1 X215.210 Y252.500 Z1.000 E0.36287
G1 X215.137 Y252.021 Z1.000 E0.36287
G1 X215.079 Y251.539 Z1.000 E0.36287
G1 X215.037 Y251.056 Z1.000 E0.36287
G1 X215.011 Y250.572 Z1.000 E0.36287
G1 X215.000 Y250.087 Z1.000 E0.36287
G1 X215.005 Y249.602 Z1.000 E0.36287
G1 X215.026 Y249.118 Z1.000 E0.36287
G1 X215.062 Y248.634 Z1.000 E0.36287
G1 X215.114 Y248.152 Z1.000 E0.36287
G1 X215.182 Y247.672 Z1.000 E0.36287
G1 X215.265 Y247.194 Z1.000 E0.36287
G1 X215.363 Y246.720 Z1.000 E0.36287
G1 X215.477 Y246.248 Z1.000 E0.36287
G1 X215.606 Y245.781 Z1.000 E0.36287
G1 X215.750 Y245.318 Z1.000 E0.36287
G1 X215.908 Y244.860 Z1.000 E0.36287
G1 X216.082 Y244.407 Z1.000 E0.36287
G1 X216.270 Y243.960 Z1.000 E0.36287
G1 X216.472 Y243.519 Z1.000 E0.36287
G1 X216.689 Y243.085 Z1.000 E0.36287
G1 X216.919 Y242.659 Z1.000 E0.36287
G1 X217.163 Y242.240 Z1.000 E0.36287
G1 X217.421 Y241.829 Z1.000 E0.36287
G1 X217.692 Y241.427 Z1.000 E0.36287
G1 X217.975 Y241.033 Z1.000 E0.36287
G1 X218.271 Y240.649 Z1.000 E0.36287
G1 X218.580 Y240.275 Z1.000 E0.36287
G1 X218.900 Y239.911 Z1.000 E0.36287
G1 X219.232 Y239.558 Z1.000 E0.36287
G1 X219.575 Y239.215 Z1.000 E0.36287
G1 X219.929 Y238.884 Z1.000 E0.36287
G1 X220.294 Y238.564 Z1.000 E0.36287
G1 X220.668 Y238.256 Z1.000 E0.36287
G1 X221.053 Y237.961 Z1.000 E0.36287
G1 X221.447 Y237.678 Z1.000 E0.36287
G1 X221.849 Y237.408 Z1.000 E0.36287
G1 X222.261 Y237.151 Z1.000 E0.36287
G1 X222.680 Y236.907 Z1.000 E0.36287
G1 X223.107 Y236.678 Z1.000 E0.36287
G1 X223.541 Y236.462 Z1.000 E0.36287
G1 X223.982 Y236.260 Z1.000 E0.36287
G1 X224.429 Y236.073 Z1.000 E0.36287
G1 X224.882 Y235.900 Z1.000 E0.36287
G1 X225.341 Y235.742 Z1.000 E0.36287
G1 X225.804 Y235.599 Z1.000 E0.36287
G1 X226.272 Y235.471 Z1.000 E0.36287
G1 X226.743 Y235.358 Z1.000 E0.36287
G1 X227.218 Y235.260 Z1.000 E0.36287
G1 X227.696 Y235.178 Z1.000 E0.36287
G1 X228.176 Y235.111 Z1.000 E0.36287
G1 X228.659 Y235.060 Z1.000 E0.36287
G1 X229.142 Y235.025 Z1.000 E0.36287
G1 X229.627 Y235.005 Z1.000 E0.36287
G1 X230.112 Y235.000 Z1.000 E0.36287
G1 X230.596 Y235.012 Z1.000 E0.36287
G1 X231.080 Y235.039 Z1.000 E0.36287
G1 X231.563 Y235.082 Z1.000 E0.36287
G1 X232.045 Y235.140 Z1.000 E0.36287
G1 X232.524 Y235.214 Z1.000 E0.36287
G1 X233.001 Y235.303 Z1.000 E0.36287
G1 X233.474 Y235.408 Z1.000 E0.36287
G1 X233.944 Y235.528 Z1.000 E0.36287
G1 X234.410 Y235.663 Z1.000 E0.36287
G1 X234.871 Y235.813 Z1.000 E0.36287
G1 X235.327 Y235.978 Z1.000 E0.36287
G1 X235.777 Y236.157 Z1.000 E0.36287
G1 X236.222 Y236.351 Z1.000 E0.36287
G1 X236.660 Y236.559 Z1.000 E0.36287
G1 X237.090 Y236.782 Z1.000 E0.36287
G1 X237.514 Y237.018 Z1.000 E0.36287
G1 X237.930 Y237.267 Z1.000 E0.36287
G1 X238.337 Y237.530 Z1.000 E0.36287
G1 X238.736 Y237.806 Z1.000 E0.36287
G1 X239.125 Y238.095 Z1.000 E0.36287
G1 X239.505 Y238.396 Z1.000 E0.36287
G1 X239.875 Y238.709 Z1.000 E0.36287
G1 X240.235 Y239.035 Z1.000 E0.36287
G1 X240.584 Y239.371 Z1.000 E0.36287
G1 X240.922 Y239.719 Z1.000 E0.36287
G1 X241.249 Y240.077 Z1.000 E0.36287
G1 X241.564 Y240.446 Z1.000 E0.36287
G1 X241.867 Y240.825 Z1.000 E0.36287
G1 X242.157 Y241.213 Z1.000 E0.36287
G1 X242.435 Y241.611 Z1.000 E0.36287
G1 X242.699 Y242.017 Z1.000 E0.36287
G1 X242.951 Y242.432 Z1.000 E0.36287
G1 X243.188 Y242.854 Z1.000 E0.36287
G1 X243.413 Y243.284 Z1.000 E0.36287
G1 X243.623 Y243.721 Z1.000 E0.36287
G1 X243.818 Y244.165 Z1.000 E0.36287
G1 X244.000 Y244.614 Z1.000 E0.36287
G1 X244.167 Y245.070 Z1.000 E0.36287
G1 X244.319 Y245.530 Z1.000 E0.36287
G1 X244.456 Y245.995 Z1.000 E0.36287
G1 X244.577 Y246.465 Z1.000 E0.36287
G1 X244.684 Y246.938 Z1.000 E0.36287
G1 X244.775 Y247.414 Z1.000 E0.36287
G1 X244.851 Y247.893 Z1.000 E0.36287
G1 X244.912 Y248.374 Z1.000 E0.36287
G1 X244.956 Y248.857 Z1.000 E0.36287
G1 X244.986 Y249.341 Z1.000 E0.36287
G1 X244.999 Y249.825 Z1.000 E0.36287
G1 X244.997 Y250.310 Z1.000 E0.36287
G1 X244.979 Y250.795 Z1.000 E0.36287
G1 X244.945 Y251.279 Z1.000 E0.36287
G1 X244.896 Y251.761 Z1.000 E0.36287
G1 X244.832 Y252.242 Z1.000 E0.36287
G1 E-3 F600
G92 E0

; ============================================================
; [4,1]  Z=1.2mm  speed=5mm/s  E/mm=0.8980
; Ring center: X70 Y340
; ============================================================
; Mini purge
G1 Z4.20 F6000
G1 X55.000 Y313.000 F6000
G1 Z1.200 F3000
G92 E0
G1 E3 F150
G1 X85.0 E26.9407 F300
G1 E-3 F600
G92 E0
; Ring (radial approach + overlap)
G1 Z4.20 F6000
G1 X93.000 Y340.000 F6000
G1 Z1.200 F3000
G1 E3 F300
G1 X85.000 Y340.000 E7.18419 F300
G1 X84.992 Y340.485 Z1.200 E0.43544
G1 X84.969 Y340.969 Z1.200 E0.43544
G1 X84.930 Y341.452 Z1.200 E0.43544
G1 X84.875 Y341.934 Z1.200 E0.43544
G1 X84.804 Y342.414 Z1.200 E0.43544
G1 X84.719 Y342.891 Z1.200 E0.43544
G1 X84.618 Y343.365 Z1.200 E0.43544
G1 X84.501 Y343.836 Z1.200 E0.43544
G1 X84.370 Y344.303 Z1.200 E0.43544
G1 X84.223 Y344.765 Z1.200 E0.43544
G1 X84.062 Y345.222 Z1.200 E0.43544
G1 X83.885 Y345.674 Z1.200 E0.43544
G1 X83.695 Y346.120 Z1.200 E0.43544
G1 X83.490 Y346.559 Z1.200 E0.43544
G1 X83.271 Y346.992 Z1.200 E0.43544
G1 X83.038 Y347.417 Z1.200 E0.43544
G1 X82.791 Y347.835 Z1.200 E0.43544
G1 X82.531 Y348.244 Z1.200 E0.43544
G1 X82.258 Y348.645 Z1.200 E0.43544
G1 X81.972 Y349.037 Z1.200 E0.43544
G1 X81.674 Y349.419 Z1.200 E0.43544
G1 X81.364 Y349.791 Z1.200 E0.43544
G1 X81.041 Y350.153 Z1.200 E0.43544
G1 X80.707 Y350.505 Z1.200 E0.43544
G1 X80.362 Y350.846 Z1.200 E0.43544
G1 X80.006 Y351.175 Z1.200 E0.43544
G1 X79.640 Y351.492 Z1.200 E0.43544
G1 X79.263 Y351.798 Z1.200 E0.43544
G1 X78.877 Y352.091 Z1.200 E0.43544
G1 X78.482 Y352.372 Z1.200 E0.43544
G1 X78.077 Y352.639 Z1.200 E0.43544
G1 X77.665 Y352.894 Z1.200 E0.43544
G1 X77.244 Y353.135 Z1.200 E0.43544
G1 X76.815 Y353.362 Z1.200 E0.43544
G1 X76.380 Y353.576 Z1.200 E0.43544
G1 X75.938 Y353.775 Z1.200 E0.43544
G1 X75.490 Y353.959 Z1.200 E0.43544
G1 X75.036 Y354.130 Z1.200 E0.43544
G1 X74.576 Y354.285 Z1.200 E0.43544
G1 X74.112 Y354.425 Z1.200 E0.43544
G1 X73.644 Y354.551 Z1.200 E0.43544
G1 X73.171 Y354.661 Z1.200 E0.43544
G1 X72.696 Y354.756 Z1.200 E0.43544
G1 X72.218 Y354.835 Z1.200 E0.43544
G1 X71.737 Y354.899 Z1.200 E0.43544
G1 X71.254 Y354.947 Z1.200 E0.43544
G1 X70.771 Y354.980 Z1.200 E0.43544
G1 X70.286 Y354.997 Z1.200 E0.43544
G1 X69.801 Y354.999 Z1.200 E0.43544
G1 X69.317 Y354.984 Z1.200 E0.43544
G1 X68.833 Y354.954 Z1.200 E0.43544
G1 X68.350 Y354.909 Z1.200 E0.43544
G1 X67.869 Y354.848 Z1.200 E0.43544
G1 X67.390 Y354.771 Z1.200 E0.43544
G1 X66.914 Y354.679 Z1.200 E0.43544
G1 X66.441 Y354.572 Z1.200 E0.43544
G1 X65.972 Y354.449 Z1.200 E0.43544
G1 X65.507 Y354.311 Z1.200 E0.43544
G1 X65.047 Y354.159 Z1.200 E0.43544
G1 X64.592 Y353.991 Z1.200 E0.43544
G1 X64.142 Y353.809 Z1.200 E0.43544
G1 X63.699 Y353.612 Z1.200 E0.43544
G1 X63.262 Y353.402 Z1.200 E0.43544
G1 X62.833 Y353.177 Z1.200 E0.43544
G1 X62.411 Y352.938 Z1.200 E0.43544
G1 X61.996 Y352.686 Z1.200 E0.43544
G1 X61.590 Y352.421 Z1.200 E0.43544
G1 X61.193 Y352.143 Z1.200 E0.43544
G1 X60.806 Y351.852 Z1.200 E0.43544
G1 X60.427 Y351.548 Z1.200 E0.43544
G1 X60.059 Y351.233 Z1.200 E0.43544
G1 X59.701 Y350.906 Z1.200 E0.43544
G1 X59.354 Y350.567 Z1.200 E0.43544
G1 X59.018 Y350.217 Z1.200 E0.43544
G1 X58.694 Y349.857 Z1.200 E0.43544
G1 X58.381 Y349.487 Z1.200 E0.43544
G1 X58.080 Y349.106 Z1.200 E0.43544
G1 X57.792 Y348.716 Z1.200 E0.43544
G1 X57.517 Y348.317 Z1.200 E0.43544
G1 X57.255 Y347.909 Z1.200 E0.43544
G1 X57.006 Y347.493 Z1.200 E0.43544
G1 X56.770 Y347.069 Z1.200 E0.43544
G1 X56.549 Y346.638 Z1.200 E0.43544
G1 X56.341 Y346.200 Z1.200 E0.43544
G1 X56.148 Y345.755 Z1.200 E0.43544
G1 X55.969 Y345.304 Z1.200 E0.43544
G1 X55.805 Y344.848 Z1.200 E0.43544
G1 X55.656 Y344.386 Z1.200 E0.43544
G1 X55.521 Y343.921 Z1.200 E0.43544
G1 X55.402 Y343.450 Z1.200 E0.43544
G1 X55.298 Y342.977 Z1.200 E0.43544
G1 X55.210 Y342.500 Z1.200 E0.43544
G1 X55.137 Y342.021 Z1.200 E0.43544
G1 X55.079 Y341.539 Z1.200 E0.43544
G1 X55.037 Y341.056 Z1.200 E0.43544
G1 X55.011 Y340.572 Z1.200 E0.43544
G1 X55.000 Y340.087 Z1.200 E0.43544
G1 X55.005 Y339.602 Z1.200 E0.43544
G1 X55.026 Y339.118 Z1.200 E0.43544
G1 X55.062 Y338.634 Z1.200 E0.43544
G1 X55.114 Y338.152 Z1.200 E0.43544
G1 X55.182 Y337.672 Z1.200 E0.43544
G1 X55.265 Y337.194 Z1.200 E0.43544
G1 X55.363 Y336.720 Z1.200 E0.43544
G1 X55.477 Y336.248 Z1.200 E0.43544
G1 X55.606 Y335.781 Z1.200 E0.43544
G1 X55.750 Y335.318 Z1.200 E0.43544
G1 X55.908 Y334.860 Z1.200 E0.43544
G1 X56.082 Y334.407 Z1.200 E0.43544
G1 X56.270 Y333.960 Z1.200 E0.43544
G1 X56.472 Y333.519 Z1.200 E0.43544
G1 X56.689 Y333.085 Z1.200 E0.43544
G1 X56.919 Y332.659 Z1.200 E0.43544
G1 X57.163 Y332.240 Z1.200 E0.43544
G1 X57.421 Y331.829 Z1.200 E0.43544
G1 X57.692 Y331.427 Z1.200 E0.43544
G1 X57.975 Y331.033 Z1.200 E0.43544
G1 X58.271 Y330.649 Z1.200 E0.43544
G1 X58.580 Y330.275 Z1.200 E0.43544
G1 X58.900 Y329.911 Z1.200 E0.43544
G1 X59.232 Y329.558 Z1.200 E0.43544
G1 X59.575 Y329.215 Z1.200 E0.43544
G1 X59.929 Y328.884 Z1.200 E0.43544
G1 X60.294 Y328.564 Z1.200 E0.43544
G1 X60.668 Y328.256 Z1.200 E0.43544
G1 X61.053 Y327.961 Z1.200 E0.43544
G1 X61.447 Y327.678 Z1.200 E0.43544
G1 X61.849 Y327.408 Z1.200 E0.43544
G1 X62.261 Y327.151 Z1.200 E0.43544
G1 X62.680 Y326.907 Z1.200 E0.43544
G1 X63.107 Y326.678 Z1.200 E0.43544
G1 X63.541 Y326.462 Z1.200 E0.43544
G1 X63.982 Y326.260 Z1.200 E0.43544
G1 X64.429 Y326.073 Z1.200 E0.43544
G1 X64.882 Y325.900 Z1.200 E0.43544
G1 X65.341 Y325.742 Z1.200 E0.43544
G1 X65.804 Y325.599 Z1.200 E0.43544
G1 X66.272 Y325.471 Z1.200 E0.43544
G1 X66.743 Y325.358 Z1.200 E0.43544
G1 X67.218 Y325.260 Z1.200 E0.43544
G1 X67.696 Y325.178 Z1.200 E0.43544
G1 X68.176 Y325.111 Z1.200 E0.43544
G1 X68.659 Y325.060 Z1.200 E0.43544
G1 X69.142 Y325.025 Z1.200 E0.43544
G1 X69.627 Y325.005 Z1.200 E0.43544
G1 X70.112 Y325.000 Z1.200 E0.43544
G1 X70.596 Y325.012 Z1.200 E0.43544
G1 X71.080 Y325.039 Z1.200 E0.43544
G1 X71.563 Y325.082 Z1.200 E0.43544
G1 X72.045 Y325.140 Z1.200 E0.43544
G1 X72.524 Y325.214 Z1.200 E0.43544
G1 X73.001 Y325.303 Z1.200 E0.43544
G1 X73.474 Y325.408 Z1.200 E0.43544
G1 X73.944 Y325.528 Z1.200 E0.43544
G1 X74.410 Y325.663 Z1.200 E0.43544
G1 X74.871 Y325.813 Z1.200 E0.43544
G1 X75.327 Y325.978 Z1.200 E0.43544
G1 X75.777 Y326.157 Z1.200 E0.43544
G1 X76.222 Y326.351 Z1.200 E0.43544
G1 X76.660 Y326.559 Z1.200 E0.43544
G1 X77.090 Y326.782 Z1.200 E0.43544
G1 X77.514 Y327.018 Z1.200 E0.43544
G1 X77.930 Y327.267 Z1.200 E0.43544
G1 X78.337 Y327.530 Z1.200 E0.43544
G1 X78.736 Y327.806 Z1.200 E0.43544
G1 X79.125 Y328.095 Z1.200 E0.43544
G1 X79.505 Y328.396 Z1.200 E0.43544
G1 X79.875 Y328.709 Z1.200 E0.43544
G1 X80.235 Y329.035 Z1.200 E0.43544
G1 X80.584 Y329.371 Z1.200 E0.43544
G1 X80.922 Y329.719 Z1.200 E0.43544
G1 X81.249 Y330.077 Z1.200 E0.43544
G1 X81.564 Y330.446 Z1.200 E0.43544
G1 X81.867 Y330.825 Z1.200 E0.43544
G1 X82.157 Y331.213 Z1.200 E0.43544
G1 X82.435 Y331.611 Z1.200 E0.43544
G1 X82.699 Y332.017 Z1.200 E0.43544
G1 X82.951 Y332.432 Z1.200 E0.43544
G1 X83.188 Y332.854 Z1.200 E0.43544
G1 X83.413 Y333.284 Z1.200 E0.43544
G1 X83.623 Y333.721 Z1.200 E0.43544
G1 X83.818 Y334.165 Z1.200 E0.43544
G1 X84.000 Y334.614 Z1.200 E0.43544
G1 X84.167 Y335.070 Z1.200 E0.43544
G1 X84.319 Y335.530 Z1.200 E0.43544
G1 X84.456 Y335.995 Z1.200 E0.43544
G1 X84.577 Y336.465 Z1.200 E0.43544
G1 X84.684 Y336.938 Z1.200 E0.43544
G1 X84.775 Y337.414 Z1.200 E0.43544
G1 X84.851 Y337.893 Z1.200 E0.43544
G1 X84.912 Y338.374 Z1.200 E0.43544
G1 X84.956 Y338.857 Z1.200 E0.43544
G1 X84.986 Y339.341 Z1.200 E0.43544
G1 X84.999 Y339.825 Z1.200 E0.43544
G1 X84.997 Y340.310 Z1.200 E0.43544
G1 X84.979 Y340.795 Z1.200 E0.43544
G1 X84.945 Y341.279 Z1.200 E0.43544
G1 X84.896 Y341.761 Z1.200 E0.43544
G1 X84.832 Y342.242 Z1.200 E0.43544
G1 E-3 F600
G92 E0

; ============================================================
; [4,2]  Z=1.2mm  speed=10mm/s  E/mm=0.8980
; Ring center: X150 Y340
; ============================================================
; Mini purge
G1 Z4.20 F6000
G1 X135.000 Y313.000 F6000
G1 Z1.200 F3000
G92 E0
G1 E3 F150
G1 X165.0 E26.9407 F600
G1 E-3 F600
G92 E0
; Ring (radial approach + overlap)
G1 Z4.20 F6000
G1 X173.000 Y340.000 F6000
G1 Z1.200 F3000
G1 E3 F300
G1 X165.000 Y340.000 E7.18419 F600
G1 X164.992 Y340.485 Z1.200 E0.43544
G1 X164.969 Y340.969 Z1.200 E0.43544
G1 X164.930 Y341.452 Z1.200 E0.43544
G1 X164.875 Y341.934 Z1.200 E0.43544
G1 X164.804 Y342.414 Z1.200 E0.43544
G1 X164.719 Y342.891 Z1.200 E0.43544
G1 X164.618 Y343.365 Z1.200 E0.43544
G1 X164.501 Y343.836 Z1.200 E0.43544
G1 X164.370 Y344.303 Z1.200 E0.43544
G1 X164.223 Y344.765 Z1.200 E0.43544
G1 X164.062 Y345.222 Z1.200 E0.43544
G1 X163.885 Y345.674 Z1.200 E0.43544
G1 X163.695 Y346.120 Z1.200 E0.43544
G1 X163.490 Y346.559 Z1.200 E0.43544
G1 X163.271 Y346.992 Z1.200 E0.43544
G1 X163.038 Y347.417 Z1.200 E0.43544
G1 X162.791 Y347.835 Z1.200 E0.43544
G1 X162.531 Y348.244 Z1.200 E0.43544
G1 X162.258 Y348.645 Z1.200 E0.43544
G1 X161.972 Y349.037 Z1.200 E0.43544
G1 X161.674 Y349.419 Z1.200 E0.43544
G1 X161.364 Y349.791 Z1.200 E0.43544
G1 X161.041 Y350.153 Z1.200 E0.43544
G1 X160.707 Y350.505 Z1.200 E0.43544
G1 X160.362 Y350.846 Z1.200 E0.43544
G1 X160.006 Y351.175 Z1.200 E0.43544
G1 X159.640 Y351.492 Z1.200 E0.43544
G1 X159.263 Y351.798 Z1.200 E0.43544
G1 X158.877 Y352.091 Z1.200 E0.43544
G1 X158.482 Y352.372 Z1.200 E0.43544
G1 X158.077 Y352.639 Z1.200 E0.43544
G1 X157.665 Y352.894 Z1.200 E0.43544
G1 X157.244 Y353.135 Z1.200 E0.43544
G1 X156.815 Y353.362 Z1.200 E0.43544
G1 X156.380 Y353.576 Z1.200 E0.43544
G1 X155.938 Y353.775 Z1.200 E0.43544
G1 X155.490 Y353.959 Z1.200 E0.43544
G1 X155.036 Y354.130 Z1.200 E0.43544
G1 X154.576 Y354.285 Z1.200 E0.43544
G1 X154.112 Y354.425 Z1.200 E0.43544
G1 X153.644 Y354.551 Z1.200 E0.43544
G1 X153.171 Y354.661 Z1.200 E0.43544
G1 X152.696 Y354.756 Z1.200 E0.43544
G1 X152.218 Y354.835 Z1.200 E0.43544
G1 X151.737 Y354.899 Z1.200 E0.43544
G1 X151.254 Y354.947 Z1.200 E0.43544
G1 X150.771 Y354.980 Z1.200 E0.43544
G1 X150.286 Y354.997 Z1.200 E0.43544
G1 X149.801 Y354.999 Z1.200 E0.43544
G1 X149.317 Y354.984 Z1.200 E0.43544
G1 X148.833 Y354.954 Z1.200 E0.43544
G1 X148.350 Y354.909 Z1.200 E0.43544
G1 X147.869 Y354.848 Z1.200 E0.43544
G1 X147.390 Y354.771 Z1.200 E0.43544
G1 X146.914 Y354.679 Z1.200 E0.43544
G1 X146.441 Y354.572 Z1.200 E0.43544
G1 X145.972 Y354.449 Z1.200 E0.43544
G1 X145.507 Y354.311 Z1.200 E0.43544
G1 X145.047 Y354.159 Z1.200 E0.43544
G1 X144.592 Y353.991 Z1.200 E0.43544
G1 X144.142 Y353.809 Z1.200 E0.43544
G1 X143.699 Y353.612 Z1.200 E0.43544
G1 X143.262 Y353.402 Z1.200 E0.43544
G1 X142.833 Y353.177 Z1.200 E0.43544
G1 X142.411 Y352.938 Z1.200 E0.43544
G1 X141.996 Y352.686 Z1.200 E0.43544
G1 X141.590 Y352.421 Z1.200 E0.43544
G1 X141.193 Y352.143 Z1.200 E0.43544
G1 X140.806 Y351.852 Z1.200 E0.43544
G1 X140.427 Y351.548 Z1.200 E0.43544
G1 X140.059 Y351.233 Z1.200 E0.43544
G1 X139.701 Y350.906 Z1.200 E0.43544
G1 X139.354 Y350.567 Z1.200 E0.43544
G1 X139.018 Y350.217 Z1.200 E0.43544
G1 X138.694 Y349.857 Z1.200 E0.43544
G1 X138.381 Y349.487 Z1.200 E0.43544
G1 X138.080 Y349.106 Z1.200 E0.43544
G1 X137.792 Y348.716 Z1.200 E0.43544
G1 X137.517 Y348.317 Z1.200 E0.43544
G1 X137.255 Y347.909 Z1.200 E0.43544
G1 X137.006 Y347.493 Z1.200 E0.43544
G1 X136.770 Y347.069 Z1.200 E0.43544
G1 X136.549 Y346.638 Z1.200 E0.43544
G1 X136.341 Y346.200 Z1.200 E0.43544
G1 X136.148 Y345.755 Z1.200 E0.43544
G1 X135.969 Y345.304 Z1.200 E0.43544
G1 X135.805 Y344.848 Z1.200 E0.43544
G1 X135.656 Y344.386 Z1.200 E0.43544
G1 X135.521 Y343.921 Z1.200 E0.43544
G1 X135.402 Y343.450 Z1.200 E0.43544
G1 X135.298 Y342.977 Z1.200 E0.43544
G1 X135.210 Y342.500 Z1.200 E0.43544
G1 X135.137 Y342.021 Z1.200 E0.43544
G1 X135.079 Y341.539 Z1.200 E0.43544
G1 X135.037 Y341.056 Z1.200 E0.43544
G1 X135.011 Y340.572 Z1.200 E0.43544
G1 X135.000 Y340.087 Z1.200 E0.43544
G1 X135.005 Y339.602 Z1.200 E0.43544
G1 X135.026 Y339.118 Z1.200 E0.43544
G1 X135.062 Y338.634 Z1.200 E0.43544
G1 X135.114 Y338.152 Z1.200 E0.43544
G1 X135.182 Y337.672 Z1.200 E0.43544
G1 X135.265 Y337.194 Z1.200 E0.43544
G1 X135.363 Y336.720 Z1.200 E0.43544
G1 X135.477 Y336.248 Z1.200 E0.43544
G1 X135.606 Y335.781 Z1.200 E0.43544
G1 X135.750 Y335.318 Z1.200 E0.43544
G1 X135.908 Y334.860 Z1.200 E0.43544
G1 X136.082 Y334.407 Z1.200 E0.43544
G1 X136.270 Y333.960 Z1.200 E0.43544
G1 X136.472 Y333.519 Z1.200 E0.43544
G1 X136.689 Y333.085 Z1.200 E0.43544
G1 X136.919 Y332.659 Z1.200 E0.43544
G1 X137.163 Y332.240 Z1.200 E0.43544
G1 X137.421 Y331.829 Z1.200 E0.43544
G1 X137.692 Y331.427 Z1.200 E0.43544
G1 X137.975 Y331.033 Z1.200 E0.43544
G1 X138.271 Y330.649 Z1.200 E0.43544
G1 X138.580 Y330.275 Z1.200 E0.43544
G1 X138.900 Y329.911 Z1.200 E0.43544
G1 X139.232 Y329.558 Z1.200 E0.43544
G1 X139.575 Y329.215 Z1.200 E0.43544
G1 X139.929 Y328.884 Z1.200 E0.43544
G1 X140.294 Y328.564 Z1.200 E0.43544
G1 X140.668 Y328.256 Z1.200 E0.43544
G1 X141.053 Y327.961 Z1.200 E0.43544
G1 X141.447 Y327.678 Z1.200 E0.43544
G1 X141.849 Y327.408 Z1.200 E0.43544
G1 X142.261 Y327.151 Z1.200 E0.43544
G1 X142.680 Y326.907 Z1.200 E0.43544
G1 X143.107 Y326.678 Z1.200 E0.43544
G1 X143.541 Y326.462 Z1.200 E0.43544
G1 X143.982 Y326.260 Z1.200 E0.43544
G1 X144.429 Y326.073 Z1.200 E0.43544
G1 X144.882 Y325.900 Z1.200 E0.43544
G1 X145.341 Y325.742 Z1.200 E0.43544
G1 X145.804 Y325.599 Z1.200 E0.43544
G1 X146.272 Y325.471 Z1.200 E0.43544
G1 X146.743 Y325.358 Z1.200 E0.43544
G1 X147.218 Y325.260 Z1.200 E0.43544
G1 X147.696 Y325.178 Z1.200 E0.43544
G1 X148.176 Y325.111 Z1.200 E0.43544
G1 X148.659 Y325.060 Z1.200 E0.43544
G1 X149.142 Y325.025 Z1.200 E0.43544
G1 X149.627 Y325.005 Z1.200 E0.43544
G1 X150.112 Y325.000 Z1.200 E0.43544
G1 X150.596 Y325.012 Z1.200 E0.43544
G1 X151.080 Y325.039 Z1.200 E0.43544
G1 X151.563 Y325.082 Z1.200 E0.43544
G1 X152.045 Y325.140 Z1.200 E0.43544
G1 X152.524 Y325.214 Z1.200 E0.43544
G1 X153.001 Y325.303 Z1.200 E0.43544
G1 X153.474 Y325.408 Z1.200 E0.43544
G1 X153.944 Y325.528 Z1.200 E0.43544
G1 X154.410 Y325.663 Z1.200 E0.43544
G1 X154.871 Y325.813 Z1.200 E0.43544
G1 X155.327 Y325.978 Z1.200 E0.43544
G1 X155.777 Y326.157 Z1.200 E0.43544
G1 X156.222 Y326.351 Z1.200 E0.43544
G1 X156.660 Y326.559 Z1.200 E0.43544
G1 X157.090 Y326.782 Z1.200 E0.43544
G1 X157.514 Y327.018 Z1.200 E0.43544
G1 X157.930 Y327.267 Z1.200 E0.43544
G1 X158.337 Y327.530 Z1.200 E0.43544
G1 X158.736 Y327.806 Z1.200 E0.43544
G1 X159.125 Y328.095 Z1.200 E0.43544
G1 X159.505 Y328.396 Z1.200 E0.43544
G1 X159.875 Y328.709 Z1.200 E0.43544
G1 X160.235 Y329.035 Z1.200 E0.43544
G1 X160.584 Y329.371 Z1.200 E0.43544
G1 X160.922 Y329.719 Z1.200 E0.43544
G1 X161.249 Y330.077 Z1.200 E0.43544
G1 X161.564 Y330.446 Z1.200 E0.43544
G1 X161.867 Y330.825 Z1.200 E0.43544
G1 X162.157 Y331.213 Z1.200 E0.43544
G1 X162.435 Y331.611 Z1.200 E0.43544
G1 X162.699 Y332.017 Z1.200 E0.43544
G1 X162.951 Y332.432 Z1.200 E0.43544
G1 X163.188 Y332.854 Z1.200 E0.43544
G1 X163.413 Y333.284 Z1.200 E0.43544
G1 X163.623 Y333.721 Z1.200 E0.43544
G1 X163.818 Y334.165 Z1.200 E0.43544
G1 X164.000 Y334.614 Z1.200 E0.43544
G1 X164.167 Y335.070 Z1.200 E0.43544
G1 X164.319 Y335.530 Z1.200 E0.43544
G1 X164.456 Y335.995 Z1.200 E0.43544
G1 X164.577 Y336.465 Z1.200 E0.43544
G1 X164.684 Y336.938 Z1.200 E0.43544
G1 X164.775 Y337.414 Z1.200 E0.43544
G1 X164.851 Y337.893 Z1.200 E0.43544
G1 X164.912 Y338.374 Z1.200 E0.43544
G1 X164.956 Y338.857 Z1.200 E0.43544
G1 X164.986 Y339.341 Z1.200 E0.43544
G1 X164.999 Y339.825 Z1.200 E0.43544
G1 X164.997 Y340.310 Z1.200 E0.43544
G1 X164.979 Y340.795 Z1.200 E0.43544
G1 X164.945 Y341.279 Z1.200 E0.43544
G1 X164.896 Y341.761 Z1.200 E0.43544
G1 X164.832 Y342.242 Z1.200 E0.43544
G1 E-3 F600
G92 E0

; ============================================================
; [4,3]  Z=1.2mm  speed=15mm/s  E/mm=0.8980
; Ring center: X230 Y340
; ============================================================
; Mini purge
G1 Z4.20 F6000
G1 X215.000 Y313.000 F6000
G1 Z1.200 F3000
G92 E0
G1 E3 F150
G1 X245.0 E26.9407 F900
G1 E-3 F600
G92 E0
; Ring (radial approach + overlap)
G1 Z4.20 F6000
G1 X253.000 Y340.000 F6000
G1 Z1.200 F3000
G1 E3 F300
G1 X245.000 Y340.000 E7.18419 F900
G1 X244.992 Y340.485 Z1.200 E0.43544
G1 X244.969 Y340.969 Z1.200 E0.43544
G1 X244.930 Y341.452 Z1.200 E0.43544
G1 X244.875 Y341.934 Z1.200 E0.43544
G1 X244.804 Y342.414 Z1.200 E0.43544
G1 X244.719 Y342.891 Z1.200 E0.43544
G1 X244.618 Y343.365 Z1.200 E0.43544
G1 X244.501 Y343.836 Z1.200 E0.43544
G1 X244.370 Y344.303 Z1.200 E0.43544
G1 X244.223 Y344.765 Z1.200 E0.43544
G1 X244.062 Y345.222 Z1.200 E0.43544
G1 X243.885 Y345.674 Z1.200 E0.43544
G1 X243.695 Y346.120 Z1.200 E0.43544
G1 X243.490 Y346.559 Z1.200 E0.43544
G1 X243.271 Y346.992 Z1.200 E0.43544
G1 X243.038 Y347.417 Z1.200 E0.43544
G1 X242.791 Y347.835 Z1.200 E0.43544
G1 X242.531 Y348.244 Z1.200 E0.43544
G1 X242.258 Y348.645 Z1.200 E0.43544
G1 X241.972 Y349.037 Z1.200 E0.43544
G1 X241.674 Y349.419 Z1.200 E0.43544
G1 X241.364 Y349.791 Z1.200 E0.43544
G1 X241.041 Y350.153 Z1.200 E0.43544
G1 X240.707 Y350.505 Z1.200 E0.43544
G1 X240.362 Y350.846 Z1.200 E0.43544
G1 X240.006 Y351.175 Z1.200 E0.43544
G1 X239.640 Y351.492 Z1.200 E0.43544
G1 X239.263 Y351.798 Z1.200 E0.43544
G1 X238.877 Y352.091 Z1.200 E0.43544
G1 X238.482 Y352.372 Z1.200 E0.43544
G1 X238.077 Y352.639 Z1.200 E0.43544
G1 X237.665 Y352.894 Z1.200 E0.43544
G1 X237.244 Y353.135 Z1.200 E0.43544
G1 X236.815 Y353.362 Z1.200 E0.43544
G1 X236.380 Y353.576 Z1.200 E0.43544
G1 X235.938 Y353.775 Z1.200 E0.43544
G1 X235.490 Y353.959 Z1.200 E0.43544
G1 X235.036 Y354.130 Z1.200 E0.43544
G1 X234.576 Y354.285 Z1.200 E0.43544
G1 X234.112 Y354.425 Z1.200 E0.43544
G1 X233.644 Y354.551 Z1.200 E0.43544
G1 X233.171 Y354.661 Z1.200 E0.43544
G1 X232.696 Y354.756 Z1.200 E0.43544
G1 X232.218 Y354.835 Z1.200 E0.43544
G1 X231.737 Y354.899 Z1.200 E0.43544
G1 X231.254 Y354.947 Z1.200 E0.43544
G1 X230.771 Y354.980 Z1.200 E0.43544
G1 X230.286 Y354.997 Z1.200 E0.43544
G1 X229.801 Y354.999 Z1.200 E0.43544
G1 X229.317 Y354.984 Z1.200 E0.43544
G1 X228.833 Y354.954 Z1.200 E0.43544
G1 X228.350 Y354.909 Z1.200 E0.43544
G1 X227.869 Y354.848 Z1.200 E0.43544
G1 X227.390 Y354.771 Z1.200 E0.43544
G1 X226.914 Y354.679 Z1.200 E0.43544
G1 X226.441 Y354.572 Z1.200 E0.43544
G1 X225.972 Y354.449 Z1.200 E0.43544
G1 X225.507 Y354.311 Z1.200 E0.43544
G1 X225.047 Y354.159 Z1.200 E0.43544
G1 X224.592 Y353.991 Z1.200 E0.43544
G1 X224.142 Y353.809 Z1.200 E0.43544
G1 X223.699 Y353.612 Z1.200 E0.43544
G1 X223.262 Y353.402 Z1.200 E0.43544
G1 X222.833 Y353.177 Z1.200 E0.43544
G1 X222.411 Y352.938 Z1.200 E0.43544
G1 X221.996 Y352.686 Z1.200 E0.43544
G1 X221.590 Y352.421 Z1.200 E0.43544
G1 X221.193 Y352.143 Z1.200 E0.43544
G1 X220.806 Y351.852 Z1.200 E0.43544
G1 X220.427 Y351.548 Z1.200 E0.43544
G1 X220.059 Y351.233 Z1.200 E0.43544
G1 X219.701 Y350.906 Z1.200 E0.43544
G1 X219.354 Y350.567 Z1.200 E0.43544
G1 X219.018 Y350.217 Z1.200 E0.43544
G1 X218.694 Y349.857 Z1.200 E0.43544
G1 X218.381 Y349.487 Z1.200 E0.43544
G1 X218.080 Y349.106 Z1.200 E0.43544
G1 X217.792 Y348.716 Z1.200 E0.43544
G1 X217.517 Y348.317 Z1.200 E0.43544
G1 X217.255 Y347.909 Z1.200 E0.43544
G1 X217.006 Y347.493 Z1.200 E0.43544
G1 X216.770 Y347.069 Z1.200 E0.43544
G1 X216.549 Y346.638 Z1.200 E0.43544
G1 X216.341 Y346.200 Z1.200 E0.43544
G1 X216.148 Y345.755 Z1.200 E0.43544
G1 X215.969 Y345.304 Z1.200 E0.43544
G1 X215.805 Y344.848 Z1.200 E0.43544
G1 X215.656 Y344.386 Z1.200 E0.43544
G1 X215.521 Y343.921 Z1.200 E0.43544
G1 X215.402 Y343.450 Z1.200 E0.43544
G1 X215.298 Y342.977 Z1.200 E0.43544
G1 X215.210 Y342.500 Z1.200 E0.43544
G1 X215.137 Y342.021 Z1.200 E0.43544
G1 X215.079 Y341.539 Z1.200 E0.43544
G1 X215.037 Y341.056 Z1.200 E0.43544
G1 X215.011 Y340.572 Z1.200 E0.43544
G1 X215.000 Y340.087 Z1.200 E0.43544
G1 X215.005 Y339.602 Z1.200 E0.43544
G1 X215.026 Y339.118 Z1.200 E0.43544
G1 X215.062 Y338.634 Z1.200 E0.43544
G1 X215.114 Y338.152 Z1.200 E0.43544
G1 X215.182 Y337.672 Z1.200 E0.43544
G1 X215.265 Y337.194 Z1.200 E0.43544
G1 X215.363 Y336.720 Z1.200 E0.43544
G1 X215.477 Y336.248 Z1.200 E0.43544
G1 X215.606 Y335.781 Z1.200 E0.43544
G1 X215.750 Y335.318 Z1.200 E0.43544
G1 X215.908 Y334.860 Z1.200 E0.43544
G1 X216.082 Y334.407 Z1.200 E0.43544
G1 X216.270 Y333.960 Z1.200 E0.43544
G1 X216.472 Y333.519 Z1.200 E0.43544
G1 X216.689 Y333.085 Z1.200 E0.43544
G1 X216.919 Y332.659 Z1.200 E0.43544
G1 X217.163 Y332.240 Z1.200 E0.43544
G1 X217.421 Y331.829 Z1.200 E0.43544
G1 X217.692 Y331.427 Z1.200 E0.43544
G1 X217.975 Y331.033 Z1.200 E0.43544
G1 X218.271 Y330.649 Z1.200 E0.43544
G1 X218.580 Y330.275 Z1.200 E0.43544
G1 X218.900 Y329.911 Z1.200 E0.43544
G1 X219.232 Y329.558 Z1.200 E0.43544
G1 X219.575 Y329.215 Z1.200 E0.43544
G1 X219.929 Y328.884 Z1.200 E0.43544
G1 X220.294 Y328.564 Z1.200 E0.43544
G1 X220.668 Y328.256 Z1.200 E0.43544
G1 X221.053 Y327.961 Z1.200 E0.43544
G1 X221.447 Y327.678 Z1.200 E0.43544
G1 X221.849 Y327.408 Z1.200 E0.43544
G1 X222.261 Y327.151 Z1.200 E0.43544
G1 X222.680 Y326.907 Z1.200 E0.43544
G1 X223.107 Y326.678 Z1.200 E0.43544
G1 X223.541 Y326.462 Z1.200 E0.43544
G1 X223.982 Y326.260 Z1.200 E0.43544
G1 X224.429 Y326.073 Z1.200 E0.43544
G1 X224.882 Y325.900 Z1.200 E0.43544
G1 X225.341 Y325.742 Z1.200 E0.43544
G1 X225.804 Y325.599 Z1.200 E0.43544
G1 X226.272 Y325.471 Z1.200 E0.43544
G1 X226.743 Y325.358 Z1.200 E0.43544
G1 X227.218 Y325.260 Z1.200 E0.43544
G1 X227.696 Y325.178 Z1.200 E0.43544
G1 X228.176 Y325.111 Z1.200 E0.43544
G1 X228.659 Y325.060 Z1.200 E0.43544
G1 X229.142 Y325.025 Z1.200 E0.43544
G1 X229.627 Y325.005 Z1.200 E0.43544
G1 X230.112 Y325.000 Z1.200 E0.43544
G1 X230.596 Y325.012 Z1.200 E0.43544
G1 X231.080 Y325.039 Z1.200 E0.43544
G1 X231.563 Y325.082 Z1.200 E0.43544
G1 X232.045 Y325.140 Z1.200 E0.43544
G1 X232.524 Y325.214 Z1.200 E0.43544
G1 X233.001 Y325.303 Z1.200 E0.43544
G1 X233.474 Y325.408 Z1.200 E0.43544
G1 X233.944 Y325.528 Z1.200 E0.43544
G1 X234.410 Y325.663 Z1.200 E0.43544
G1 X234.871 Y325.813 Z1.200 E0.43544
G1 X235.327 Y325.978 Z1.200 E0.43544
G1 X235.777 Y326.157 Z1.200 E0.43544
G1 X236.222 Y326.351 Z1.200 E0.43544
G1 X236.660 Y326.559 Z1.200 E0.43544
G1 X237.090 Y326.782 Z1.200 E0.43544
G1 X237.514 Y327.018 Z1.200 E0.43544
G1 X237.930 Y327.267 Z1.200 E0.43544
G1 X238.337 Y327.530 Z1.200 E0.43544
G1 X238.736 Y327.806 Z1.200 E0.43544
G1 X239.125 Y328.095 Z1.200 E0.43544
G1 X239.505 Y328.396 Z1.200 E0.43544
G1 X239.875 Y328.709 Z1.200 E0.43544
G1 X240.235 Y329.035 Z1.200 E0.43544
G1 X240.584 Y329.371 Z1.200 E0.43544
G1 X240.922 Y329.719 Z1.200 E0.43544
G1 X241.249 Y330.077 Z1.200 E0.43544
G1 X241.564 Y330.446 Z1.200 E0.43544
G1 X241.867 Y330.825 Z1.200 E0.43544
G1 X242.157 Y331.213 Z1.200 E0.43544
G1 X242.435 Y331.611 Z1.200 E0.43544
G1 X242.699 Y332.017 Z1.200 E0.43544
G1 X242.951 Y332.432 Z1.200 E0.43544
G1 X243.188 Y332.854 Z1.200 E0.43544
G1 X243.413 Y333.284 Z1.200 E0.43544
G1 X243.623 Y333.721 Z1.200 E0.43544
G1 X243.818 Y334.165 Z1.200 E0.43544
G1 X244.000 Y334.614 Z1.200 E0.43544
G1 X244.167 Y335.070 Z1.200 E0.43544
G1 X244.319 Y335.530 Z1.200 E0.43544
G1 X244.456 Y335.995 Z1.200 E0.43544
G1 X244.577 Y336.465 Z1.200 E0.43544
G1 X244.684 Y336.938 Z1.200 E0.43544
G1 X244.775 Y337.414 Z1.200 E0.43544
G1 X244.851 Y337.893 Z1.200 E0.43544
G1 X244.912 Y338.374 Z1.200 E0.43544
G1 X244.956 Y338.857 Z1.200 E0.43544
G1 X244.986 Y339.341 Z1.200 E0.43544
G1 X244.999 Y339.825 Z1.200 E0.43544
G1 X244.997 Y340.310 Z1.200 E0.43544
G1 X244.979 Y340.795 Z1.200 E0.43544
G1 X244.945 Y341.279 Z1.200 E0.43544
G1 X244.896 Y341.761 Z1.200 E0.43544
G1 X244.832 Y342.242 Z1.200 E0.43544
G1 E-3 F600
G92 E0

; --- End ---
M106 S0
M104 S0
M140 S0
G1 Z80 F3000
G28 X0
M84